<?xml version="1.0" encoding="UTF-8"?>
<gpx version="1.1" creator="Pardal" xmlns="http://www.topografix.com/GPX/1/1">
<metadata><name>Pardal — radares — RS</name><desc>Pardal — © colaboradores do OpenStreetMap (ODbL 1.0) e fontes abertas listadas no README</desc></metadata>
<wpt lat="-33.696770" lon="-53.448085"><name>Radar 45 km/h</name><desc>Fonte: OSM</desc><type>FIXED</type></wpt>
<wpt lat="-33.684483" lon="-53.551352"><name>Radar 45 km/h</name><desc>Fonte: OSM</desc><type>FIXED</type></wpt>
<wpt lat="-33.519274" lon="-53.335031"><name>Radar 60 km/h</name><desc>Fonte: OSM</desc><type>FIXED</type></wpt>
<wpt lat="-32.939950" lon="-52.766761"><name>Radar 60 km/h</name><desc>Fonte: OSM</desc><type>FIXED</type></wpt>
<wpt lat="-32.265783" lon="-53.091659"><name>Radar</name><desc>Fonte: OSM</desc><type>FIXED</type></wpt>
<wpt lat="-32.246770" lon="-53.072087"><name>Radar 60 km/h</name><desc>Fonte: OSM</desc><type>FIXED</type></wpt>
<wpt lat="-32.214514" lon="-53.033677"><name>Radar</name><desc>Fonte: OSM</desc><type>FIXED</type></wpt>
<wpt lat="-32.212894" lon="-53.031562"><name>Radar</name><desc>Fonte: OSM</desc><type>FIXED</type></wpt>
<wpt lat="-32.121772" lon="-52.111338"><name>Radar</name><desc>Fonte: DNIT</desc><type>FIXED</type></wpt>
<wpt lat="-32.116504" lon="-52.111385"><name>Radar 60 km/h</name><desc>Fonte: DNIT+OSM</desc><type>FIXED</type></wpt>
<wpt lat="-32.075517" lon="-52.260178"><name>Radar</name><desc>Fonte: OSM</desc><type>FIXED</type></wpt>
<wpt lat="-32.074658" lon="-52.261343"><name>Radar</name><desc>Fonte: OSM</desc><type>FIXED</type></wpt>
<wpt lat="-31.948635" lon="-52.309258"><name>Radar 80 km/h</name><desc>Fonte: OSM</desc><type>FIXED</type></wpt>
<wpt lat="-31.948048" lon="-52.309187"><name>Radar 80 km/h</name><desc>Fonte: OSM</desc><type>FIXED</type></wpt>
<wpt lat="-31.829040" lon="-52.328478"><name>Radar 100 km/h</name><desc>Fonte: OSM</desc><type>FIXED</type></wpt>
<wpt lat="-31.760845" lon="-52.439281"><name>Radar</name><desc>Fonte: OSM</desc><type>FIXED</type></wpt>
<wpt lat="-31.755775" lon="-52.431368"><name>Radar</name><desc>Fonte: OSM</desc><type>FIXED</type></wpt>
<wpt lat="-31.755142" lon="-52.429796"><name>Radar 40 km/h</name><desc>Fonte: OSM</desc><type>FIXED</type></wpt>
<wpt lat="-31.754254" lon="-52.427608"><name>Radar</name><desc>Fonte: OSM</desc><type>FIXED</type></wpt>
<wpt lat="-31.745467" lon="-52.405104"><name>Radar</name><desc>Fonte: OSM</desc><type>FIXED</type></wpt>
<wpt lat="-31.740434" lon="-52.397002"><name>Radar 40 km/h</name><desc>Fonte: OSM</desc><type>FIXED</type></wpt>
<wpt lat="-31.738878" lon="-52.396289"><name>Radar 40 km/h</name><desc>Fonte: OSM</desc><type>FIXED</type></wpt>
<wpt lat="-31.651687" lon="-52.473011"><name>Radar 50 km/h</name><desc>Fonte: OSM</desc><type>FIXED</type></wpt>
<wpt lat="-31.634625" lon="-52.330377"><name>Radar 100 km/h</name><desc>Fonte: OSM</desc><type>FIXED</type></wpt>
<wpt lat="-31.622747" lon="-52.504628"><name>Radar 50 km/h</name><desc>Fonte: OSM</desc><type>FIXED</type></wpt>
<wpt lat="-31.537299" lon="-52.573737"><name>Radar 40 km/h</name><desc>Fonte: OSM</desc><type>FIXED</type></wpt>
<wpt lat="-31.491464" lon="-52.213861"><name>Radar 60 km/h</name><desc>Fonte: OSM</desc><type>FIXED</type></wpt>
<wpt lat="-31.466104" lon="-53.661860"><name>Radar</name><desc>Fonte: DNIT · sentido 306° (noroeste)</desc><type>FIXED</type></wpt>
<wpt lat="-31.463795" lon="-53.665376"><name>Radar</name><desc>Fonte: DNIT · sentido 132° (sudeste)</desc><type>FIXED</type></wpt>
<wpt lat="-31.438065" lon="-52.192281"><name>Radar 80 km/h</name><desc>Fonte: OSM</desc><type>FIXED</type></wpt>
<wpt lat="-31.438005" lon="-52.192235"><name>Radar 80 km/h</name><desc>Fonte: OSM</desc><type>FIXED</type></wpt>
<wpt lat="-31.411370" lon="-52.680818"><name>Radar 60 km/h</name><desc>Fonte: OSM</desc><type>FIXED</type></wpt>
<wpt lat="-31.407932" lon="-52.681604"><name>Radar 60 km/h</name><desc>Fonte: OSM</desc><type>FIXED</type></wpt>
<wpt lat="-31.391551" lon="-52.687998"><name>Radar 60 km/h</name><desc>Fonte: OSM</desc><type>FIXED</type></wpt>
<wpt lat="-31.360189" lon="-52.728103"><name>Radar 60 km/h</name><desc>Fonte: OSM</desc><type>FIXED</type></wpt>
<wpt lat="-31.357488" lon="-52.729216"><name>Radar</name><desc>Fonte: OSM</desc><type>FIXED</type></wpt>
<wpt lat="-31.235774" lon="-51.998895"><name>Radar 60 km/h</name><desc>Fonte: OSM</desc><type>FIXED</type></wpt>
<wpt lat="-31.233982" lon="-52.000395"><name>Radar 50 km/h</name><desc>Fonte: OSM</desc><type>FIXED</type></wpt>
<wpt lat="-31.001602" lon="-52.051443"><name>Radar 50 km/h</name><desc>Fonte: OSM</desc><type>FIXED</type></wpt>
<wpt lat="-30.999374" lon="-52.050523"><name>Radar 60 km/h</name><desc>Fonte: OSM</desc><type>FIXED</type></wpt>
<wpt lat="-30.943611" lon="-53.090008"><name>Radar 80 km/h</name><desc>Fonte: OSM</desc><type>FIXED</type></wpt>
<wpt lat="-30.910667" lon="-53.107282"><name>Radar 80 km/h</name><desc>Fonte: OSM</desc><type>FIXED</type></wpt>
<wpt lat="-30.877320" lon="-55.514960"><name>Radar</name><desc>Fonte: DNIT</desc><type>FIXED</type></wpt>
<wpt lat="-30.871595" lon="-53.137373"><name>Radar 60 km/h</name><desc>Fonte: OSM</desc><type>FIXED</type></wpt>
<wpt lat="-30.870844" lon="-53.138015"><name>Radar 60 km/h</name><desc>Fonte: OSM</desc><type>FIXED</type></wpt>
<wpt lat="-30.579863" lon="-55.086680"><name>Radar 40 km/h</name><desc>Fonte: OSM</desc><type>FIXED</type></wpt>
<wpt lat="-30.544368" lon="-53.420046"><name>Radar 60 km/h</name><desc>Fonte: OSM</desc><type>FIXED</type></wpt>
<wpt lat="-30.425236" lon="-53.498762"><name>Radar</name><desc>Fonte: OSM</desc><type>FIXED</type></wpt>
<wpt lat="-30.190476" lon="-51.174957"><name>Radar</name><desc>Fonte: OSM</desc><type>FIXED</type></wpt>
<wpt lat="-30.189210" lon="-52.370446"><name>Radar 60 km/h</name><desc>Fonte: OSM</desc><type>FIXED</type></wpt>
<wpt lat="-30.188745" lon="-51.174503"><name>Radar</name><desc>Fonte: OSM</desc><type>FIXED</type></wpt>
<wpt lat="-30.153315" lon="-51.200624"><name>Radar</name><desc>Fonte: OSM</desc><type>FIXED</type></wpt>
<wpt lat="-30.152747" lon="-51.200966"><name>Radar</name><desc>Fonte: OSM</desc><type>FIXED</type></wpt>
<wpt lat="-30.152388" lon="-51.201157"><name>Radar</name><desc>Fonte: OSM</desc><type>FIXED</type></wpt>
<wpt lat="-30.129933" lon="-51.200688"><name>Radar</name><desc>Fonte: OSM</desc><type>FIXED</type></wpt>
<wpt lat="-30.129772" lon="-51.218555"><name>Radar</name><desc>Fonte: OSM</desc><type>FIXED</type></wpt>
<wpt lat="-30.129453" lon="-51.201391"><name>Radar</name><desc>Fonte: OSM</desc><type>FIXED</type></wpt>
<wpt lat="-30.124893" lon="-51.106168"><name>Radar 40 km/h</name><desc>Fonte: OSM</desc><type>FIXED</type></wpt>
<wpt lat="-30.124750" lon="-51.105754"><name>Radar 40 km/h</name><desc>Fonte: OSM</desc><type>FIXED</type></wpt>
<wpt lat="-30.117056" lon="-51.108722"><name>Radar 60 km/h</name><desc>Fonte: OSM</desc><type>FIXED</type></wpt>
<wpt lat="-30.117055" lon="-51.108810"><name>Radar 60 km/h</name><desc>Fonte: OSM</desc><type>FIXED</type></wpt>
<wpt lat="-30.115029" lon="-51.225813"><name>Radar 60 km/h</name><desc>Fonte: OSM</desc><type>FIXED</type></wpt>
<wpt lat="-30.114839" lon="-51.225766"><name>Radar 60 km/h</name><desc>Fonte: OSM</desc><type>FIXED</type></wpt>
<wpt lat="-30.114388" lon="-50.648072"><name>Radar 80 km/h</name><desc>Fonte: OSM</desc><type>FIXED</type></wpt>
<wpt lat="-30.108132" lon="-51.227188"><name>Radar 60 km/h</name><desc>Fonte: OSM</desc><type>FIXED</type></wpt>
<wpt lat="-30.095827" lon="-51.246011"><name>Radar 40 km/h</name><desc>Fonte: OSM</desc><type>FIXED</type></wpt>
<wpt lat="-30.094674" lon="-51.244579"><name>Radar 40 km/h</name><desc>Fonte: OSM</desc><type>FIXED</type></wpt>
<wpt lat="-30.091110" lon="-51.219852"><name>Radar</name><desc>Fonte: OSM</desc><type>FIXED</type></wpt>
<wpt lat="-30.091014" lon="-51.219936"><name>Radar</name><desc>Fonte: OSM</desc><type>FIXED</type></wpt>
<wpt lat="-30.090181" lon="-51.334653"><name>Radar 40 km/h</name><desc>Fonte: OSM</desc><type>FIXED</type></wpt>
<wpt lat="-30.089966" lon="-51.334105"><name>Radar 40 km/h</name><desc>Fonte: OSM</desc><type>FIXED</type></wpt>
<wpt lat="-30.085097" lon="-51.190746"><name>Radar</name><desc>Fonte: OSM</desc><type>FIXED</type></wpt>
<wpt lat="-30.084779" lon="-51.006656"><name>Radar 40 km/h</name><desc>Fonte: OSM</desc><type>FIXED</type></wpt>
<wpt lat="-30.083708" lon="-51.054257"><name>Radar</name><desc>Fonte: OSM</desc><type>FIXED</type></wpt>
<wpt lat="-30.083127" lon="-51.033974"><name>Radar</name><desc>Fonte: OSM</desc><type>FIXED</type></wpt>
<wpt lat="-30.082595" lon="-51.034642"><name>Radar</name><desc>Fonte: OSM</desc><type>FIXED</type></wpt>
<wpt lat="-30.077877" lon="-51.037587"><name>Radar 40 km/h</name><desc>Fonte: OSM</desc><type>FIXED</type></wpt>
<wpt lat="-30.076978" lon="-51.123029"><name>Radar 60 km/h</name><desc>Fonte: OSM</desc><type>FIXED</type></wpt>
<wpt lat="-30.076758" lon="-51.122994"><name>Radar 60 km/h</name><desc>Fonte: OSM</desc><type>FIXED</type></wpt>
<wpt lat="-30.076635" lon="-51.244064"><name>Radar 60 km/h</name><desc>Fonte: OSM</desc><type>FIXED</type></wpt>
<wpt lat="-30.076414" lon="-51.047592"><name>Radar</name><desc>Fonte: OSM</desc><type>FIXED</type></wpt>
<wpt lat="-30.074374" lon="-51.136383"><name>Radar 60 km/h</name><desc>Fonte: OSM</desc><type>FIXED</type></wpt>
<wpt lat="-30.074214" lon="-51.136244"><name>Radar 60 km/h</name><desc>Fonte: OSM</desc><type>FIXED</type></wpt>
<wpt lat="-30.068352" lon="-51.146259"><name>Radar 60 km/h</name><desc>Fonte: OSM</desc><type>FIXED</type></wpt>
<wpt lat="-30.068153" lon="-51.146170"><name>Radar 60 km/h</name><desc>Fonte: OSM</desc><type>FIXED</type></wpt>
<wpt lat="-30.062280" lon="-51.175877"><name>Radar 60 km/h</name><desc>Fonte: OSM</desc><type>FIXED</type></wpt>
<wpt lat="-30.061305" lon="-51.151560"><name>Radar 60 km/h</name><desc>Fonte: OSM</desc><type>FIXED</type></wpt>
<wpt lat="-30.060852" lon="-51.235779"><name>Radar</name><desc>Fonte: OSM</desc><type>FIXED</type></wpt>
<wpt lat="-30.060551" lon="-51.235666"><name>Radar 60 km/h</name><desc>Fonte: OSM</desc><type>FIXED</type></wpt>
<wpt lat="-30.057300" lon="-51.154950"><name>Radar 60 km/h</name><desc>Fonte: OSM</desc><type>FIXED</type></wpt>
<wpt lat="-30.054850" lon="-51.147217"><name>Radar 40 km/h</name><desc>Fonte: OSM</desc><type>FIXED</type></wpt>
<wpt lat="-30.053218" lon="-51.146954"><name>Radar</name><desc>Fonte: OSM</desc><type>FIXED</type></wpt>
<wpt lat="-30.050791" lon="-51.145013"><name>Radar 40 km/h</name><desc>Fonte: OSM</desc><type>FIXED</type></wpt>
<wpt lat="-30.048567" lon="-51.144099"><name>Radar 40 km/h</name><desc>Fonte: OSM</desc><type>FIXED</type></wpt>
<wpt lat="-30.047367" lon="-51.212141"><name>Avanço de sinal</name><desc>Fonte: OSM</desc><type>RED_LIGHT</type></wpt>
<wpt lat="-30.046662" lon="-51.211926"><name>Radar</name><desc>Fonte: OSM</desc><type>FIXED</type></wpt>
<wpt lat="-30.045995" lon="-51.101268"><name>Radar 60 km/h</name><desc>Fonte: OSM</desc><type>FIXED</type></wpt>
<wpt lat="-30.045962" lon="-51.210709"><name>Avanço de sinal</name><desc>Fonte: OSM</desc><type>RED_LIGHT</type></wpt>
<wpt lat="-30.043519" lon="-51.199853"><name>Radar 60 km/h</name><desc>Fonte: OSM</desc><type>FIXED</type></wpt>
<wpt lat="-30.041886" lon="-51.103913"><name>Radar 60 km/h</name><desc>Fonte: OSM</desc><type>FIXED</type></wpt>
<wpt lat="-30.041736" lon="-51.132942"><name>Radar 60 km/h</name><desc>Fonte: OSM</desc><type>FIXED</type></wpt>
<wpt lat="-30.041614" lon="-51.132983"><name>Radar 60 km/h</name><desc>Fonte: OSM</desc><type>FIXED</type></wpt>
<wpt lat="-30.040939" lon="-51.107619"><name>Radar 60 km/h</name><desc>Fonte: OSM</desc><type>FIXED</type></wpt>
<wpt lat="-30.040620" lon="-51.203951"><name>Radar</name><desc>Fonte: OSM</desc><type>FIXED</type></wpt>
<wpt lat="-30.040414" lon="-51.204082"><name>Radar</name><desc>Fonte: OSM</desc><type>FIXED</type></wpt>
<wpt lat="-30.040351" lon="-51.195937"><name>Radar 60 km/h</name><desc>Fonte: OSM</desc><type>FIXED</type></wpt>
<wpt lat="-30.040213" lon="-51.195887"><name>Radar 60 km/h</name><desc>Fonte: OSM</desc><type>FIXED</type></wpt>
<wpt lat="-30.040096" lon="-51.127322"><name>Radar 40 km/h</name><desc>Fonte: OSM</desc><type>FIXED</type></wpt>
<wpt lat="-30.039766" lon="-51.135585"><name>Radar</name><desc>Fonte: OSM</desc><type>FIXED</type></wpt>
<wpt lat="-30.039720" lon="-51.125956"><name>Radar 40 km/h</name><desc>Fonte: OSM</desc><type>FIXED</type></wpt>
<wpt lat="-30.039558" lon="-51.145113"><name>Radar 40 km/h</name><desc>Fonte: OSM</desc><type>FIXED</type></wpt>
<wpt lat="-30.036807" lon="-51.143945"><name>Radar 40 km/h</name><desc>Fonte: OSM</desc><type>FIXED</type></wpt>
<wpt lat="-30.032576" lon="-51.184094"><name>Radar</name><desc>Fonte: OSM</desc><type>FIXED</type></wpt>
<wpt lat="-30.032519" lon="-51.184218"><name>Radar</name><desc>Fonte: OSM</desc><type>FIXED</type></wpt>
<wpt lat="-30.032054" lon="-51.121254"><name>Radar</name><desc>Fonte: OSM</desc><type>FIXED</type></wpt>
<wpt lat="-30.032053" lon="-51.121104"><name>Radar</name><desc>Fonte: OSM</desc><type>FIXED</type></wpt>
<wpt lat="-30.031501" lon="-51.121152"><name>Radar 60 km/h</name><desc>Fonte: OSM</desc><type>FIXED</type></wpt>
<wpt lat="-30.031062" lon="-51.120918"><name>Radar 60 km/h</name><desc>Fonte: OSM</desc><type>FIXED</type></wpt>
<wpt lat="-30.030344" lon="-51.150853"><name>Radar</name><desc>Fonte: OSM</desc><type>FIXED</type></wpt>
<wpt lat="-30.030342" lon="-51.150950"><name>Radar</name><desc>Fonte: OSM</desc><type>FIXED</type></wpt>
<wpt lat="-30.028129" lon="-51.164899"><name>Radar 60 km/h</name><desc>Fonte: OSM</desc><type>FIXED</type></wpt>
<wpt lat="-30.028027" lon="-51.164875"><name>Radar 60 km/h</name><desc>Fonte: OSM</desc><type>FIXED</type></wpt>
<wpt lat="-30.024416" lon="-52.906953"><name>Radar 40 km/h</name><desc>Fonte: OSM</desc><type>FIXED</type></wpt>
<wpt lat="-30.024344" lon="-52.906969"><name>Radar 40 km/h</name><desc>Fonte: OSM</desc><type>FIXED</type></wpt>
<wpt lat="-30.022527" lon="-51.027227"><name>Radar</name><desc>Fonte: OSM</desc><type>FIXED</type></wpt>
<wpt lat="-30.022115" lon="-51.119803"><name>Radar 60 km/h</name><desc>Fonte: OSM</desc><type>FIXED</type></wpt>
<wpt lat="-30.022055" lon="-51.187701"><name>Radar 40 km/h</name><desc>Fonte: OSM</desc><type>FIXED</type></wpt>
<wpt lat="-30.020311" lon="-51.142793"><name>Radar 40 km/h</name><desc>Fonte: OSM</desc><type>FIXED</type></wpt>
<wpt lat="-30.019673" lon="-51.142710"><name>Radar 40 km/h</name><desc>Fonte: OSM</desc><type>FIXED</type></wpt>
<wpt lat="-30.015259" lon="-50.157999"><name>Radar 40 km/h</name><desc>Fonte: OSM</desc><type>FIXED</type></wpt>
<wpt lat="-30.015090" lon="-50.158491"><name>Radar 40 km/h</name><desc>Fonte: OSM</desc><type>FIXED</type></wpt>
<wpt lat="-30.014863" lon="-51.119186"><name>Radar 60 km/h</name><desc>Fonte: OSM</desc><type>FIXED</type></wpt>
<wpt lat="-30.013572" lon="-51.079796"><name>Radar</name><desc>Fonte: OSM</desc><type>FIXED</type></wpt>
<wpt lat="-30.013117" lon="-52.889462"><name>Radar</name><desc>Fonte: DNIT</desc><type>FIXED</type></wpt>
<wpt lat="-30.012927" lon="-52.888062"><name>Radar</name><desc>Fonte: DNIT</desc><type>FIXED</type></wpt>
<wpt lat="-30.012866" lon="-51.316251"><name>Radar</name><desc>Fonte: DNIT · sentido 203° (sudoeste)</desc><type>FIXED</type></wpt>
<wpt lat="-30.012511" lon="-51.124742"><name>Radar 40 km/h</name><desc>Fonte: OSM</desc><type>FIXED</type></wpt>
<wpt lat="-30.012459" lon="-51.212227"><name>Radar 80 km/h</name><desc>Fonte: OSM</desc><type>FIXED</type></wpt>
<wpt lat="-30.012341" lon="-51.124789"><name>Radar 40 km/h</name><desc>Fonte: OSM</desc><type>FIXED</type></wpt>
<wpt lat="-30.011994" lon="-51.118680"><name>Radar</name><desc>Fonte: OSM</desc><type>FIXED</type></wpt>
<wpt lat="-30.010305" lon="-51.178893"><name>Radar</name><desc>Fonte: OSM</desc><type>FIXED</type></wpt>
<wpt lat="-30.007948" lon="-51.210322"><name>Radar 80 km/h</name><desc>Fonte: OSM</desc><type>FIXED</type></wpt>
<wpt lat="-30.006017" lon="-52.907073"><name>Radar</name><desc>Fonte: DNIT</desc><type>FIXED</type></wpt>
<wpt lat="-30.005494" lon="-51.138683"><name>Radar 60 km/h</name><desc>Fonte: OSM</desc><type>FIXED</type></wpt>
<wpt lat="-30.004638" lon="-52.907725"><name>Radar</name><desc>Fonte: DNIT</desc><type>FIXED</type></wpt>
<wpt lat="-30.003368" lon="-51.080905"><name>Radar</name><desc>Fonte: OSM</desc><type>FIXED</type></wpt>
<wpt lat="-30.003298" lon="-51.080998"><name>Radar</name><desc>Fonte: OSM</desc><type>FIXED</type></wpt>
<wpt lat="-30.001275" lon="-51.302390"><name>Radar</name><desc>Fonte: DNIT · sentido 71° (leste)</desc><type>FIXED</type></wpt>
<wpt lat="-29.995578" lon="-51.283385"><name>Radar</name><desc>Fonte: DNIT · sentido 70° (leste)</desc><type>FIXED</type></wpt>
<wpt lat="-29.995049" lon="-51.188549"><name>Radar</name><desc>Fonte: OSM</desc><type>FIXED</type></wpt>
<wpt lat="-29.982997" lon="-51.116573"><name>Radar 60 km/h</name><desc>Fonte: OSM</desc><type>FIXED</type></wpt>
<wpt lat="-29.982859" lon="-51.116664"><name>Radar 60 km/h</name><desc>Fonte: OSM</desc><type>FIXED</type></wpt>
<wpt lat="-29.982444" lon="-52.369220"><name>Radar</name><desc>Fonte: DNIT · sentido 339° (norte)</desc><type>FIXED</type></wpt>
<wpt lat="-29.980820" lon="-52.370248"><name>Radar</name><desc>Fonte: DNIT · sentido 146° (sudeste)</desc><type>FIXED</type></wpt>
<wpt lat="-29.975973" lon="-51.193979"><name>Radar</name><desc>Fonte: OSM</desc><type>FIXED</type></wpt>
<wpt lat="-29.972278" lon="-51.727285"><name>Radar 50 km/h</name><desc>Fonte: OSM</desc><type>FIXED</type></wpt>
<wpt lat="-29.971353" lon="-51.730745"><name>Radar 50 km/h</name><desc>Fonte: OSM</desc><type>FIXED</type></wpt>
<wpt lat="-29.971272" lon="-51.199949"><name>Radar 50 km/h</name><desc>Fonte: OSM</desc><type>FIXED</type></wpt>
<wpt lat="-29.971214" lon="-51.199798"><name>Radar 80 km/h</name><desc>Fonte: OSM</desc><type>FIXED</type></wpt>
<wpt lat="-29.971204" lon="-51.182547"><name>Radar 100 km/h</name><desc>Fonte: OSM</desc><type>FIXED</type></wpt>
<wpt lat="-29.971188" lon="-51.182885"><name>Radar 100 km/h</name><desc>Fonte: ANTT · sentido 105° (leste)</desc><type>FIXED</type></wpt>
<wpt lat="-29.968781" lon="-51.167917"><name>Radar 100 km/h</name><desc>Fonte: ANTT+OSM · sentido 257° (oeste)</desc><type>FIXED</type></wpt>
<wpt lat="-29.968025" lon="-51.123170"><name>Radar 110 km/h</name><desc>Fonte: OSM</desc><type>FIXED</type></wpt>
<wpt lat="-29.967830" lon="-51.123116"><name>Radar 110 km/h</name><desc>Fonte: OSM</desc><type>FIXED</type></wpt>
<wpt lat="-29.959741" lon="-50.231914"><name>Radar</name><desc>Fonte: OSM</desc><type>FIXED</type></wpt>
<wpt lat="-29.957765" lon="-51.109358"><name>Radar 60 km/h</name><desc>Fonte: OSM</desc><type>FIXED</type></wpt>
<wpt lat="-29.957048" lon="-51.108922"><name>Radar 60 km/h</name><desc>Fonte: OSM</desc><type>FIXED</type></wpt>
<wpt lat="-29.955022" lon="-51.105838"><name>Radar 60 km/h</name><desc>Fonte: OSM</desc><type>FIXED</type></wpt>
<wpt lat="-29.953478" lon="-51.103457"><name>Radar 60 km/h</name><desc>Fonte: OSM</desc><type>FIXED</type></wpt>
<wpt lat="-29.952392" lon="-51.102107"><name>Radar 60 km/h</name><desc>Fonte: OSM</desc><type>FIXED</type></wpt>
<wpt lat="-29.952294" lon="-51.102224"><name>Radar</name><desc>Fonte: OSM</desc><type>FIXED</type></wpt>
<wpt lat="-29.951409" lon="-50.965520"><name>Radar 110 km/h</name><desc>Fonte: ANTT+OSM · sentido 250° (oeste)</desc><type>FIXED</type></wpt>
<wpt lat="-29.951371" lon="-50.965540"><name>Radar 110 km/h</name><desc>Fonte: ANTT+OSM · sentido 250° (oeste)</desc><type>FIXED</type></wpt>
<wpt lat="-29.943271" lon="-51.088633"><name>Radar 60 km/h</name><desc>Fonte: OSM</desc><type>FIXED</type></wpt>
<wpt lat="-29.943087" lon="-51.088722"><name>Radar 60 km/h</name><desc>Fonte: OSM</desc><type>FIXED</type></wpt>
<wpt lat="-29.940279" lon="-51.086270"><name>Radar 60 km/h</name><desc>Fonte: OSM</desc><type>FIXED</type></wpt>
<wpt lat="-29.940147" lon="-51.086332"><name>Radar 60 km/h</name><desc>Fonte: OSM</desc><type>FIXED</type></wpt>
<wpt lat="-29.935050" lon="-51.079371"><name>Radar 60 km/h</name><desc>Fonte: OSM</desc><type>FIXED</type></wpt>
<wpt lat="-29.934982" lon="-51.079496"><name>Radar 60 km/h</name><desc>Fonte: OSM</desc><type>FIXED</type></wpt>
<wpt lat="-29.928305" lon="-51.101760"><name>Radar 40 km/h</name><desc>Fonte: OSM</desc><type>FIXED</type></wpt>
<wpt lat="-29.927023" lon="-50.263674"><name>Radar 80 km/h</name><desc>Fonte: OSM</desc><type>FIXED</type></wpt>
<wpt lat="-29.922253" lon="-53.723551"><name>Radar 60 km/h</name><desc>Fonte: OSM</desc><type>FIXED</type></wpt>
<wpt lat="-29.920483" lon="-51.101598"><name>Radar 60 km/h</name><desc>Fonte: OSM</desc><type>FIXED</type></wpt>
<wpt lat="-29.920453" lon="-51.101688"><name>Radar 60 km/h</name><desc>Fonte: OSM</desc><type>FIXED</type></wpt>
<wpt lat="-29.919241" lon="-51.100737"><name>Radar 60 km/h</name><desc>Fonte: OSM</desc><type>FIXED</type></wpt>
<wpt lat="-29.906787" lon="-51.096188"><name>Radar 40 km/h</name><desc>Fonte: OSM</desc><type>FIXED</type></wpt>
<wpt lat="-29.905701" lon="-51.095854"><name>Radar 40 km/h</name><desc>Fonte: OSM</desc><type>FIXED</type></wpt>
<wpt lat="-29.895439" lon="-50.296178"><name>Radar 50 km/h</name><desc>Fonte: OSM</desc><type>FIXED</type></wpt>
<wpt lat="-29.894525" lon="-50.285210"><name>Radar 100 km/h</name><desc>Fonte: OSM</desc><type>FIXED</type></wpt>
<wpt lat="-29.892769" lon="-51.091105"><name>Radar 40 km/h</name><desc>Fonte: OSM</desc><type>FIXED</type></wpt>
<wpt lat="-29.892236" lon="-51.090773"><name>Radar 40 km/h</name><desc>Fonte: OSM</desc><type>FIXED</type></wpt>
<wpt lat="-29.891704" lon="-50.375507"><name>Radar 110 km/h</name><desc>Fonte: OSM</desc><type>FIXED</type></wpt>
<wpt lat="-29.891572" lon="-50.374095"><name>Radar 110 km/h</name><desc>Fonte: ANTT · sentido 266° (oeste)</desc><type>FIXED</type></wpt>
<wpt lat="-29.891524" lon="-50.374100"><name>Radar 110 km/h</name><desc>Fonte: ANTT · sentido 266° (oeste)</desc><type>FIXED</type></wpt>
<wpt lat="-29.891512" lon="-50.375509"><name>Radar 110 km/h</name><desc>Fonte: OSM</desc><type>FIXED</type></wpt>
<wpt lat="-29.890290" lon="-52.392910"><name>Radar 50 km/h</name><desc>Fonte: DNIT+OSM · sentido 356° (norte)</desc><type>FIXED</type></wpt>
<wpt lat="-29.889403" lon="-51.212150"><name>Radar 100 km/h</name><desc>Fonte: ANTT+OSM · sentido 103° (leste)</desc><type>FIXED</type></wpt>
<wpt lat="-29.888600" lon="-52.393150"><name>Radar 50 km/h</name><desc>Fonte: DNIT+OSM · sentido 183° (sul)</desc><type>FIXED</type></wpt>
<wpt lat="-29.886053" lon="-51.238764"><name>Radar 100 km/h</name><desc>Fonte: OSM</desc><type>FIXED</type></wpt>
<wpt lat="-29.885717" lon="-50.202579"><name>Radar</name><desc>Fonte: OSM</desc><type>FIXED</type></wpt>
<wpt lat="-29.884135" lon="-50.565837"><name>Radar 110 km/h</name><desc>Fonte: OSM</desc><type>FIXED</type></wpt>
<wpt lat="-29.884067" lon="-50.565498"><name>Radar 110 km/h</name><desc>Fonte: ANTT · sentido 266° (oeste)</desc><type>FIXED</type></wpt>
<wpt lat="-29.884016" lon="-50.565478"><name>Radar 110 km/h</name><desc>Fonte: ANTT · sentido 266° (oeste)</desc><type>FIXED</type></wpt>
<wpt lat="-29.883924" lon="-50.565888"><name>Radar 110 km/h</name><desc>Fonte: OSM</desc><type>FIXED</type></wpt>
<wpt lat="-29.881572" lon="-50.264226"><name>Radar 80 km/h</name><desc>Fonte: OSM</desc><type>FIXED</type></wpt>
<wpt lat="-29.879931" lon="-50.261474"><name>Radar 80 km/h</name><desc>Fonte: OSM</desc><type>FIXED</type></wpt>
<wpt lat="-29.879663" lon="-50.261308"><name>Radar 80 km/h</name><desc>Fonte: ANTT · sentido 228° (sudoeste)</desc><type>FIXED</type></wpt>
<wpt lat="-29.879509" lon="-50.261606"><name>Radar 80 km/h</name><desc>Fonte: OSM</desc><type>FIXED</type></wpt>
<wpt lat="-29.879334" lon="-50.786640"><name>Radar 50 km/h</name><desc>Fonte: OSM</desc><type>FIXED</type></wpt>
<wpt lat="-29.872576" lon="-50.140486"><name>Radar</name><desc>Fonte: OSM</desc><type>FIXED</type></wpt>
<wpt lat="-29.871811" lon="-50.135458"><name>Radar 80 km/h</name><desc>Fonte: OSM</desc><type>FIXED</type></wpt>
<wpt lat="-29.848821" lon="-50.917178"><name>Radar</name><desc>Fonte: OSM</desc><type>FIXED</type></wpt>
<wpt lat="-29.847176" lon="-51.138415"><name>Radar 60 km/h</name><desc>Fonte: OSM</desc><type>FIXED</type></wpt>
<wpt lat="-29.846361" lon="-51.276471"><name>Radar 60 km/h</name><desc>Fonte: ANTT · sentido 108° (leste)</desc><type>FIXED</type></wpt>
<wpt lat="-29.846137" lon="-51.203835"><name>Radar 100 km/h</name><desc>Fonte: ANTT+OSM · sentido 260° (oeste)</desc><type>FIXED</type></wpt>
<wpt lat="-29.845924" lon="-51.203898"><name>Radar 100 km/h</name><desc>Fonte: ANTT+OSM · sentido 260° (oeste)</desc><type>FIXED</type></wpt>
<wpt lat="-29.845862" lon="-51.278258"><name>Radar 60 km/h</name><desc>Fonte: OSM</desc><type>FIXED</type></wpt>
<wpt lat="-29.845584" lon="-51.278161"><name>Radar 60 km/h</name><desc>Fonte: OSM</desc><type>FIXED</type></wpt>
<wpt lat="-29.825472" lon="-51.337095"><name>Radar 80 km/h</name><desc>Fonte: OSM</desc><type>FIXED</type></wpt>
<wpt lat="-29.825370" lon="-51.337852"><name>Radar 80 km/h</name><desc>Fonte: OSM</desc><type>FIXED</type></wpt>
<wpt lat="-29.818139" lon="-51.469995"><name>Radar 100 km/h</name><desc>Fonte: OSM</desc><type>FIXED</type></wpt>
<wpt lat="-29.818095" lon="-51.470924"><name>Radar 100 km/h</name><desc>Fonte: ANTT · sentido 280° (oeste)</desc><type>FIXED</type></wpt>
<wpt lat="-29.817980" lon="-51.470985"><name>Radar 100 km/h</name><desc>Fonte: ANTT · sentido 280° (oeste)</desc><type>FIXED</type></wpt>
<wpt lat="-29.780227" lon="-51.552887"><name>Radar 100 km/h</name><desc>Fonte: ANTT · sentido 292° (oeste)</desc><type>FIXED</type></wpt>
<wpt lat="-29.780033" lon="-51.553414"><name>Radar 100 km/h</name><desc>Fonte: OSM</desc><type>FIXED</type></wpt>
<wpt lat="-29.778400" lon="-57.061290"><name>Radar</name><desc>Fonte: DNIT</desc><type>FIXED</type></wpt>
<wpt lat="-29.763900" lon="-57.047600"><name>Radar</name><desc>Fonte: DNIT · sentido 95° (leste)</desc><type>FIXED</type></wpt>
<wpt lat="-29.763734" lon="-53.785357"><name>Radar de trecho 50 km/h</name><desc>Fonte: DNIT+OSM</desc><type>SECTION</type></wpt>
<wpt lat="-29.763717" lon="-57.047733"><name>Radar</name><desc>Fonte: DNIT · sentido 275° (oeste)</desc><type>FIXED</type></wpt>
<wpt lat="-29.762836" lon="-57.055821"><name>Radar</name><desc>Fonte: DNIT · sentido 297° (noroeste)</desc><type>FIXED</type></wpt>
<wpt lat="-29.762745" lon="-53.786006"><name>Radar de trecho 50 km/h</name><desc>Fonte: OSM</desc><type>SECTION</type></wpt>
<wpt lat="-29.762657" lon="-53.786158"><name>Radar</name><desc>Fonte: OSM</desc><type>FIXED</type></wpt>
<wpt lat="-29.762474" lon="-50.217902"><name>Radar 100 km/h</name><desc>Fonte: OSM</desc><type>FIXED</type></wpt>
<wpt lat="-29.762398" lon="-50.218072"><name>Radar 100 km/h</name><desc>Fonte: OSM</desc><type>FIXED</type></wpt>
<wpt lat="-29.761297" lon="-50.217864"><name>Radar 100 km/h</name><desc>Fonte: ANTT · sentido 189° (sul)</desc><type>FIXED</type></wpt>
<wpt lat="-29.757946" lon="-53.977787"><name>Radar</name><desc>Fonte: OSM</desc><type>FIXED</type></wpt>
<wpt lat="-29.746404" lon="-53.367019"><name>Radar 30 km/h</name><desc>Fonte: OSM</desc><type>FIXED</type></wpt>
<wpt lat="-29.746134" lon="-53.367134"><name>Radar 30 km/h</name><desc>Fonte: OSM</desc><type>FIXED</type></wpt>
<wpt lat="-29.732246" lon="-52.946745"><name>Radar 50 km/h</name><desc>Fonte: OSM</desc><type>FIXED</type></wpt>
<wpt lat="-29.729630" lon="-53.801970"><name>Radar</name><desc>Fonte: DNIT</desc><type>FIXED</type></wpt>
<wpt lat="-29.726790" lon="-51.161383"><name>Radar 60 km/h</name><desc>Fonte: OSM</desc><type>FIXED</type></wpt>
<wpt lat="-29.726663" lon="-51.160820"><name>Radar 60 km/h</name><desc>Fonte: OSM</desc><type>FIXED</type></wpt>
<wpt lat="-29.724130" lon="-51.168221"><name>Radar 80 km/h</name><desc>Fonte: OSM</desc><type>FIXED</type></wpt>
<wpt lat="-29.724074" lon="-51.168432"><name>Radar 80 km/h</name><desc>Fonte: OSM</desc><type>FIXED</type></wpt>
<wpt lat="-29.721645" lon="-51.490811"><name>Radar 50 km/h</name><desc>Fonte: OSM</desc><type>FIXED</type></wpt>
<wpt lat="-29.721262" lon="-51.491697"><name>Radar 50 km/h</name><desc>Fonte: OSM</desc><type>FIXED</type></wpt>
<wpt lat="-29.719711" lon="-53.808043"><name>Radar de trecho 50 km/h</name><desc>Fonte: DNIT+OSM</desc><type>SECTION</type></wpt>
<wpt lat="-29.719170" lon="-53.808100"><name>Radar</name><desc>Fonte: DNIT</desc><type>FIXED</type></wpt>
<wpt lat="-29.711360" lon="-53.819410"><name>Radar</name><desc>Fonte: DNIT</desc><type>FIXED</type></wpt>
<wpt lat="-29.710394" lon="-53.812171"><name>Radar de trecho 50 km/h</name><desc>Fonte: OSM</desc><type>SECTION</type></wpt>
<wpt lat="-29.708237" lon="-53.867210"><name>Radar de trecho 50 km/h</name><desc>Fonte: OSM</desc><type>SECTION</type></wpt>
<wpt lat="-29.708224" lon="-53.813382"><name>Radar de trecho 50 km/h</name><desc>Fonte: OSM</desc><type>SECTION</type></wpt>
<wpt lat="-29.708020" lon="-53.869980"><name>Radar de trecho 50 km/h</name><desc>Fonte: DNIT+OSM · sentido 96° (leste)</desc><type>SECTION</type></wpt>
<wpt lat="-29.707508" lon="-53.852162"><name>Radar</name><desc>Fonte: DNIT · sentido 70° (leste)</desc><type>FIXED</type></wpt>
<wpt lat="-29.705879" lon="-53.797749"><name>Radar de trecho 50 km/h</name><desc>Fonte: OSM</desc><type>SECTION</type></wpt>
<wpt lat="-29.705470" lon="-53.797490"><name>Radar de trecho 50 km/h</name><desc>Fonte: DNIT+OSM</desc><type>SECTION</type></wpt>
<wpt lat="-29.704348" lon="-51.194029"><name>Radar 80 km/h</name><desc>Fonte: OSM</desc><type>FIXED</type></wpt>
<wpt lat="-29.704123" lon="-51.864469"><name>Radar 80 km/h</name><desc>Fonte: OSM</desc><type>FIXED</type></wpt>
<wpt lat="-29.703514" lon="-51.204454"><name>Radar 60 km/h</name><desc>Fonte: OSM</desc><type>FIXED</type></wpt>
<wpt lat="-29.703510" lon="-53.843240"><name>Radar de trecho 60 km/h</name><desc>Fonte: DNIT+OSM · sentido 45° (nordeste)</desc><type>SECTION</type></wpt>
<wpt lat="-29.702217" lon="-53.842317"><name>Radar de trecho 60 km/h</name><desc>Fonte: DNIT+OSM · sentido 216° (sudoeste)</desc><type>SECTION</type></wpt>
<wpt lat="-29.702006" lon="-53.716846"><name>Radar de trecho 50 km/h</name><desc>Fonte: OSM</desc><type>SECTION</type></wpt>
<wpt lat="-29.701700" lon="-51.209491"><name>Radar 60 km/h</name><desc>Fonte: OSM</desc><type>FIXED</type></wpt>
<wpt lat="-29.701556" lon="-53.719505"><name>Radar de trecho 50 km/h</name><desc>Fonte: OSM</desc><type>SECTION</type></wpt>
<wpt lat="-29.700988" lon="-52.533252"><name>Radar 80 km/h</name><desc>Fonte: OSM</desc><type>FIXED</type></wpt>
<wpt lat="-29.700579" lon="-53.832120"><name>Radar de trecho 50 km/h</name><desc>Fonte: OSM</desc><type>SECTION</type></wpt>
<wpt lat="-29.700506" lon="-53.831721"><name>Radar de trecho 50 km/h</name><desc>Fonte: OSM</desc><type>SECTION</type></wpt>
<wpt lat="-29.700427" lon="-53.812027"><name>Radar de trecho 50 km/h</name><desc>Fonte: OSM</desc><type>SECTION</type></wpt>
<wpt lat="-29.698245" lon="-53.732140"><name>Radar de trecho 50 km/h</name><desc>Fonte: OSM</desc><type>SECTION</type></wpt>
<wpt lat="-29.697780" lon="-51.221083"><name>Radar 60 km/h</name><desc>Fonte: OSM</desc><type>FIXED</type></wpt>
<wpt lat="-29.697693" lon="-51.221630"><name>Radar 60 km/h</name><desc>Fonte: OSM</desc><type>FIXED</type></wpt>
<wpt lat="-29.697658" lon="-53.819130"><name>Radar de trecho 50 km/h</name><desc>Fonte: OSM</desc><type>SECTION</type></wpt>
<wpt lat="-29.697366" lon="-53.734232"><name>Radar de trecho 50 km/h</name><desc>Fonte: OSM</desc><type>SECTION</type></wpt>
<wpt lat="-29.697335" lon="-53.818703"><name>Radar de trecho 50 km/h</name><desc>Fonte: OSM</desc><type>SECTION</type></wpt>
<wpt lat="-29.697125" lon="-53.808929"><name>Radar de trecho 50 km/h</name><desc>Fonte: OSM</desc><type>SECTION</type></wpt>
<wpt lat="-29.696986" lon="-51.690388"><name>Radar 60 km/h</name><desc>Fonte: OSM</desc><type>FIXED</type></wpt>
<wpt lat="-29.696220" lon="-53.849790"><name>Radar</name><desc>Fonte: DNIT · sentido 281° (oeste)</desc><type>FIXED</type></wpt>
<wpt lat="-29.695129" lon="-51.693235"><name>Radar 60 km/h</name><desc>Fonte: ANTT · sentido 122° (sudeste)</desc><type>FIXED</type></wpt>
<wpt lat="-29.695080" lon="-53.856960"><name>Radar</name><desc>Fonte: DNIT</desc><type>FIXED</type></wpt>
<wpt lat="-29.694814" lon="-51.693492"><name>Radar 60 km/h</name><desc>Fonte: OSM</desc><type>FIXED</type></wpt>
<wpt lat="-29.694702" lon="-51.693428"><name>Radar 60 km/h</name><desc>Fonte: OSM</desc><type>FIXED</type></wpt>
<wpt lat="-29.694665" lon="-51.693853"><name>Radar 60 km/h</name><desc>Fonte: OSM</desc><type>FIXED</type></wpt>
<wpt lat="-29.694303" lon="-52.369733"><name>Radar 60 km/h</name><desc>Fonte: OSM</desc><type>FIXED</type></wpt>
<wpt lat="-29.693861" lon="-53.781136"><name>Radar de trecho 50 km/h</name><desc>Fonte: OSM</desc><type>SECTION</type></wpt>
<wpt lat="-29.693461" lon="-53.782719"><name>Radar de trecho 50 km/h</name><desc>Fonte: OSM</desc><type>SECTION</type></wpt>
<wpt lat="-29.691780" lon="-53.802367"><name>Radar de trecho 40 km/h</name><desc>Fonte: OSM</desc><type>SECTION</type></wpt>
<wpt lat="-29.691726" lon="-52.383325"><name>Radar 60 km/h</name><desc>Fonte: OSM</desc><type>FIXED</type></wpt>
<wpt lat="-29.691304" lon="-52.398054"><name>Radar 60 km/h</name><desc>Fonte: OSM</desc><type>FIXED</type></wpt>
<wpt lat="-29.690524" lon="-53.800654"><name>Radar de trecho 50 km/h</name><desc>Fonte: OSM</desc><type>SECTION</type></wpt>
<wpt lat="-29.690302" lon="-53.800432"><name>Radar 50 km/h</name><desc>Fonte: OSM</desc><type>FIXED</type></wpt>
<wpt lat="-29.690143" lon="-53.800282"><name>Radar de trecho 50 km/h</name><desc>Fonte: OSM</desc><type>SECTION</type></wpt>
<wpt lat="-29.689470" lon="-51.733285"><name>Radar 50 km/h</name><desc>Fonte: OSM</desc><type>FIXED</type></wpt>
<wpt lat="-29.689356" lon="-51.734576"><name>Radar 50 km/h</name><desc>Fonte: OSM</desc><type>FIXED</type></wpt>
<wpt lat="-29.689324" lon="-51.234583"><name>Radar 60 km/h</name><desc>Fonte: OSM</desc><type>FIXED</type></wpt>
<wpt lat="-29.689061" lon="-51.235012"><name>Radar 60 km/h</name><desc>Fonte: OSM</desc><type>FIXED</type></wpt>
<wpt lat="-29.686175" lon="-51.476001"><name>Radar 50 km/h</name><desc>Fonte: OSM</desc><type>FIXED</type></wpt>
<wpt lat="-29.683331" lon="-51.135021"><name>Radar 50 km/h</name><desc>Fonte: OSM</desc><type>FIXED</type></wpt>
<wpt lat="-29.682250" lon="-53.808175"><name>Radar de trecho 50 km/h</name><desc>Fonte: OSM</desc><type>SECTION</type></wpt>
<wpt lat="-29.681907" lon="-53.808542"><name>Radar de trecho 50 km/h</name><desc>Fonte: OSM</desc><type>SECTION</type></wpt>
<wpt lat="-29.681190" lon="-52.794009"><name>Radar 60 km/h</name><desc>Fonte: OSM</desc><type>FIXED</type></wpt>
<wpt lat="-29.681160" lon="-52.792281"><name>Radar 60 km/h</name><desc>Fonte: OSM</desc><type>FIXED</type></wpt>
<wpt lat="-29.674996" lon="-53.969451"><name>Radar</name><desc>Fonte: OSM</desc><type>FIXED</type></wpt>
<wpt lat="-29.673982" lon="-51.250272"><name>Radar</name><desc>Fonte: OSM</desc><type>FIXED</type></wpt>
<wpt lat="-29.673943" lon="-51.250172"><name>Radar 80 km/h</name><desc>Fonte: OSM</desc><type>FIXED</type></wpt>
<wpt lat="-29.672794" lon="-51.250849"><name>Radar 80 km/h</name><desc>Fonte: OSM</desc><type>FIXED</type></wpt>
<wpt lat="-29.672576" lon="-51.400539"><name>Radar 80 km/h</name><desc>Fonte: OSM</desc><type>FIXED</type></wpt>
<wpt lat="-29.671430" lon="-51.251649"><name>Radar 80 km/h</name><desc>Fonte: OSM</desc><type>FIXED</type></wpt>
<wpt lat="-29.669557" lon="-51.393220"><name>Radar 80 km/h</name><desc>Fonte: OSM</desc><type>FIXED</type></wpt>
<wpt lat="-29.669344" lon="-51.267262"><name>Radar 80 km/h</name><desc>Fonte: OSM</desc><type>FIXED</type></wpt>
<wpt lat="-29.666701" lon="-50.749053"><name>Radar</name><desc>Fonte: OSM</desc><type>FIXED</type></wpt>
<wpt lat="-29.666424" lon="-51.312304"><name>Radar 50 km/h</name><desc>Fonte: OSM</desc><type>FIXED</type></wpt>
<wpt lat="-29.665988" lon="-51.313696"><name>Radar 50 km/h</name><desc>Fonte: OSM</desc><type>FIXED</type></wpt>
<wpt lat="-29.663193" lon="-50.133956"><name>Radar 100 km/h</name><desc>Fonte: OSM</desc><type>FIXED</type></wpt>
<wpt lat="-29.663012" lon="-50.134168"><name>Radar 100 km/h</name><desc>Fonte: OSM</desc><type>FIXED</type></wpt>
<wpt lat="-29.662472" lon="-50.133248"><name>Radar 100 km/h</name><desc>Fonte: ANTT · sentido 237° (sudoeste)</desc><type>FIXED</type></wpt>
<wpt lat="-29.662407" lon="-51.093716"><name>Radar</name><desc>Fonte: OSM</desc><type>FIXED</type></wpt>
<wpt lat="-29.661224" lon="-51.129627"><name>Radar</name><desc>Fonte: OSM</desc><type>FIXED</type></wpt>
<wpt lat="-29.661219" lon="-51.103362"><name>Radar 50 km/h</name><desc>Fonte: OSM</desc><type>FIXED</type></wpt>
<wpt lat="-29.661111" lon="-51.103333"><name>Radar 50 km/h</name><desc>Fonte: OSM</desc><type>FIXED</type></wpt>
<wpt lat="-29.659590" lon="-50.784072"><name>Radar 50 km/h</name><desc>Fonte: OSM</desc><type>FIXED</type></wpt>
<wpt lat="-29.659079" lon="-50.785631"><name>Radar 50 km/h</name><desc>Fonte: OSM</desc><type>FIXED</type></wpt>
<wpt lat="-29.656937" lon="-50.670279"><name>Radar</name><desc>Fonte: OSM</desc><type>FIXED</type></wpt>
<wpt lat="-29.653299" lon="-52.097334"><name>Radar 80 km/h</name><desc>Fonte: OSM</desc><type>FIXED</type></wpt>
<wpt lat="-29.647514" lon="-52.193947"><name>Radar 80 km/h</name><desc>Fonte: OSM</desc><type>FIXED</type></wpt>
<wpt lat="-29.641239" lon="-50.981571"><name>Radar 50 km/h</name><desc>Fonte: OSM</desc><type>FIXED</type></wpt>
<wpt lat="-29.641049" lon="-50.981249"><name>Radar 50 km/h</name><desc>Fonte: OSM</desc><type>FIXED</type></wpt>
<wpt lat="-29.639844" lon="-50.975603"><name>Radar 60 km/h</name><desc>Fonte: OSM</desc><type>FIXED</type></wpt>
<wpt lat="-29.637852" lon="-50.961925"><name>Radar 80 km/h</name><desc>Fonte: OSM</desc><type>FIXED</type></wpt>
<wpt lat="-29.637730" lon="-50.961946"><name>Radar 80 km/h</name><desc>Fonte: OSM</desc><type>FIXED</type></wpt>
<wpt lat="-29.637335" lon="-50.859512"><name>Radar 80 km/h</name><desc>Fonte: OSM</desc><type>FIXED</type></wpt>
<wpt lat="-29.637239" lon="-50.859445"><name>Radar 80 km/h</name><desc>Fonte: OSM</desc><type>FIXED</type></wpt>
<wpt lat="-29.635246" lon="-50.928701"><name>Radar 60 km/h</name><desc>Fonte: OSM</desc><type>FIXED</type></wpt>
<wpt lat="-29.633479" lon="-50.958945"><name>Radar 40 km/h</name><desc>Fonte: OSM</desc><type>FIXED</type></wpt>
<wpt lat="-29.630647" lon="-50.892602"><name>Radar 60 km/h</name><desc>Fonte: OSM</desc><type>FIXED</type></wpt>
<wpt lat="-29.629377" lon="-51.307871"><name>Radar 80 km/h</name><desc>Fonte: OSM</desc><type>FIXED</type></wpt>
<wpt lat="-29.629348" lon="-51.307744"><name>Radar 80 km/h</name><desc>Fonte: OSM</desc><type>FIXED</type></wpt>
<wpt lat="-29.622574" lon="-52.209437"><name>Radar 40 km/h</name><desc>Fonte: OSM</desc><type>FIXED</type></wpt>
<wpt lat="-29.622481" lon="-52.182114"><name>Radar 50 km/h</name><desc>Fonte: OSM</desc><type>FIXED</type></wpt>
<wpt lat="-29.621574" lon="-52.181781"><name>Radar 50 km/h</name><desc>Fonte: OSM</desc><type>FIXED</type></wpt>
<wpt lat="-29.611997" lon="-51.339902"><name>Radar 60 km/h</name><desc>Fonte: OSM</desc><type>FIXED</type></wpt>
<wpt lat="-29.610768" lon="-52.187594"><name>Radar 40 km/h</name><desc>Fonte: OSM</desc><type>FIXED</type></wpt>
<wpt lat="-29.610646" lon="-52.188572"><name>Radar 40 km/h</name><desc>Fonte: OSM</desc><type>FIXED</type></wpt>
<wpt lat="-29.610604" lon="-51.345964"><name>Radar 60 km/h</name><desc>Fonte: OSM</desc><type>FIXED</type></wpt>
<wpt lat="-29.606822" lon="-52.176360"><name>Radar 50 km/h</name><desc>Fonte: OSM</desc><type>FIXED</type></wpt>
<wpt lat="-29.605153" lon="-52.180343"><name>Radar 40 km/h</name><desc>Fonte: OSM</desc><type>FIXED</type></wpt>
<wpt lat="-29.604435" lon="-52.175489"><name>Radar 50 km/h</name><desc>Fonte: OSM</desc><type>FIXED</type></wpt>
<wpt lat="-29.604261" lon="-52.206310"><name>Radar 40 km/h</name><desc>Fonte: OSM</desc><type>FIXED</type></wpt>
<wpt lat="-29.604198" lon="-52.206819"><name>Radar 40 km/h</name><desc>Fonte: OSM</desc><type>FIXED</type></wpt>
<wpt lat="-29.581201" lon="-51.840483"><name>Radar 100 km/h</name><desc>Fonte: OSM</desc><type>FIXED</type></wpt>
<wpt lat="-29.581164" lon="-51.841074"><name>Radar 100 km/h</name><desc>Fonte: ANTT+OSM · sentido 135° (sudeste)</desc><type>FIXED</type></wpt>
<wpt lat="-29.574199" lon="-50.785027"><name>Radar</name><desc>Fonte: OSM</desc><type>FIXED</type></wpt>
<wpt lat="-29.571844" lon="-50.787557"><name>Radar 50 km/h</name><desc>Fonte: OSM</desc><type>FIXED</type></wpt>
<wpt lat="-29.568633" lon="-51.360185"><name>Radar 80 km/h</name><desc>Fonte: OSM</desc><type>FIXED</type></wpt>
<wpt lat="-29.567608" lon="-51.360502"><name>Radar 80 km/h</name><desc>Fonte: OSM</desc><type>FIXED</type></wpt>
<wpt lat="-29.567332" lon="-51.360573"><name>Radar 80 km/h</name><desc>Fonte: OSM</desc><type>FIXED</type></wpt>
<wpt lat="-29.536840" lon="-51.080880"><name>Radar</name><desc>Fonte: DNIT · sentido 126° (sudeste)</desc><type>FIXED</type></wpt>
<wpt lat="-29.521173" lon="-51.005142"><name>Radar</name><desc>Fonte: OSM</desc><type>FIXED</type></wpt>
<wpt lat="-29.520138" lon="-51.004354"><name>Radar</name><desc>Fonte: OSM</desc><type>FIXED</type></wpt>
<wpt lat="-29.518487" lon="-52.080143"><name>Radar 80 km/h</name><desc>Fonte: OSM</desc><type>FIXED</type></wpt>
<wpt lat="-29.509668" lon="-50.107575"><name>Radar</name><desc>Fonte: OSM</desc><type>FIXED</type></wpt>
<wpt lat="-29.508444" lon="-51.098889"><name>Radar</name><desc>Fonte: DNIT</desc><type>FIXED</type></wpt>
<wpt lat="-29.492034" lon="-50.786940"><name>Radar</name><desc>Fonte: OSM</desc><type>FIXED</type></wpt>
<wpt lat="-29.492021" lon="-50.787103"><name>Radar de trecho 50 km/h</name><desc>Fonte: OSM</desc><type>SECTION</type></wpt>
<wpt lat="-29.491746" lon="-50.787875"><name>Radar de trecho 50 km/h</name><desc>Fonte: OSM</desc><type>SECTION</type></wpt>
<wpt lat="-29.491742" lon="-50.788080"><name>Radar</name><desc>Fonte: OSM</desc><type>FIXED</type></wpt>
<wpt lat="-29.487617" lon="-51.950465"><name>Radar 50 km/h</name><desc>Fonte: OSM</desc><type>FIXED</type></wpt>
<wpt lat="-29.475683" lon="-56.684550"><name>Radar</name><desc>Fonte: DNIT · sentido 0° (norte)</desc><type>FIXED</type></wpt>
<wpt lat="-29.471733" lon="-56.684717"><name>Radar</name><desc>Fonte: DNIT · sentido 180° (sul)</desc><type>FIXED</type></wpt>
<wpt lat="-29.454080" lon="-51.966871"><name>Avanço de sinal</name><desc>Fonte: OSM</desc><type>RED_LIGHT</type></wpt>
<wpt lat="-29.453800" lon="-51.967004"><name>Avanço de sinal</name><desc>Fonte: OSM</desc><type>RED_LIGHT</type></wpt>
<wpt lat="-29.449512" lon="-51.351535"><name>Radar 80 km/h</name><desc>Fonte: OSM</desc><type>FIXED</type></wpt>
<wpt lat="-29.449387" lon="-51.351639"><name>Radar 80 km/h</name><desc>Fonte: OSM</desc><type>FIXED</type></wpt>
<wpt lat="-29.441764" lon="-49.903568"><name>Radar 80 km/h</name><desc>Fonte: OSM</desc><type>FIXED</type></wpt>
<wpt lat="-29.440973" lon="-49.903208"><name>Radar 80 km/h</name><desc>Fonte: OSM</desc><type>FIXED</type></wpt>
<wpt lat="-29.428856" lon="-49.814794"><name>Radar 80 km/h</name><desc>Fonte: OSM</desc><type>FIXED</type></wpt>
<wpt lat="-29.410923" lon="-49.857988"><name>Radar 100 km/h</name><desc>Fonte: OSM</desc><type>FIXED</type></wpt>
<wpt lat="-29.410861" lon="-49.857777"><name>Radar 100 km/h</name><desc>Fonte: OSM</desc><type>FIXED</type></wpt>
<wpt lat="-29.410162" lon="-49.857806"><name>Radar 100 km/h</name><desc>Fonte: ANTT · sentido 203° (sudoeste)</desc><type>FIXED</type></wpt>
<wpt lat="-29.398584" lon="-50.907306"><name>Radar de trecho 60 km/h</name><desc>Fonte: OSM</desc><type>SECTION</type></wpt>
<wpt lat="-29.394017" lon="-56.671383"><name>Radar</name><desc>Fonte: DNIT · sentido 54° (nordeste)</desc><type>FIXED</type></wpt>
<wpt lat="-29.393017" lon="-56.669950"><name>Radar</name><desc>Fonte: DNIT · sentido 237° (sudoeste)</desc><type>FIXED</type></wpt>
<wpt lat="-29.383721" lon="-49.833238"><name>Radar 100 km/h</name><desc>Fonte: OSM</desc><type>FIXED</type></wpt>
<wpt lat="-29.369035" lon="-50.861256"><name>Radar 50 km/h</name><desc>Fonte: OSM</desc><type>FIXED</type></wpt>
<wpt lat="-29.368592" lon="-50.861092"><name>Radar 50 km/h</name><desc>Fonte: OSM</desc><type>FIXED</type></wpt>
<wpt lat="-29.367000" lon="-54.749171"><name>Radar 60 km/h</name><desc>Fonte: OSM</desc><type>FIXED</type></wpt>
<wpt lat="-29.366112" lon="-54.749580"><name>Radar</name><desc>Fonte: DNIT · sentido 157° (sudeste)</desc><type>FIXED</type></wpt>
<wpt lat="-29.364982" lon="-54.750560"><name>Radar 60 km/h</name><desc>Fonte: OSM</desc><type>FIXED</type></wpt>
<wpt lat="-29.364350" lon="-54.751934"><name>Radar 60 km/h</name><desc>Fonte: OSM</desc><type>FIXED</type></wpt>
<wpt lat="-29.363701" lon="-51.089593"><name>Radar 50 km/h</name><desc>Fonte: OSM</desc><type>FIXED</type></wpt>
<wpt lat="-29.363389" lon="-51.089033"><name>Radar 50 km/h</name><desc>Fonte: OSM</desc><type>FIXED</type></wpt>
<wpt lat="-29.361604" lon="-50.850321"><name>Radar 50 km/h</name><desc>Fonte: OSM</desc><type>FIXED</type></wpt>
<wpt lat="-29.361433" lon="-50.850153"><name>Radar</name><desc>Fonte: OSM</desc><type>FIXED</type></wpt>
<wpt lat="-29.360951" lon="-49.769931"><name>Radar 80 km/h</name><desc>Fonte: OSM</desc><type>FIXED</type></wpt>
<wpt lat="-29.360198" lon="-51.047392"><name>Radar</name><desc>Fonte: OSM</desc><type>FIXED</type></wpt>
<wpt lat="-29.343726" lon="-51.026285"><name>Radar</name><desc>Fonte: OSM</desc><type>FIXED</type></wpt>
<wpt lat="-29.337014" lon="-49.785164"><name>Radar 100 km/h</name><desc>Fonte: ANTT+OSM · sentido 169° (sul)</desc><type>FIXED</type></wpt>
<wpt lat="-29.334902" lon="-49.763836"><name>Radar 50 km/h</name><desc>Fonte: OSM</desc><type>FIXED</type></wpt>
<wpt lat="-29.333928" lon="-49.763181"><name>Radar 50 km/h</name><desc>Fonte: OSM</desc><type>FIXED</type></wpt>
<wpt lat="-29.320540" lon="-51.341163"><name>Radar 50 km/h</name><desc>Fonte: OSM</desc><type>FIXED</type></wpt>
<wpt lat="-29.318701" lon="-51.340040"><name>Radar 50 km/h</name><desc>Fonte: OSM</desc><type>FIXED</type></wpt>
<wpt lat="-29.312152" lon="-51.167414"><name>Radar de trecho 50 km/h</name><desc>Fonte: OSM</desc><type>SECTION</type></wpt>
<wpt lat="-29.307868" lon="-51.167546"><name>Radar de trecho 50 km/h</name><desc>Fonte: OSM</desc><type>SECTION</type></wpt>
<wpt lat="-29.246063" lon="-51.156562"><name>Radar 60 km/h</name><desc>Fonte: OSM</desc><type>FIXED</type></wpt>
<wpt lat="-29.221744" lon="-51.336449"><name>Radar 50 km/h</name><desc>Fonte: OSM</desc><type>FIXED</type></wpt>
<wpt lat="-29.221470" lon="-51.334779"><name>Radar 50 km/h</name><desc>Fonte: OSM</desc><type>FIXED</type></wpt>
<wpt lat="-29.219919" lon="-51.343058"><name>Radar 50 km/h</name><desc>Fonte: OSM</desc><type>FIXED</type></wpt>
<wpt lat="-29.215906" lon="-51.350731"><name>Radar 50 km/h</name><desc>Fonte: OSM</desc><type>FIXED</type></wpt>
<wpt lat="-29.215271" lon="-51.352160"><name>Radar 50 km/h</name><desc>Fonte: OSM</desc><type>FIXED</type></wpt>
<wpt lat="-29.205596" lon="-51.440790"><name>Radar de trecho 60 km/h</name><desc>Fonte: OSM</desc><type>SECTION</type></wpt>
<wpt lat="-29.201338" lon="-51.267923"><name>Radar 80 km/h</name><desc>Fonte: OSM</desc><type>FIXED</type></wpt>
<wpt lat="-29.201113" lon="-51.267617"><name>Radar 80 km/h</name><desc>Fonte: OSM</desc><type>FIXED</type></wpt>
<wpt lat="-29.197346" lon="-51.343829"><name>Radar 60 km/h</name><desc>Fonte: OSM</desc><type>FIXED</type></wpt>
<wpt lat="-29.190060" lon="-52.187773"><name>Radar</name><desc>Fonte: OSM</desc><type>FIXED</type></wpt>
<wpt lat="-29.189548" lon="-52.188429"><name>Radar 60 km/h</name><desc>Fonte: ANTT · sentido 127° (sudeste)</desc><type>FIXED</type></wpt>
<wpt lat="-29.182900" lon="-51.520240"><name>Radar</name><desc>Fonte: DNIT</desc><type>FIXED</type></wpt>
<wpt lat="-29.182506" lon="-51.520270"><name>Radar 50 km/h</name><desc>Fonte: OSM</desc><type>FIXED</type></wpt>
<wpt lat="-29.182382" lon="-51.211704"><name>Radar 40 km/h</name><desc>Fonte: OSM</desc><type>FIXED</type></wpt>
<wpt lat="-29.179140" lon="-51.518610"><name>Radar 50 km/h</name><desc>Fonte: DNIT+OSM · sentido 29° (nordeste)</desc><type>FIXED</type></wpt>
<wpt lat="-29.177070" lon="-51.520020"><name>Radar</name><desc>Fonte: DNIT · sentido 110° (leste)</desc><type>FIXED</type></wpt>
<wpt lat="-29.176945" lon="-51.520418"><name>Radar 50 km/h</name><desc>Fonte: OSM</desc><type>FIXED</type></wpt>
<wpt lat="-29.175953" lon="-51.182743"><name>Radar 40 km/h</name><desc>Fonte: OSM</desc><type>FIXED</type></wpt>
<wpt lat="-29.175184" lon="-51.522810"><name>Radar 50 km/h</name><desc>Fonte: OSM</desc><type>FIXED</type></wpt>
<wpt lat="-29.173734" lon="-51.524392"><name>Radar 50 km/h</name><desc>Fonte: OSM</desc><type>FIXED</type></wpt>
<wpt lat="-29.171016" lon="-51.480909"><name>Radar 40 km/h</name><desc>Fonte: OSM</desc><type>FIXED</type></wpt>
<wpt lat="-29.169568" lon="-51.525462"><name>Radar 50 km/h</name><desc>Fonte: OSM</desc><type>FIXED</type></wpt>
<wpt lat="-29.166990" lon="-51.525960"><name>Radar 50 km/h</name><desc>Fonte: DNIT+OSM · sentido 190° (sul)</desc><type>FIXED</type></wpt>
<wpt lat="-29.166750" lon="-51.525740"><name>Radar 50 km/h</name><desc>Fonte: DNIT+OSM · sentido 9° (norte)</desc><type>FIXED</type></wpt>
<wpt lat="-29.160650" lon="-51.527720"><name>Radar 50 km/h</name><desc>Fonte: DNIT+OSM · sentido 297° (noroeste)</desc><type>FIXED</type></wpt>
<wpt lat="-29.159650" lon="-51.530420"><name>Radar 50 km/h</name><desc>Fonte: DNIT+OSM · sentido 117° (sudeste)</desc><type>FIXED</type></wpt>
<wpt lat="-29.158110" lon="-51.152470"><name>Radar</name><desc>Fonte: DNIT · sentido 83° (leste)</desc><type>FIXED</type></wpt>
<wpt lat="-29.131674" lon="-51.544783"><name>Radar 50 km/h</name><desc>Fonte: OSM</desc><type>FIXED</type></wpt>
<wpt lat="-29.124049" lon="-51.173771"><name>Radar 50 km/h</name><desc>Fonte: OSM</desc><type>FIXED</type></wpt>
<wpt lat="-29.098892" lon="-51.186660"><name>Radar 60 km/h</name><desc>Fonte: OSM</desc><type>FIXED</type></wpt>
<wpt lat="-29.086433" lon="-56.554018"><name>Radar 60 km/h</name><desc>Fonte: OSM</desc><type>FIXED</type></wpt>
<wpt lat="-29.086118" lon="-56.556319"><name>Radar de trecho 60 km/h</name><desc>Fonte: OSM</desc><type>SECTION</type></wpt>
<wpt lat="-29.081983" lon="-56.544628"><name>Radar 60 km/h</name><desc>Fonte: OSM</desc><type>FIXED</type></wpt>
<wpt lat="-29.080945" lon="-56.543369"><name>Radar de trecho 60 km/h</name><desc>Fonte: OSM</desc><type>SECTION</type></wpt>
<wpt lat="-29.079279" lon="-51.110828"><name>Radar</name><desc>Fonte: DNIT · sentido 43° (nordeste)</desc><type>FIXED</type></wpt>
<wpt lat="-29.078344" lon="-51.110022"><name>Radar 50 km/h</name><desc>Fonte: OSM</desc><type>FIXED</type></wpt>
<wpt lat="-29.076410" lon="-51.109220"><name>Radar</name><desc>Fonte: DNIT · sentido 219° (sudoeste)</desc><type>FIXED</type></wpt>
<wpt lat="-29.053245" lon="-51.191102"><name>Radar 40 km/h</name><desc>Fonte: OSM</desc><type>FIXED</type></wpt>
<wpt lat="-29.053197" lon="-51.191034"><name>Radar 40 km/h</name><desc>Fonte: OSM</desc><type>FIXED</type></wpt>
<wpt lat="-29.031622" lon="-51.182481"><name>Radar 40 km/h</name><desc>Fonte: OSM</desc><type>FIXED</type></wpt>
<wpt lat="-29.030476" lon="-51.192263"><name>Radar 40 km/h</name><desc>Fonte: OSM</desc><type>FIXED</type></wpt>
<wpt lat="-29.030352" lon="-51.186075"><name>Radar 40 km/h</name><desc>Fonte: OSM</desc><type>FIXED</type></wpt>
<wpt lat="-29.030307" lon="-51.184816"><name>Radar 40 km/h</name><desc>Fonte: OSM</desc><type>FIXED</type></wpt>
<wpt lat="-29.011264" lon="-51.179848"><name>Radar 50 km/h</name><desc>Fonte: OSM</desc><type>FIXED</type></wpt>
<wpt lat="-28.980490" lon="-52.367263"><name>Radar 60 km/h</name><desc>Fonte: OSM</desc><type>FIXED</type></wpt>
<wpt lat="-28.978289" lon="-52.367937"><name>Radar 60 km/h</name><desc>Fonte: ANTT · sentido 349° (norte)</desc><type>FIXED</type></wpt>
<wpt lat="-28.946725" lon="-51.181166"><name>Radar 40 km/h</name><desc>Fonte: OSM</desc><type>FIXED</type></wpt>
<wpt lat="-28.941227" lon="-51.548589"><name>Radar 50 km/h</name><desc>Fonte: OSM</desc><type>FIXED</type></wpt>
<wpt lat="-28.936486" lon="-51.543097"><name>Radar 50 km/h</name><desc>Fonte: OSM</desc><type>FIXED</type></wpt>
<wpt lat="-28.927391" lon="-51.541913"><name>Radar</name><desc>Fonte: DNIT · sentido 30° (nordeste)</desc><type>FIXED</type></wpt>
<wpt lat="-28.926433" lon="-51.541419"><name>Radar</name><desc>Fonte: DNIT · sentido 218° (sudoeste)</desc><type>FIXED</type></wpt>
<wpt lat="-28.887425" lon="-51.547877"><name>Radar</name><desc>Fonte: OSM</desc><type>FIXED</type></wpt>
<wpt lat="-28.843260" lon="-51.133580"><name>Radar</name><desc>Fonte: DNIT</desc><type>FIXED</type></wpt>
<wpt lat="-28.819880" lon="-51.590470"><name>Radar</name><desc>Fonte: DNIT</desc><type>FIXED</type></wpt>
<wpt lat="-28.803798" lon="-52.507508"><name>Radar 60 km/h</name><desc>Fonte: ANTT+OSM · sentido 315° (noroeste)</desc><type>FIXED</type></wpt>
<wpt lat="-28.797739" lon="-51.095682"><name>Radar</name><desc>Fonte: DNIT+OSM · sentido 10° (norte)</desc><type>FIXED</type></wpt>
<wpt lat="-28.794281" lon="-51.095679"><name>Radar</name><desc>Fonte: DNIT · sentido 160° (sul)</desc><type>FIXED</type></wpt>
<wpt lat="-28.788188" lon="-51.095751"><name>Radar</name><desc>Fonte: DNIT+OSM · sentido 136° (sudeste)</desc><type>FIXED</type></wpt>
<wpt lat="-28.774070" lon="-51.614100"><name>Radar</name><desc>Fonte: DNIT</desc><type>FIXED</type></wpt>
<wpt lat="-28.771782" lon="-51.617128"><name>Radar 50 km/h</name><desc>Fonte: OSM</desc><type>FIXED</type></wpt>
<wpt lat="-28.762834" lon="-51.263774"><name>Radar 60 km/h</name><desc>Fonte: OSM</desc><type>FIXED</type></wpt>
<wpt lat="-28.740206" lon="-52.834294"><name>Radar 40 km/h</name><desc>Fonte: OSM</desc><type>FIXED</type></wpt>
<wpt lat="-28.731659" lon="-52.839070"><name>Radar 40 km/h</name><desc>Fonte: OSM</desc><type>FIXED</type></wpt>
<wpt lat="-28.725065" lon="-52.843772"><name>Radar 40 km/h</name><desc>Fonte: OSM</desc><type>FIXED</type></wpt>
<wpt lat="-28.723655" lon="-52.845136"><name>Radar 40 km/h</name><desc>Fonte: OSM</desc><type>FIXED</type></wpt>
<wpt lat="-28.721761" lon="-52.847329"><name>Radar 40 km/h</name><desc>Fonte: OSM</desc><type>FIXED</type></wpt>
<wpt lat="-28.713493" lon="-51.938451"><name>Radar 50 km/h</name><desc>Fonte: OSM</desc><type>FIXED</type></wpt>
<wpt lat="-28.673889" lon="-51.063233"><name>Radar</name><desc>Fonte: DNIT · sentido 2° (norte)</desc><type>FIXED</type></wpt>
<wpt lat="-28.664242" lon="-55.940231"><name>Radar 80 km/h</name><desc>Fonte: OSM</desc><type>FIXED</type></wpt>
<wpt lat="-28.663849" lon="-55.938369"><name>Radar 80 km/h</name><desc>Fonte: OSM</desc><type>FIXED</type></wpt>
<wpt lat="-28.638311" lon="-53.115573"><name>Radar 50 km/h</name><desc>Fonte: OSM</desc><type>FIXED</type></wpt>
<wpt lat="-28.638245" lon="-53.114547"><name>Radar 50 km/h</name><desc>Fonte: OSM</desc><type>FIXED</type></wpt>
<wpt lat="-28.635760" lon="-50.550279"><name>Radar</name><desc>Fonte: DNIT · sentido 53° (nordeste)</desc><type>FIXED</type></wpt>
<wpt lat="-28.635424" lon="-50.547273"><name>Radar</name><desc>Fonte: DNIT · sentido 290° (oeste)</desc><type>FIXED</type></wpt>
<wpt lat="-28.606245" lon="-53.372737"><name>Radar 60 km/h</name><desc>Fonte: OSM</desc><type>FIXED</type></wpt>
<wpt lat="-28.601618" lon="-51.902233"><name>Radar 80 km/h</name><desc>Fonte: OSM</desc><type>FIXED</type></wpt>
<wpt lat="-28.593321" lon="-50.751698"><name>Radar</name><desc>Fonte: DNIT · sentido 296° (noroeste)</desc><type>FIXED</type></wpt>
<wpt lat="-28.590648" lon="-50.755103"><name>Radar</name><desc>Fonte: DNIT · sentido 98° (leste)</desc><type>FIXED</type></wpt>
<wpt lat="-28.539341" lon="-50.969824"><name>Radar</name><desc>Fonte: OSM</desc><type>FIXED</type></wpt>
<wpt lat="-28.535744" lon="-52.151144"><name>Radar 50 km/h</name><desc>Fonte: OSM</desc><type>FIXED</type></wpt>
<wpt lat="-28.534605" lon="-52.154145"><name>Radar 50 km/h</name><desc>Fonte: OSM</desc><type>FIXED</type></wpt>
<wpt lat="-28.534479" lon="-52.154592"><name>Radar 50 km/h</name><desc>Fonte: OSM</desc><type>FIXED</type></wpt>
<wpt lat="-28.533972" lon="-53.776317"><name>Radar 80 km/h</name><desc>Fonte: OSM</desc><type>FIXED</type></wpt>
<wpt lat="-28.532801" lon="-52.160439"><name>Radar 50 km/h</name><desc>Fonte: OSM</desc><type>FIXED</type></wpt>
<wpt lat="-28.525526" lon="-50.947347"><name>Radar 60 km/h</name><desc>Fonte: OSM</desc><type>FIXED</type></wpt>
<wpt lat="-28.523505" lon="-50.945144"><name>Radar 60 km/h</name><desc>Fonte: OSM</desc><type>FIXED</type></wpt>
<wpt lat="-28.521500" lon="-50.942840"><name>Radar 50 km/h</name><desc>Fonte: DNIT+OSM · sentido 43° (nordeste)</desc><type>FIXED</type></wpt>
<wpt lat="-28.520060" lon="-50.941536"><name>Radar 50 km/h</name><desc>Fonte: DNIT+OSM · sentido 224° (sudoeste)</desc><type>FIXED</type></wpt>
<wpt lat="-28.513617" lon="-50.908233"><name>Radar 50 km/h</name><desc>Fonte: DNIT+OSM · sentido 290° (oeste)</desc><type>FIXED</type></wpt>
<wpt lat="-28.512117" lon="-50.911433"><name>Radar 50 km/h</name><desc>Fonte: DNIT+OSM · sentido 147° (sudeste)</desc><type>FIXED</type></wpt>
<wpt lat="-28.508189" lon="-50.928170"><name>Radar 60 km/h</name><desc>Fonte: OSM</desc><type>FIXED</type></wpt>
<wpt lat="-28.505847" lon="-50.925630"><name>Radar 60 km/h</name><desc>Fonte: OSM</desc><type>FIXED</type></wpt>
<wpt lat="-28.503005" lon="-50.917379"><name>Radar 60 km/h</name><desc>Fonte: OSM</desc><type>FIXED</type></wpt>
<wpt lat="-28.502926" lon="-50.917478"><name>Radar 60 km/h</name><desc>Fonte: OSM</desc><type>FIXED</type></wpt>
<wpt lat="-28.502171" lon="-50.921562"><name>Radar 60 km/h</name><desc>Fonte: OSM</desc><type>FIXED</type></wpt>
<wpt lat="-28.499389" lon="-50.951072"><name>Radar 50 km/h</name><desc>Fonte: DNIT+OSM · sentido 333° (noroeste)</desc><type>FIXED</type></wpt>
<wpt lat="-28.498529" lon="-50.951778"><name>Radar</name><desc>Fonte: DNIT · sentido 153° (sudeste)</desc><type>FIXED</type></wpt>
<wpt lat="-28.497821" lon="-50.952072"><name>Radar 50 km/h</name><desc>Fonte: OSM</desc><type>FIXED</type></wpt>
<wpt lat="-28.489896" lon="-50.957470"><name>Radar 60 km/h</name><desc>Fonte: OSM</desc><type>FIXED</type></wpt>
<wpt lat="-28.486323" lon="-50.903997"><name>Radar 60 km/h</name><desc>Fonte: OSM</desc><type>FIXED</type></wpt>
<wpt lat="-28.483140" lon="-50.960915"><name>Radar 60 km/h</name><desc>Fonte: OSM</desc><type>FIXED</type></wpt>
<wpt lat="-28.480736" lon="-50.899737"><name>Radar 60 km/h</name><desc>Fonte: OSM</desc><type>FIXED</type></wpt>
<wpt lat="-28.480489" lon="-50.963236"><name>Radar 60 km/h</name><desc>Fonte: OSM</desc><type>FIXED</type></wpt>
<wpt lat="-28.478271" lon="-50.898363"><name>Radar 60 km/h</name><desc>Fonte: OSM</desc><type>FIXED</type></wpt>
<wpt lat="-28.477991" lon="-50.965439"><name>Radar 60 km/h</name><desc>Fonte: OSM</desc><type>FIXED</type></wpt>
<wpt lat="-28.475928" lon="-50.966997"><name>Radar 60 km/h</name><desc>Fonte: OSM</desc><type>FIXED</type></wpt>
<wpt lat="-28.439691" lon="-52.813518"><name>Radar 40 km/h</name><desc>Fonte: OSM</desc><type>FIXED</type></wpt>
<wpt lat="-28.430982" lon="-50.870870"><name>Radar 80 km/h</name><desc>Fonte: OSM</desc><type>FIXED</type></wpt>
<wpt lat="-28.425557" lon="-51.026366"><name>Radar 80 km/h</name><desc>Fonte: OSM</desc><type>FIXED</type></wpt>
<wpt lat="-28.425487" lon="-51.026556"><name>Radar de trecho 60 km/h</name><desc>Fonte: OSM</desc><type>SECTION</type></wpt>
<wpt lat="-28.421691" lon="-51.031057"><name>Radar de trecho 80 km/h</name><desc>Fonte: OSM</desc><type>SECTION</type></wpt>
<wpt lat="-28.418753" lon="-53.916923"><name>Radar de trecho 50 km/h</name><desc>Fonte: OSM</desc><type>SECTION</type></wpt>
<wpt lat="-28.418667" lon="-53.916350"><name>Radar</name><desc>Fonte: DNIT · sentido 72° (leste)</desc><type>FIXED</type></wpt>
<wpt lat="-28.418450" lon="-53.916033"><name>Radar 50 km/h</name><desc>Fonte: DNIT+OSM · sentido 249° (oeste)</desc><type>FIXED</type></wpt>
<wpt lat="-28.417594" lon="-54.940338"><name>Radar</name><desc>Fonte: DNIT · sentido 80° (leste)</desc><type>FIXED</type></wpt>
<wpt lat="-28.417022" lon="-53.913573"><name>Radar 50 km/h</name><desc>Fonte: OSM</desc><type>FIXED</type></wpt>
<wpt lat="-28.416970" lon="-54.935680"><name>Radar</name><desc>Fonte: DNIT · sentido 272° (oeste)</desc><type>FIXED</type></wpt>
<wpt lat="-28.416005" lon="-53.912577"><name>Radar de trecho 50 km/h</name><desc>Fonte: OSM</desc><type>SECTION</type></wpt>
<wpt lat="-28.415259" lon="-54.973523"><name>Radar de trecho 60 km/h</name><desc>Fonte: OSM</desc><type>SECTION</type></wpt>
<wpt lat="-28.415215" lon="-54.973311"><name>Radar</name><desc>Fonte: OSM</desc><type>FIXED</type></wpt>
<wpt lat="-28.413202" lon="-54.977655"><name>Radar de trecho 50 km/h</name><desc>Fonte: OSM</desc><type>SECTION</type></wpt>
<wpt lat="-28.411269" lon="-54.569986"><name>Radar de trecho 60 km/h</name><desc>Fonte: OSM</desc><type>SECTION</type></wpt>
<wpt lat="-28.411042" lon="-54.573180"><name>Radar 60 km/h</name><desc>Fonte: OSM</desc><type>FIXED</type></wpt>
<wpt lat="-28.410930" lon="-54.575750"><name>Radar 60 km/h</name><desc>Fonte: OSM</desc><type>FIXED</type></wpt>
<wpt lat="-28.410886" lon="-54.575543"><name>Radar de trecho 60 km/h</name><desc>Fonte: OSM</desc><type>SECTION</type></wpt>
<wpt lat="-28.406882" lon="-53.943712"><name>Radar de trecho 50 km/h</name><desc>Fonte: OSM</desc><type>SECTION</type></wpt>
<wpt lat="-28.406852" lon="-53.943954"><name>Radar 50 km/h</name><desc>Fonte: OSM</desc><type>FIXED</type></wpt>
<wpt lat="-28.404007" lon="-54.531652"><name>Radar de trecho 60 km/h</name><desc>Fonte: OSM</desc><type>SECTION</type></wpt>
<wpt lat="-28.403885" lon="-54.529984"><name>Radar de trecho 60 km/h</name><desc>Fonte: OSM</desc><type>SECTION</type></wpt>
<wpt lat="-28.396627" lon="-54.377525"><name>Radar de trecho 60 km/h</name><desc>Fonte: OSM</desc><type>SECTION</type></wpt>
<wpt lat="-28.395875" lon="-54.372386"><name>Radar de trecho 60 km/h</name><desc>Fonte: OSM</desc><type>SECTION</type></wpt>
<wpt lat="-28.385690" lon="-53.888860"><name>Radar</name><desc>Fonte: DNIT · sentido 49° (nordeste)</desc><type>FIXED</type></wpt>
<wpt lat="-28.385240" lon="-53.888370"><name>Radar 50 km/h</name><desc>Fonte: OSM</desc><type>FIXED</type></wpt>
<wpt lat="-28.384060" lon="-53.886710"><name>Radar 50 km/h</name><desc>Fonte: DNIT+OSM · sentido 236° (sudoeste)</desc><type>FIXED</type></wpt>
<wpt lat="-28.379605" lon="-52.253001"><name>Radar 50 km/h</name><desc>Fonte: OSM</desc><type>FIXED</type></wpt>
<wpt lat="-28.378440" lon="-54.283530"><name>Radar</name><desc>Fonte: DNIT</desc><type>FIXED</type></wpt>
<wpt lat="-28.375330" lon="-54.183312"><name>Radar de trecho 80 km/h</name><desc>Fonte: OSM</desc><type>SECTION</type></wpt>
<wpt lat="-28.375258" lon="-54.160141"><name>Radar de trecho 50 km/h</name><desc>Fonte: OSM</desc><type>SECTION</type></wpt>
<wpt lat="-28.374633" lon="-54.164417"><name>Radar 50 km/h</name><desc>Fonte: DNIT+OSM · sentido 281° (oeste)</desc><type>FIXED</type></wpt>
<wpt lat="-28.374371" lon="-54.189472"><name>Radar 80 km/h</name><desc>Fonte: OSM</desc><type>FIXED</type></wpt>
<wpt lat="-28.374267" lon="-54.167200"><name>Radar 50 km/h</name><desc>Fonte: DNIT+OSM · sentido 101° (leste)</desc><type>FIXED</type></wpt>
<wpt lat="-28.373664" lon="-54.170464"><name>Radar de trecho 50 km/h</name><desc>Fonte: OSM</desc><type>SECTION</type></wpt>
<wpt lat="-28.373351" lon="-54.196455"><name>Radar de trecho 80 km/h</name><desc>Fonte: OSM</desc><type>SECTION</type></wpt>
<wpt lat="-28.365000" lon="-53.775430"><name>Radar 50 km/h</name><desc>Fonte: DNIT+OSM · sentido 86° (leste)</desc><type>FIXED</type></wpt>
<wpt lat="-28.364988" lon="-53.776147"><name>Radar de trecho 50 km/h</name><desc>Fonte: OSM</desc><type>SECTION</type></wpt>
<wpt lat="-28.364150" lon="-53.770990"><name>Radar 50 km/h</name><desc>Fonte: DNIT+OSM · sentido 258° (oeste)</desc><type>FIXED</type></wpt>
<wpt lat="-28.364089" lon="-53.770259"><name>Radar de trecho 50 km/h</name><desc>Fonte: OSM</desc><type>SECTION</type></wpt>
<wpt lat="-28.357400" lon="-51.106950"><name>Radar</name><desc>Fonte: DNIT · sentido 339° (norte)</desc><type>FIXED</type></wpt>
<wpt lat="-28.356240" lon="-51.108607"><name>Radar</name><desc>Fonte: DNIT · sentido 106° (leste)</desc><type>FIXED</type></wpt>
<wpt lat="-28.343490" lon="-51.149370"><name>Radar</name><desc>Fonte: DNIT · sentido 288° (oeste)</desc><type>FIXED</type></wpt>
<wpt lat="-28.339589" lon="-51.153440"><name>Radar</name><desc>Fonte: DNIT · sentido 186° (sul)</desc><type>FIXED</type></wpt>
<wpt lat="-28.337083" lon="-53.666600"><name>Radar</name><desc>Fonte: DNIT · sentido 55° (nordeste)</desc><type>FIXED</type></wpt>
<wpt lat="-28.336550" lon="-53.665932"><name>Radar</name><desc>Fonte: OSM</desc><type>FIXED</type></wpt>
<wpt lat="-28.336040" lon="-53.665400"><name>Radar</name><desc>Fonte: DNIT · sentido 230° (sudoeste)</desc><type>FIXED</type></wpt>
<wpt lat="-28.325651" lon="-52.292812"><name>Radar 80 km/h</name><desc>Fonte: OSM</desc><type>FIXED</type></wpt>
<wpt lat="-28.319638" lon="-51.249215"><name>Radar</name><desc>Fonte: DNIT · sentido 43° (nordeste)</desc><type>FIXED</type></wpt>
<wpt lat="-28.319153" lon="-51.246456"><name>Radar</name><desc>Fonte: DNIT · sentido 305° (noroeste)</desc><type>FIXED</type></wpt>
<wpt lat="-28.318551" lon="-52.765219"><name>Radar de trecho 50 km/h</name><desc>Fonte: OSM</desc><type>SECTION</type></wpt>
<wpt lat="-28.318200" lon="-52.770007"><name>Radar</name><desc>Fonte: DNIT · sentido 281° (oeste)</desc><type>FIXED</type></wpt>
<wpt lat="-28.318192" lon="-52.770443"><name>Radar 50 km/h</name><desc>Fonte: OSM</desc><type>FIXED</type></wpt>
<wpt lat="-28.317990" lon="-52.809464"><name>Radar</name><desc>Fonte: DNIT · sentido 85° (leste)</desc><type>FIXED</type></wpt>
<wpt lat="-28.317628" lon="-52.772694"><name>Radar 50 km/h</name><desc>Fonte: OSM</desc><type>FIXED</type></wpt>
<wpt lat="-28.317614" lon="-52.805809"><name>Radar</name><desc>Fonte: DNIT · sentido 265° (oeste)</desc><type>FIXED</type></wpt>
<wpt lat="-28.317567" lon="-52.773017"><name>Radar</name><desc>Fonte: DNIT · sentido 108° (leste)</desc><type>FIXED</type></wpt>
<wpt lat="-28.315655" lon="-52.779328"><name>Radar de trecho 50 km/h</name><desc>Fonte: OSM</desc><type>SECTION</type></wpt>
<wpt lat="-28.298298" lon="-51.455384"><name>Radar de trecho 50 km/h</name><desc>Fonte: OSM</desc><type>SECTION</type></wpt>
<wpt lat="-28.296114" lon="-51.462253"><name>Radar 50 km/h</name><desc>Fonte: OSM</desc><type>FIXED</type></wpt>
<wpt lat="-28.293005" lon="-51.463179"><name>Radar de trecho 50 km/h</name><desc>Fonte: OSM</desc><type>SECTION</type></wpt>
<wpt lat="-28.281050" lon="-50.800750"><name>Radar de trecho 50 km/h</name><desc>Fonte: DNIT+OSM · sentido 33° (nordeste)</desc><type>SECTION</type></wpt>
<wpt lat="-28.279909" lon="-52.378166"><name>Radar 50 km/h</name><desc>Fonte: OSM</desc><type>FIXED</type></wpt>
<wpt lat="-28.279827" lon="-52.378099"><name>Radar 50 km/h</name><desc>Fonte: OSM</desc><type>FIXED</type></wpt>
<wpt lat="-28.279223" lon="-52.415683"><name>Radar 50 km/h</name><desc>Fonte: OSM</desc><type>FIXED</type></wpt>
<wpt lat="-28.279191" lon="-52.416579"><name>Radar 50 km/h</name><desc>Fonte: OSM</desc><type>FIXED</type></wpt>
<wpt lat="-28.278540" lon="-52.192201"><name>Radar de trecho 50 km/h</name><desc>Fonte: OSM</desc><type>SECTION</type></wpt>
<wpt lat="-28.278285" lon="-52.189362"><name>Radar de trecho 50 km/h</name><desc>Fonte: OSM</desc><type>SECTION</type></wpt>
<wpt lat="-28.275405" lon="-52.381922"><name>Radar 50 km/h</name><desc>Fonte: OSM</desc><type>FIXED</type></wpt>
<wpt lat="-28.274417" lon="-51.684717"><name>Radar de trecho 60 km/h</name><desc>Fonte: DNIT+OSM · sentido 283° (oeste)</desc><type>SECTION</type></wpt>
<wpt lat="-28.273173" lon="-51.688450"><name>Radar de trecho 60 km/h</name><desc>Fonte: OSM</desc><type>SECTION</type></wpt>
<wpt lat="-28.272245" lon="-52.385956"><name>Radar 50 km/h</name><desc>Fonte: OSM</desc><type>FIXED</type></wpt>
<wpt lat="-28.272164" lon="-52.385860"><name>Radar 50 km/h</name><desc>Fonte: OSM</desc><type>FIXED</type></wpt>
<wpt lat="-28.271852" lon="-52.424498"><name>Radar 40 km/h</name><desc>Fonte: OSM</desc><type>FIXED</type></wpt>
<wpt lat="-28.269523" lon="-52.427052"><name>Radar 50 km/h</name><desc>Fonte: OSM</desc><type>FIXED</type></wpt>
<wpt lat="-28.269325" lon="-52.426255"><name>Radar 50 km/h</name><desc>Fonte: OSM</desc><type>FIXED</type></wpt>
<wpt lat="-28.269041" lon="-52.389318"><name>Radar 50 km/h</name><desc>Fonte: OSM</desc><type>FIXED</type></wpt>
<wpt lat="-28.268269" lon="-52.438655"><name>Radar 50 km/h</name><desc>Fonte: OSM</desc><type>FIXED</type></wpt>
<wpt lat="-28.267917" lon="-52.438122"><name>Radar 50 km/h</name><desc>Fonte: OSM</desc><type>FIXED</type></wpt>
<wpt lat="-28.267207" lon="-52.434056"><name>Radar 50 km/h</name><desc>Fonte: OSM</desc><type>FIXED</type></wpt>
<wpt lat="-28.267168" lon="-52.433554"><name>Radar 50 km/h</name><desc>Fonte: OSM</desc><type>FIXED</type></wpt>
<wpt lat="-28.266643" lon="-52.395286"><name>Radar 50 km/h</name><desc>Fonte: OSM</desc><type>FIXED</type></wpt>
<wpt lat="-28.265848" lon="-52.405858"><name>Radar 50 km/h</name><desc>Fonte: OSM</desc><type>FIXED</type></wpt>
<wpt lat="-28.264691" lon="-52.415836"><name>Radar 50 km/h</name><desc>Fonte: OSM</desc><type>FIXED</type></wpt>
<wpt lat="-28.264092" lon="-52.410886"><name>Radar 50 km/h</name><desc>Fonte: OSM</desc><type>FIXED</type></wpt>
<wpt lat="-28.253749" lon="-52.417980"><name>Radar 50 km/h</name><desc>Fonte: OSM</desc><type>FIXED</type></wpt>
<wpt lat="-28.249656" lon="-52.423545"><name>Radar 50 km/h</name><desc>Fonte: OSM</desc><type>FIXED</type></wpt>
<wpt lat="-28.248950" lon="-52.423991"><name>Radar 50 km/h</name><desc>Fonte: OSM</desc><type>FIXED</type></wpt>
<wpt lat="-28.246495" lon="-52.386596"><name>Radar 50 km/h</name><desc>Fonte: OSM</desc><type>FIXED</type></wpt>
<wpt lat="-28.246270" lon="-52.386588"><name>Radar 50 km/h</name><desc>Fonte: OSM</desc><type>FIXED</type></wpt>
<wpt lat="-28.242599" lon="-52.312209"><name>Radar 80 km/h</name><desc>Fonte: OSM</desc><type>FIXED</type></wpt>
<wpt lat="-28.241394" lon="-52.379802"><name>Radar 50 km/h</name><desc>Fonte: OSM</desc><type>FIXED</type></wpt>
<wpt lat="-28.240515" lon="-52.378940"><name>Radar 50 km/h</name><desc>Fonte: OSM</desc><type>FIXED</type></wpt>
<wpt lat="-28.238191" lon="-52.368819"><name>Radar de trecho 50 km/h</name><desc>Fonte: OSM</desc><type>SECTION</type></wpt>
<wpt lat="-28.236404" lon="-52.377191"><name>Radar de trecho 50 km/h</name><desc>Fonte: OSM</desc><type>SECTION</type></wpt>
<wpt lat="-28.230067" lon="-52.440717"><name>Radar de trecho 50 km/h</name><desc>Fonte: DNIT+OSM · sentido 301° (noroeste)</desc><type>SECTION</type></wpt>
<wpt lat="-28.229217" lon="-52.442550"><name>Radar de trecho 50 km/h</name><desc>Fonte: DNIT+OSM · sentido 121° (sudeste)</desc><type>SECTION</type></wpt>
<wpt lat="-28.219344" lon="-51.509526"><name>Radar de trecho 50 km/h</name><desc>Fonte: OSM</desc><type>SECTION</type></wpt>
<wpt lat="-28.212869" lon="-50.758775"><name>Radar de trecho 40 km/h</name><desc>Fonte: OSM</desc><type>SECTION</type></wpt>
<wpt lat="-28.212797" lon="-51.510361"><name>Radar 50 km/h</name><desc>Fonte: OSM</desc><type>FIXED</type></wpt>
<wpt lat="-28.211012" lon="-51.511037"><name>Radar de trecho 50 km/h</name><desc>Fonte: OSM</desc><type>SECTION</type></wpt>
<wpt lat="-28.205567" lon="-51.519183"><name>Radar de trecho 50 km/h</name><desc>Fonte: DNIT+OSM · sentido 293° (noroeste)</desc><type>SECTION</type></wpt>
<wpt lat="-28.203980" lon="-51.523830"><name>Radar de trecho 50 km/h</name><desc>Fonte: DNIT+OSM · sentido 113° (sudeste)</desc><type>SECTION</type></wpt>
<wpt lat="-28.124800" lon="-54.728690"><name>Radar 50 km/h</name><desc>Fonte: DNIT+OSM · sentido 101° (leste)</desc><type>FIXED</type></wpt>
<wpt lat="-28.124790" lon="-54.729084"><name>Radar 50 km/h</name><desc>Fonte: OSM</desc><type>FIXED</type></wpt>
<wpt lat="-28.066984" lon="-52.868686"><name>Radar 80 km/h</name><desc>Fonte: OSM</desc><type>FIXED</type></wpt>
<wpt lat="-27.950693" lon="-51.803680"><name>Radar</name><desc>Fonte: OSM</desc><type>FIXED</type></wpt>
<wpt lat="-27.950641" lon="-51.803820"><name>Radar de trecho 50 km/h</name><desc>Fonte: OSM</desc><type>SECTION</type></wpt>
<wpt lat="-27.920689" lon="-52.221016"><name>Radar</name><desc>Fonte: OSM</desc><type>FIXED</type></wpt>
<wpt lat="-27.884976" lon="-54.491406"><name>Radar 40 km/h</name><desc>Fonte: OSM</desc><type>FIXED</type></wpt>
<wpt lat="-27.866780" lon="-53.333760"><name>Radar</name><desc>Fonte: DNIT · sentido 81° (leste)</desc><type>FIXED</type></wpt>
<wpt lat="-27.866494" lon="-53.331427"><name>Radar</name><desc>Fonte: DNIT · sentido 266° (oeste)</desc><type>FIXED</type></wpt>
<wpt lat="-27.856330" lon="-54.511670"><name>Radar</name><desc>Fonte: DNIT</desc><type>FIXED</type></wpt>
<wpt lat="-27.853170" lon="-54.536444"><name>Radar</name><desc>Fonte: OSM</desc><type>FIXED</type></wpt>
<wpt lat="-27.853116" lon="-54.536304"><name>Radar de trecho 50 km/h</name><desc>Fonte: OSM</desc><type>SECTION</type></wpt>
<wpt lat="-27.838369" lon="-54.630005"><name>Radar de trecho 50 km/h</name><desc>Fonte: OSM</desc><type>SECTION</type></wpt>
<wpt lat="-27.838346" lon="-54.629794"><name>Radar</name><desc>Fonte: OSM</desc><type>FIXED</type></wpt>
<wpt lat="-27.815465" lon="-53.039484"><name>Radar</name><desc>Fonte: DNIT · sentido 326° (noroeste)</desc><type>FIXED</type></wpt>
<wpt lat="-27.814480" lon="-53.041760"><name>Radar</name><desc>Fonte: DNIT · sentido 106° (leste)</desc><type>FIXED</type></wpt>
<wpt lat="-27.683150" lon="-53.307883"><name>Radar</name><desc>Fonte: DNIT · sentido 358° (norte)</desc><type>FIXED</type></wpt>
<wpt lat="-27.681083" lon="-53.308083"><name>Radar</name><desc>Fonte: DNIT · sentido 179° (sul)</desc><type>FIXED</type></wpt>
<wpt lat="-27.677555" lon="-52.290388"><name>Radar 40 km/h</name><desc>Fonte: OSM</desc><type>FIXED</type></wpt>
<wpt lat="-27.659617" lon="-53.316717"><name>Radar</name><desc>Fonte: DNIT</desc><type>FIXED</type></wpt>
<wpt lat="-27.623295" lon="-52.236717"><name>Radar</name><desc>Fonte: DNIT · sentido 334° (noroeste)</desc><type>FIXED</type></wpt>
<wpt lat="-27.496583" lon="-53.390133"><name>Radar</name><desc>Fonte: DNIT · sentido 338° (norte)</desc><type>FIXED</type></wpt>
<wpt lat="-27.493583" lon="-53.390250"><name>Radar</name><desc>Fonte: DNIT · sentido 204° (sudoeste)</desc><type>FIXED</type></wpt>
<wpt lat="-27.472817" lon="-53.401600"><name>Radar</name><desc>Fonte: DNIT · sentido 325° (noroeste)</desc><type>FIXED</type></wpt>
<wpt lat="-27.472600" lon="-53.401917"><name>Radar</name><desc>Fonte: DNIT · sentido 151° (sudeste)</desc><type>FIXED</type></wpt>
<wpt lat="-27.459717" lon="-53.941383"><name>Radar</name><desc>Fonte: DNIT · sentido 314° (noroeste)</desc><type>FIXED</type></wpt>
<wpt lat="-27.447580" lon="-53.948800"><name>Radar</name><desc>Fonte: DNIT · sentido 347° (norte)</desc><type>FIXED</type></wpt>
<wpt lat="-27.444010" lon="-53.949850"><name>Radar</name><desc>Fonte: DNIT · sentido 168° (sul)</desc><type>FIXED</type></wpt>
<wpt lat="-27.409548" lon="-53.415412"><name>Radar de trecho 50 km/h</name><desc>Fonte: OSM</desc><type>SECTION</type></wpt>
<wpt lat="-27.408533" lon="-53.415033"><name>Radar 50 km/h</name><desc>Fonte: DNIT+OSM · sentido 16° (norte)</desc><type>FIXED</type></wpt>
<wpt lat="-27.405867" lon="-53.413833"><name>Radar 50 km/h</name><desc>Fonte: DNIT+OSM · sentido 212° (sudoeste)</desc><type>FIXED</type></wpt>
<wpt lat="-27.405312" lon="-53.413375"><name>Radar de trecho 50 km/h</name><desc>Fonte: OSM</desc><type>SECTION</type></wpt>
<wpt lat="-27.378533" lon="-53.398769"><name>Radar de trecho 50 km/h</name><desc>Fonte: OSM</desc><type>SECTION</type></wpt>
<wpt lat="-27.377905" lon="-53.398587"><name>Radar</name><desc>Fonte: DNIT · sentido 13° (norte)</desc><type>FIXED</type></wpt>
<wpt lat="-27.377592" lon="-53.398507"><name>Radar 50 km/h</name><desc>Fonte: OSM</desc><type>FIXED</type></wpt>
<wpt lat="-27.375515" lon="-53.397878"><name>Radar 50 km/h</name><desc>Fonte: DNIT+OSM · sentido 192° (sul)</desc><type>FIXED</type></wpt>
<wpt lat="-27.374775" lon="-53.397722"><name>Radar de trecho 50 km/h</name><desc>Fonte: OSM</desc><type>SECTION</type></wpt>
<wpt lat="-27.366840" lon="-53.396630"><name>Radar 50 km/h</name><desc>Fonte: DNIT+OSM · sentido 39° (nordeste)</desc><type>FIXED</type></wpt>
<wpt lat="-27.366211" lon="-53.396173"><name>Radar de trecho 50 km/h</name><desc>Fonte: OSM</desc><type>SECTION</type></wpt>
<wpt lat="-27.365550" lon="-53.395517"><name>Radar</name><desc>Fonte: DNIT · sentido 226° (sudoeste)</desc><type>FIXED</type></wpt>
<wpt lat="-27.355442" lon="-53.387099"><name>Radar de trecho 50 km/h</name><desc>Fonte: OSM</desc><type>SECTION</type></wpt>
<wpt lat="-27.355050" lon="-53.386880"><name>Radar</name><desc>Fonte: DNIT · sentido 19° (norte)</desc><type>FIXED</type></wpt>
<wpt lat="-27.354635" lon="-53.386816"><name>Radar 50 km/h</name><desc>Fonte: OSM</desc><type>FIXED</type></wpt>
<wpt lat="-27.353383" lon="-53.386483"><name>Radar 50 km/h</name><desc>Fonte: DNIT+OSM · sentido 187° (sul)</desc><type>FIXED</type></wpt>
<wpt lat="-27.352190" lon="-53.386380"><name>Radar de trecho 50 km/h</name><desc>Fonte: OSM</desc><type>SECTION</type></wpt>
<wpt lat="-27.191285" lon="-53.267807"><name>Radar de trecho</name><desc>Fonte: OSM</desc><type>SECTION</type></wpt>
<wpt lat="-27.190883" lon="-53.266433"><name>Radar 50 km/h</name><desc>Fonte: DNIT+OSM · sentido 64° (nordeste)</desc><type>FIXED</type></wpt>
<wpt lat="-27.188317" lon="-53.262650"><name>Radar</name><desc>Fonte: DNIT · sentido 239° (sudoeste)</desc><type>FIXED</type></wpt>
<wpt lat="-27.187991" lon="-53.261820"><name>Radar 50 km/h</name><desc>Fonte: OSM</desc><type>FIXED</type></wpt>
<wpt lat="-27.187704" lon="-53.261064"><name>Radar de trecho</name><desc>Fonte: OSM</desc><type>SECTION</type></wpt>
</gpx>