<?xml version="1.0" encoding="UTF-8"?>
<gpx version="1.1" creator="Pardal" xmlns="http://www.topografix.com/GPX/1/1">
<metadata><name>Pardal — radares — RO</name><desc>Pardal — © colaboradores do OpenStreetMap (ODbL 1.0) e fontes abertas listadas no README</desc></metadata>
<wpt lat="-12.731270" lon="-60.168590"><name>Radar 40 km/h</name><desc>Fonte: DNIT · sentido 285° (oeste)</desc><type>FIXED</type></wpt>
<wpt lat="-12.726045" lon="-60.189619"><name>Radar 50 km/h</name><desc>Fonte: OSM</desc><type>FIXED</type></wpt>
<wpt lat="-12.725943" lon="-60.191282"><name>Radar</name><desc>Fonte: DNIT</desc><type>FIXED</type></wpt>
<wpt lat="-12.704480" lon="-60.120126"><name>Radar 40 km/h</name><desc>Fonte: DNIT</desc><type>FIXED</type></wpt>
<wpt lat="-11.440743" lon="-61.489242"><name>Radar 40 km/h</name><desc>Fonte: OSM</desc><type>FIXED</type></wpt>
<wpt lat="-10.897911" lon="-61.930397"><name>Radar 60 km/h</name><desc>Fonte: DNIT · sentido 358° (norte)</desc><type>FIXED</type></wpt>
<wpt lat="-10.897074" lon="-61.930640"><name>Radar 60 km/h</name><desc>Fonte: DNIT · sentido 179° (sul)</desc><type>FIXED</type></wpt>
<wpt lat="-10.885829" lon="-61.934385"><name>Radar 60 km/h</name><desc>Fonte: OSM</desc><type>FIXED</type></wpt>
<wpt lat="-10.885450" lon="-61.934805"><name>Radar 60 km/h</name><desc>Fonte: DNIT · sentido 305° (noroeste)</desc><type>FIXED</type></wpt>
<wpt lat="-10.885028" lon="-61.935758"><name>Radar 60 km/h</name><desc>Fonte: DNIT+OSM · sentido 122° (sudeste)</desc><type>FIXED</type></wpt>
<wpt lat="-10.876666" lon="-61.948304"><name>Radar 40 km/h</name><desc>Fonte: OSM</desc><type>FIXED</type></wpt>
<wpt lat="-10.876330" lon="-61.949228"><name>Radar 40 km/h</name><desc>Fonte: DNIT+OSM · sentido 124° (sudeste)</desc><type>FIXED</type></wpt>
<wpt lat="-10.876266" lon="-61.948780"><name>Radar 40 km/h</name><desc>Fonte: DNIT · sentido 304° (noroeste)</desc><type>FIXED</type></wpt>
<wpt lat="-10.794536" lon="-62.035149"><name>Radar 80 km/h</name><desc>Fonte: OSM</desc><type>FIXED</type></wpt>
<wpt lat="-10.714079" lon="-62.251677"><name>Radar 50 km/h</name><desc>Fonte: OSM</desc><type>FIXED</type></wpt>
<wpt lat="-10.713816" lon="-62.251887"><name>Radar 50 km/h</name><desc>Fonte: OSM</desc><type>FIXED</type></wpt>
<wpt lat="-10.531356" lon="-62.397731"><name>Radar 50 km/h</name><desc>Fonte: OSM</desc><type>FIXED</type></wpt>
<wpt lat="-9.944950" lon="-63.053463"><name>Radar 80 km/h</name><desc>Fonte: OSM</desc><type>FIXED</type></wpt>
<wpt lat="-9.935653" lon="-63.055416"><name>Radar 80 km/h</name><desc>Fonte: OSM</desc><type>FIXED</type></wpt>
<wpt lat="-8.793896" lon="-63.894906"><name>Radar 50 km/h</name><desc>Fonte: INMETRO</desc><type>FIXED</type></wpt>
<wpt lat="-8.784236" lon="-63.860538"><name>Radar 60 km/h</name><desc>Fonte: OSM</desc><type>FIXED</type></wpt>
<wpt lat="-8.777642" lon="-63.889707"><name>Radar 60 km/h</name><desc>Fonte: DNIT</desc><type>FIXED</type></wpt>
<wpt lat="-8.774633" lon="-63.877434"><name>Radar 50 km/h</name><desc>Fonte: OSM</desc><type>FIXED</type></wpt>
<wpt lat="-8.774409" lon="-63.878064"><name>Radar 50 km/h</name><desc>Fonte: OSM</desc><type>FIXED</type></wpt>
<wpt lat="-8.766226" lon="-63.880375"><name>Radar 60 km/h</name><desc>Fonte: INMETRO</desc><type>FIXED</type></wpt>
<wpt lat="-8.762968" lon="-63.843661"><name>Radar 60 km/h</name><desc>Fonte: INMETRO</desc><type>FIXED</type></wpt>
<wpt lat="-8.761898" lon="-63.888997"><name>Radar 50 km/h</name><desc>Fonte: INMETRO</desc><type>FIXED</type></wpt>
<wpt lat="-8.760079" lon="-63.907018"><name>Radar 60 km/h</name><desc>Fonte: INMETRO</desc><type>FIXED</type></wpt>
<wpt lat="-8.759956" lon="-63.861361"><name>Radar 60 km/h</name><desc>Fonte: INMETRO</desc><type>FIXED</type></wpt>
<wpt lat="-8.759275" lon="-63.900076"><name>Radar 50 km/h</name><desc>Fonte: INMETRO</desc><type>FIXED</type></wpt>
<wpt lat="-8.756055" lon="-63.845231"><name>Radar 50 km/h</name><desc>Fonte: INMETRO</desc><type>FIXED</type></wpt>
<wpt lat="-8.755938" lon="-63.875675"><name>Radar 60 km/h</name><desc>Fonte: INMETRO</desc><type>FIXED</type></wpt>
<wpt lat="-8.752538" lon="-63.898206"><name>Radar 50 km/h</name><desc>Fonte: INMETRO</desc><type>FIXED</type></wpt>
<wpt lat="-8.746938" lon="-63.877746"><name>Radar 60 km/h</name><desc>Fonte: INMETRO</desc><type>FIXED</type></wpt>
<wpt lat="-8.737241" lon="-63.878242"><name>Radar 60 km/h</name><desc>Fonte: INMETRO</desc><type>FIXED</type></wpt>
</gpx>