{"type":"FeatureCollection","attribution":"Pardal — © colaboradores do OpenStreetMap (ODbL 1.0) e fontes abertas listadas no README","features":[{"type":"Feature","geometry":{"type":"Point","coordinates":[-60.16859,-12.73127]},"properties":{"kind":"FIXED","limit_kmh":null,"source":"DNIT","active":true,"direction_deg":285}},{"type":"Feature","geometry":{"type":"Point","coordinates":[-60.189619,-12.726045]},"properties":{"kind":"FIXED","limit_kmh":50,"source":"OSM","active":true,"direction_deg":null}},{"type":"Feature","geometry":{"type":"Point","coordinates":[-60.191282,-12.725943]},"properties":{"kind":"FIXED","limit_kmh":null,"source":"DNIT","active":true,"direction_deg":null}},{"type":"Feature","geometry":{"type":"Point","coordinates":[-60.120126,-12.70448]},"properties":{"kind":"FIXED","limit_kmh":null,"source":"DNIT","active":true,"direction_deg":null}},{"type":"Feature","geometry":{"type":"Point","coordinates":[-61.489242,-11.440743]},"properties":{"kind":"FIXED","limit_kmh":40,"source":"OSM","active":true,"direction_deg":null}},{"type":"Feature","geometry":{"type":"Point","coordinates":[-61.930397,-10.897911]},"properties":{"kind":"FIXED","limit_kmh":null,"source":"DNIT","active":true,"direction_deg":358}},{"type":"Feature","geometry":{"type":"Point","coordinates":[-61.93064,-10.897074]},"properties":{"kind":"FIXED","limit_kmh":null,"source":"DNIT","active":true,"direction_deg":179}},{"type":"Feature","geometry":{"type":"Point","coordinates":[-61.934385,-10.885829]},"properties":{"kind":"FIXED","limit_kmh":60,"source":"OSM","active":true,"direction_deg":null}},{"type":"Feature","geometry":{"type":"Point","coordinates":[-61.934805,-10.88545]},"properties":{"kind":"FIXED","limit_kmh":null,"source":"DNIT","active":true,"direction_deg":305}},{"type":"Feature","geometry":{"type":"Point","coordinates":[-61.935758,-10.885028]},"properties":{"kind":"FIXED","limit_kmh":60,"source":"DNIT+OSM","active":true,"direction_deg":122}},{"type":"Feature","geometry":{"type":"Point","coordinates":[-61.948304,-10.876666]},"properties":{"kind":"FIXED","limit_kmh":40,"source":"OSM","active":true,"direction_deg":null}},{"type":"Feature","geometry":{"type":"Point","coordinates":[-61.949228,-10.87633]},"properties":{"kind":"FIXED","limit_kmh":40,"source":"DNIT+OSM","active":true,"direction_deg":124}},{"type":"Feature","geometry":{"type":"Point","coordinates":[-61.94878,-10.876266]},"properties":{"kind":"FIXED","limit_kmh":null,"source":"DNIT","active":true,"direction_deg":304}},{"type":"Feature","geometry":{"type":"Point","coordinates":[-62.035149,-10.794536]},"properties":{"kind":"FIXED","limit_kmh":80,"source":"OSM","active":true,"direction_deg":null}},{"type":"Feature","geometry":{"type":"Point","coordinates":[-62.251677,-10.714079]},"properties":{"kind":"FIXED","limit_kmh":50,"source":"OSM","active":true,"direction_deg":null}},{"type":"Feature","geometry":{"type":"Point","coordinates":[-62.251887,-10.713816]},"properties":{"kind":"FIXED","limit_kmh":50,"source":"OSM","active":true,"direction_deg":null}},{"type":"Feature","geometry":{"type":"Point","coordinates":[-62.397731,-10.531356]},"properties":{"kind":"FIXED","limit_kmh":50,"source":"OSM","active":true,"direction_deg":null}},{"type":"Feature","geometry":{"type":"Point","coordinates":[-63.053463,-9.94495]},"properties":{"kind":"FIXED","limit_kmh":80,"source":"OSM","active":true,"direction_deg":null}},{"type":"Feature","geometry":{"type":"Point","coordinates":[-63.055416,-9.935653]},"properties":{"kind":"FIXED","limit_kmh":80,"source":"OSM","active":true,"direction_deg":null}},{"type":"Feature","geometry":{"type":"Point","coordinates":[-63.894906,-8.793896]},"properties":{"kind":"FIXED","limit_kmh":50,"source":"INMETRO","active":true,"direction_deg":null}},{"type":"Feature","geometry":{"type":"Point","coordinates":[-63.860538,-8.784236]},"properties":{"kind":"FIXED","limit_kmh":60,"source":"OSM","active":true,"direction_deg":null}},{"type":"Feature","geometry":{"type":"Point","coordinates":[-63.889707,-8.777642]},"properties":{"kind":"FIXED","limit_kmh":null,"source":"DNIT","active":true,"direction_deg":null}},{"type":"Feature","geometry":{"type":"Point","coordinates":[-63.877434,-8.774633]},"properties":{"kind":"FIXED","limit_kmh":50,"source":"OSM","active":true,"direction_deg":null}},{"type":"Feature","geometry":{"type":"Point","coordinates":[-63.878064,-8.774409]},"properties":{"kind":"FIXED","limit_kmh":50,"source":"OSM","active":true,"direction_deg":null}},{"type":"Feature","geometry":{"type":"Point","coordinates":[-63.880375,-8.766226]},"properties":{"kind":"FIXED","limit_kmh":60,"source":"INMETRO","active":true,"direction_deg":null}},{"type":"Feature","geometry":{"type":"Point","coordinates":[-63.843661,-8.762968]},"properties":{"kind":"FIXED","limit_kmh":60,"source":"INMETRO","active":true,"direction_deg":null}},{"type":"Feature","geometry":{"type":"Point","coordinates":[-63.888997,-8.761898]},"properties":{"kind":"FIXED","limit_kmh":50,"source":"INMETRO","active":true,"direction_deg":null}},{"type":"Feature","geometry":{"type":"Point","coordinates":[-63.907018,-8.760079]},"properties":{"kind":"FIXED","limit_kmh":60,"source":"INMETRO","active":true,"direction_deg":null}},{"type":"Feature","geometry":{"type":"Point","coordinates":[-63.861361,-8.759956]},"properties":{"kind":"FIXED","limit_kmh":60,"source":"INMETRO","active":true,"direction_deg":null}},{"type":"Feature","geometry":{"type":"Point","coordinates":[-63.900076,-8.759275]},"properties":{"kind":"FIXED","limit_kmh":50,"source":"INMETRO","active":true,"direction_deg":null}},{"type":"Feature","geometry":{"type":"Point","coordinates":[-63.845231,-8.756055]},"properties":{"kind":"FIXED","limit_kmh":50,"source":"INMETRO","active":true,"direction_deg":null}},{"type":"Feature","geometry":{"type":"Point","coordinates":[-63.875675,-8.755938]},"properties":{"kind":"FIXED","limit_kmh":60,"source":"INMETRO","active":true,"direction_deg":null}},{"type":"Feature","geometry":{"type":"Point","coordinates":[-63.898206,-8.752538]},"properties":{"kind":"FIXED","limit_kmh":50,"source":"INMETRO","active":true,"direction_deg":null}},{"type":"Feature","geometry":{"type":"Point","coordinates":[-63.877746,-8.746938]},"properties":{"kind":"FIXED","limit_kmh":60,"source":"INMETRO","active":true,"direction_deg":null}},{"type":"Feature","geometry":{"type":"Point","coordinates":[-63.878242,-8.737241]},"properties":{"kind":"FIXED","limit_kmh":60,"source":"INMETRO","active":true,"direction_deg":null}}]}