<?xml version="1.0" encoding="UTF-8"?>
<kml xmlns="http://www.opengis.net/kml/2.2"><Document>
<name>Pardal — radares — BA</name>
<description>Pardal — © colaboradores do OpenStreetMap (ODbL 1.0) e fontes abertas listadas no README</description>
<Folder><name>Radares de velocidade</name>
<Placemark><name>Radar 60 km/h</name><description>Fonte: ANTT · sentido 142° (sudeste)</description><Point><coordinates>-39.884400,-18.104600,0</coordinates></Point></Placemark>
<Placemark><name>Radar 50 km/h</name><description>Fonte: OSM</description><Point><coordinates>-39.742583,-18.054571,0</coordinates></Point></Placemark>
<Placemark><name>Radar 40 km/h</name><description>Fonte: OSM</description><Point><coordinates>-39.861413,-18.008901,0</coordinates></Point></Placemark>
<Placemark><name>Radar 40 km/h</name><description>Fonte: OSM</description><Point><coordinates>-39.861337,-18.007917,0</coordinates></Point></Placemark>
<Placemark><name>Radar 50 km/h</name><description>Fonte: OSM</description><Point><coordinates>-39.860906,-18.002179,0</coordinates></Point></Placemark>
<Placemark><name>Radar</name><description>Fonte: DNIT</description><Point><coordinates>-39.860975,-18.001724,0</coordinates></Point></Placemark>
<Placemark><name>Radar 40 km/h</name><description>Fonte: DNIT+OSM</description><Point><coordinates>-39.734722,-17.574230,0</coordinates></Point></Placemark>
<Placemark><name>Radar 50 km/h</name><description>Fonte: DNIT+OSM</description><Point><coordinates>-39.723761,-17.554621,0</coordinates></Point></Placemark>
<Placemark><name>Radar 40 km/h</name><description>Fonte: DNIT+OSM</description><Point><coordinates>-39.721893,-17.551446,0</coordinates></Point></Placemark>
<Placemark><name>Radar 40 km/h</name><description>Fonte: DNIT+OSM</description><Point><coordinates>-39.717481,-17.543644,0</coordinates></Point></Placemark>
<Placemark><name>Radar 40 km/h</name><description>Fonte: INMETRO</description><Point><coordinates>-39.741931,-17.539843,0</coordinates></Point></Placemark>
<Placemark><name>Radar 40 km/h</name><description>Fonte: DNIT+OSM</description><Point><coordinates>-39.715392,-17.539675,0</coordinates></Point></Placemark>
<Placemark><name>Radar 40 km/h</name><description>Fonte: OSM</description><Point><coordinates>-39.715062,-17.539240,0</coordinates></Point></Placemark>
<Placemark><name>Radar 40 km/h</name><description>Fonte: INMETRO</description><Point><coordinates>-39.731866,-17.537468,0</coordinates></Point></Placemark>
<Placemark><name>Radar 40 km/h</name><description>Fonte: INMETRO</description><Point><coordinates>-39.759661,-17.529762,0</coordinates></Point></Placemark>
<Placemark><name>Radar 50 km/h</name><description>Fonte: OSM</description><Point><coordinates>-39.254745,-17.528166,0</coordinates></Point></Placemark>
<Placemark><name>Radar 50 km/h</name><description>Fonte: OSM</description><Point><coordinates>-39.287799,-17.528107,0</coordinates></Point></Placemark>
<Placemark><name>Radar</name><description>Fonte: DNIT</description><Point><coordinates>-39.708507,-17.525645,0</coordinates></Point></Placemark>
<Placemark><name>Radar</name><description>Fonte: DNIT</description><Point><coordinates>-39.552916,-17.060537,0</coordinates></Point></Placemark>
<Placemark><name>Radar 40 km/h</name><description>Fonte: DNIT+OSM</description><Point><coordinates>-39.549359,-17.049862,0</coordinates></Point></Placemark>
<Placemark><name>Radar</name><description>Fonte: DNIT</description><Point><coordinates>-39.544829,-17.037576,0</coordinates></Point></Placemark>
<Placemark><name>Radar 40 km/h</name><description>Fonte: OSM</description><Point><coordinates>-39.542017,-17.017439,0</coordinates></Point></Placemark>
<Placemark><name>Radar 40 km/h</name><description>Fonte: DNIT+OSM</description><Point><coordinates>-39.542026,-17.017045,0</coordinates></Point></Placemark>
<Placemark><name>Radar 40 km/h</name><description>Fonte: OSM</description><Point><coordinates>-39.556757,-16.580648,0</coordinates></Point></Placemark>
<Placemark><name>Radar 40 km/h</name><description>Fonte: OSM</description><Point><coordinates>-39.556919,-16.580080,0</coordinates></Point></Placemark>
<Placemark><name>Radar 40 km/h</name><description>Fonte: OSM</description><Point><coordinates>-39.558922,-16.572588,0</coordinates></Point></Placemark>
<Placemark><name>Radar 40 km/h</name><description>Fonte: DNIT+OSM</description><Point><coordinates>-39.559019,-16.571795,0</coordinates></Point></Placemark>
<Placemark><name>Radar</name><description>Fonte: DNIT · sentido 165° (sul)</description><Point><coordinates>-39.062731,-16.440653,0</coordinates></Point></Placemark>
<Placemark><name>Radar 40 km/h</name><description>Fonte: DNIT+OSM</description><Point><coordinates>-39.095000,-16.434331,0</coordinates></Point></Placemark>
<Placemark><name>Radar 40 km/h</name><description>Fonte: DNIT+OSM</description><Point><coordinates>-39.095757,-16.430446,0</coordinates></Point></Placemark>
<Placemark><name>Radar 50 km/h</name><description>Fonte: DNIT+OSM</description><Point><coordinates>-39.045170,-16.404184,0</coordinates></Point></Placemark>
<Placemark><name>Radar 50 km/h</name><description>Fonte: DNIT+OSM</description><Point><coordinates>-39.039935,-16.393883,0</coordinates></Point></Placemark>
<Placemark><name>Radar</name><description>Fonte: DNIT</description><Point><coordinates>-39.397195,-16.391838,0</coordinates></Point></Placemark>
<Placemark><name>Radar</name><description>Fonte: DNIT</description><Point><coordinates>-39.388156,-16.390380,0</coordinates></Point></Placemark>
<Placemark><name>Radar 40 km/h</name><description>Fonte: OSM</description><Point><coordinates>-39.586678,-16.386883,0</coordinates></Point></Placemark>
<Placemark><name>Radar</name><description>Fonte: DNIT</description><Point><coordinates>-39.586442,-16.386562,0</coordinates></Point></Placemark>
<Placemark><name>Radar 40 km/h</name><description>Fonte: OSM</description><Point><coordinates>-39.586340,-16.386263,0</coordinates></Point></Placemark>
<Placemark><name>Radar 40 km/h</name><description>Fonte: DNIT+OSM</description><Point><coordinates>-39.581080,-16.374991,0</coordinates></Point></Placemark>
<Placemark><name>Radar 40 km/h</name><description>Fonte: DNIT+OSM</description><Point><coordinates>-39.578238,-16.374292,0</coordinates></Point></Placemark>
<Placemark><name>Radar</name><description>Fonte: DNIT</description><Point><coordinates>-39.580754,-16.373363,0</coordinates></Point></Placemark>
<Placemark><name>Radar 40 km/h</name><description>Fonte: DNIT+OSM</description><Point><coordinates>-39.571036,-16.372699,0</coordinates></Point></Placemark>
<Placemark><name>Radar 40 km/h</name><description>Fonte: OSM</description><Point><coordinates>-39.570411,-16.372498,0</coordinates></Point></Placemark>
<Placemark><name>Radar 40 km/h</name><description>Fonte: DNIT+OSM</description><Point><coordinates>-39.581481,-16.372032,0</coordinates></Point></Placemark>
<Placemark><name>Radar 40 km/h</name><description>Fonte: OSM</description><Point><coordinates>-39.559414,-16.372010,0</coordinates></Point></Placemark>
<Placemark><name>Radar 50 km/h</name><description>Fonte: DNIT+OSM</description><Point><coordinates>-39.559971,-16.372001,0</coordinates></Point></Placemark>
<Placemark><name>Radar</name><description>Fonte: DNIT</description><Point><coordinates>-39.583179,-16.369281,0</coordinates></Point></Placemark>
<Placemark><name>Radar 40 km/h</name><description>Fonte: DNIT+OSM</description><Point><coordinates>-39.582249,-16.366632,0</coordinates></Point></Placemark>
<Placemark><name>Radar 40 km/h</name><description>Fonte: OSM</description><Point><coordinates>-39.582057,-16.366141,0</coordinates></Point></Placemark>
<Placemark><name>Radar 40 km/h</name><description>Fonte: DNIT+OSM</description><Point><coordinates>-39.579501,-16.357899,0</coordinates></Point></Placemark>
<Placemark><name>Radar 40 km/h</name><description>Fonte: OSM</description><Point><coordinates>-39.579410,-16.357581,0</coordinates></Point></Placemark>
<Placemark><name>Radar 40 km/h</name><description>Fonte: OSM</description><Point><coordinates>-39.580015,-16.350018,0</coordinates></Point></Placemark>
<Placemark><name>Radar 40 km/h</name><description>Fonte: DNIT+OSM</description><Point><coordinates>-39.580057,-16.349726,0</coordinates></Point></Placemark>
<Placemark><name>Radar</name><description>Fonte: DNIT</description><Point><coordinates>-39.581247,-16.337474,0</coordinates></Point></Placemark>
<Placemark><name>Radar 50 km/h</name><description>Fonte: OSM</description><Point><coordinates>-39.008760,-16.337416,0</coordinates></Point></Placemark>
<Placemark><name>Radar</name><description>Fonte: DNIT</description><Point><coordinates>-39.023245,-16.321283,0</coordinates></Point></Placemark>
<Placemark><name>Radar</name><description>Fonte: DNIT</description><Point><coordinates>-39.597743,-16.312109,0</coordinates></Point></Placemark>
<Placemark><name>Radar</name><description>Fonte: DNIT</description><Point><coordinates>-39.585258,-16.263694,0</coordinates></Point></Placemark>
<Placemark><name>Radar</name><description>Fonte: DNIT</description><Point><coordinates>-39.559064,-15.949784,0</coordinates></Point></Placemark>
<Placemark><name>Radar</name><description>Fonte: OSM</description><Point><coordinates>-41.333340,-15.699577,0</coordinates></Point></Placemark>
<Placemark><name>Radar 40 km/h</name><description>Fonte: DNIT+OSM</description><Point><coordinates>-39.432544,-15.613328,0</coordinates></Point></Placemark>
<Placemark><name>Radar 40 km/h</name><description>Fonte: DNIT+OSM</description><Point><coordinates>-41.238157,-15.515401,0</coordinates></Point></Placemark>
<Placemark><name>Radar 40 km/h</name><description>Fonte: DNIT+OSM</description><Point><coordinates>-41.236667,-15.512107,0</coordinates></Point></Placemark>
<Placemark><name>Radar 60 km/h</name><description>Fonte: DNIT+OSM</description><Point><coordinates>-39.493797,-15.369904,0</coordinates></Point></Placemark>
<Placemark><name>Radar</name><description>Fonte: DNIT</description><Point><coordinates>-39.453208,-15.255640,0</coordinates></Point></Placemark>
<Placemark><name>Radar</name><description>Fonte: DNIT</description><Point><coordinates>-41.102582,-15.235177,0</coordinates></Point></Placemark>
<Placemark><name>Radar</name><description>Fonte: DNIT+OSM</description><Point><coordinates>-41.099469,-15.229869,0</coordinates></Point></Placemark>
<Placemark><name>Radar</name><description>Fonte: DNIT</description><Point><coordinates>-39.338875,-15.079724,0</coordinates></Point></Placemark>
<Placemark><name>Radar</name><description>Fonte: DNIT</description><Point><coordinates>-39.331370,-15.035276,0</coordinates></Point></Placemark>
<Placemark><name>Radar 40 km/h</name><description>Fonte: DNIT+OSM</description><Point><coordinates>-39.306570,-14.954440,0</coordinates></Point></Placemark>
<Placemark><name>Radar</name><description>Fonte: OSM</description><Point><coordinates>-40.886760,-14.929939,0</coordinates></Point></Placemark>
<Placemark><name>Radar</name><description>Fonte: OSM</description><Point><coordinates>-40.885797,-14.928406,0</coordinates></Point></Placemark>
<Placemark><name>Radar</name><description>Fonte: OSM</description><Point><coordinates>-40.883887,-14.925300,0</coordinates></Point></Placemark>
<Placemark><name>Radar</name><description>Fonte: OSM</description><Point><coordinates>-40.883543,-14.924756,0</coordinates></Point></Placemark>
<Placemark><name>Radar</name><description>Fonte: OSM</description><Point><coordinates>-39.023032,-14.910283,0</coordinates></Point></Placemark>
<Placemark><name>Radar 40 km/h</name><description>Fonte: DNIT+OSM</description><Point><coordinates>-40.865295,-14.895315,0</coordinates></Point></Placemark>
<Placemark><name>Radar</name><description>Fonte: OSM</description><Point><coordinates>-40.858999,-14.885358,0</coordinates></Point></Placemark>
<Placemark><name>Radar 40 km/h</name><description>Fonte: INMETRO</description><Point><coordinates>-40.832126,-14.879828,0</coordinates></Point></Placemark>
<Placemark><name>Radar 40 km/h</name><description>Fonte: OSM</description><Point><coordinates>-40.856457,-14.875436,0</coordinates></Point></Placemark>
<Placemark><name>Radar 40 km/h</name><description>Fonte: INMETRO</description><Point><coordinates>-40.836346,-14.854792,0</coordinates></Point></Placemark>
<Placemark><name>Radar 50 km/h</name><description>Fonte: INMETRO</description><Point><coordinates>-40.869727,-14.847577,0</coordinates></Point></Placemark>
<Placemark><name>Radar</name><description>Fonte: DNIT</description><Point><coordinates>-39.325097,-14.836734,0</coordinates></Point></Placemark>
<Placemark><name>Radar</name><description>Fonte: DNIT+OSM</description><Point><coordinates>-40.828148,-14.828649,0</coordinates></Point></Placemark>
<Placemark><name>Radar</name><description>Fonte: OSM</description><Point><coordinates>-40.827928,-14.828426,0</coordinates></Point></Placemark>
<Placemark><name>Radar 60 km/h</name><description>Fonte: DNIT+OSM</description><Point><coordinates>-40.816336,-14.822324,0</coordinates></Point></Placemark>
<Placemark><name>Radar</name><description>Fonte: DNIT</description><Point><coordinates>-39.303164,-14.818574,0</coordinates></Point></Placemark>
<Placemark><name>Radar 40 km/h</name><description>Fonte: DNIT+OSM</description><Point><coordinates>-39.296566,-14.808177,0</coordinates></Point></Placemark>
<Placemark><name>Radar 40 km/h</name><description>Fonte: DNIT+OSM</description><Point><coordinates>-39.149184,-14.802731,0</coordinates></Point></Placemark>
<Placemark><name>Radar 50 km/h</name><description>Fonte: OSM</description><Point><coordinates>-39.290427,-14.801589,0</coordinates></Point></Placemark>
<Placemark><name>Radar 50 km/h</name><description>Fonte: INMETRO+OSM</description><Point><coordinates>-39.290500,-14.801560,0</coordinates></Point></Placemark>
<Placemark><name>Radar 60 km/h</name><description>Fonte: DNIT+OSM</description><Point><coordinates>-39.172156,-14.799013,0</coordinates></Point></Placemark>
<Placemark><name>Radar</name><description>Fonte: DNIT</description><Point><coordinates>-39.177491,-14.797927,0</coordinates></Point></Placemark>
<Placemark><name>Radar 50 km/h</name><description>Fonte: INMETRO+OSM</description><Point><coordinates>-39.286190,-14.795053,0</coordinates></Point></Placemark>
<Placemark><name>Radar</name><description>Fonte: OSM</description><Point><coordinates>-39.032989,-14.791717,0</coordinates></Point></Placemark>
<Placemark><name>Radar 40 km/h</name><description>Fonte: OSM</description><Point><coordinates>-39.032173,-14.787478,0</coordinates></Point></Placemark>
<Placemark><name>Radar</name><description>Fonte: DNIT</description><Point><coordinates>-39.290530,-14.786640,0</coordinates></Point></Placemark>
<Placemark><name>Radar</name><description>Fonte: DNIT</description><Point><coordinates>-39.222698,-14.785693,0</coordinates></Point></Placemark>
<Placemark><name>Radar 40 km/h</name><description>Fonte: INMETRO</description><Point><coordinates>-39.269764,-14.782760,0</coordinates></Point></Placemark>
<Placemark><name>Radar 40 km/h</name><description>Fonte: INMETRO</description><Point><coordinates>-39.269145,-14.781920,0</coordinates></Point></Placemark>
<Placemark><name>Radar 40 km/h</name><description>Fonte: INMETRO</description><Point><coordinates>-39.059068,-14.773379,0</coordinates></Point></Placemark>
<Placemark><name>Radar</name><description>Fonte: OSM</description><Point><coordinates>-40.688952,-14.755903,0</coordinates></Point></Placemark>
<Placemark><name>Radar</name><description>Fonte: OSM</description><Point><coordinates>-40.688725,-14.755785,0</coordinates></Point></Placemark>
<Placemark><name>Radar</name><description>Fonte: OSM</description><Point><coordinates>-40.529793,-14.682161,0</coordinates></Point></Placemark>
<Placemark><name>Radar</name><description>Fonte: OSM</description><Point><coordinates>-40.528253,-14.681823,0</coordinates></Point></Placemark>
<Placemark><name>Radar</name><description>Fonte: DNIT</description><Point><coordinates>-40.456999,-14.649143,0</coordinates></Point></Placemark>
<Placemark><name>Radar</name><description>Fonte: DNIT</description><Point><coordinates>-40.454536,-14.642749,0</coordinates></Point></Placemark>
<Placemark><name>Radar</name><description>Fonte: OSM</description><Point><coordinates>-40.340649,-14.361881,0</coordinates></Point></Placemark>
<Placemark><name>Radar</name><description>Fonte: OSM</description><Point><coordinates>-40.334780,-14.352180,0</coordinates></Point></Placemark>
<Placemark><name>Radar</name><description>Fonte: OSM</description><Point><coordinates>-40.333563,-14.349976,0</coordinates></Point></Placemark>
<Placemark><name>Radar</name><description>Fonte: DNIT · sentido 307° (noroeste)</description><Point><coordinates>-39.321650,-14.308910,0</coordinates></Point></Placemark>
<Placemark><name>Radar 40 km/h</name><description>Fonte: OSM</description><Point><coordinates>-39.321892,-14.308548,0</coordinates></Point></Placemark>
<Placemark><name>Radar 40 km/h</name><description>Fonte: DNIT+OSM · sentido 165° (sul)</description><Point><coordinates>-39.322590,-14.307720,0</coordinates></Point></Placemark>
<Placemark><name>Radar 50 km/h</name><description>Fonte: OSM</description><Point><coordinates>-41.629293,-14.230785,0</coordinates></Point></Placemark>
<Placemark><name>Radar 50 km/h</name><description>Fonte: OSM</description><Point><coordinates>-41.640340,-14.220229,0</coordinates></Point></Placemark>
<Placemark><name>Radar 40 km/h</name><description>Fonte: INMETRO</description><Point><coordinates>-41.676882,-14.213910,0</coordinates></Point></Placemark>
<Placemark><name>Radar 40 km/h</name><description>Fonte: INMETRO</description><Point><coordinates>-41.676028,-14.213123,0</coordinates></Point></Placemark>
<Placemark><name>Radar 60 km/h</name><description>Fonte: INMETRO</description><Point><coordinates>-41.674563,-14.212391,0</coordinates></Point></Placemark>
<Placemark><name>Radar 40 km/h</name><description>Fonte: OSM</description><Point><coordinates>-41.677563,-14.207173,0</coordinates></Point></Placemark>
<Placemark><name>Radar 40 km/h</name><description>Fonte: INMETRO</description><Point><coordinates>-41.663549,-14.196525,0</coordinates></Point></Placemark>
<Placemark><name>Radar 60 km/h</name><description>Fonte: OSM</description><Point><coordinates>-41.670143,-14.187038,0</coordinates></Point></Placemark>
<Placemark><name>Radar</name><description>Fonte: DNIT</description><Point><coordinates>-39.323478,-14.173041,0</coordinates></Point></Placemark>
<Placemark><name>Radar</name><description>Fonte: DNIT</description><Point><coordinates>-39.724902,-14.141636,0</coordinates></Point></Placemark>
<Placemark><name>Radar</name><description>Fonte: DNIT</description><Point><coordinates>-39.351085,-14.140470,0</coordinates></Point></Placemark>
<Placemark><name>Radar</name><description>Fonte: DNIT</description><Point><coordinates>-39.354832,-14.137961,0</coordinates></Point></Placemark>
<Placemark><name>Radar</name><description>Fonte: DNIT</description><Point><coordinates>-39.747708,-14.134616,0</coordinates></Point></Placemark>
<Placemark><name>Radar</name><description>Fonte: DNIT</description><Point><coordinates>-39.359030,-14.133478,0</coordinates></Point></Placemark>
<Placemark><name>Radar</name><description>Fonte: DNIT</description><Point><coordinates>-39.763079,-14.124797,0</coordinates></Point></Placemark>
<Placemark><name>Radar</name><description>Fonte: DNIT+OSM</description><Point><coordinates>-40.204841,-14.058696,0</coordinates></Point></Placemark>
<Placemark><name>Radar</name><description>Fonte: DNIT+OSM</description><Point><coordinates>-40.203987,-14.053164,0</coordinates></Point></Placemark>
<Placemark><name>Radar</name><description>Fonte: OSM</description><Point><coordinates>-40.203297,-14.036604,0</coordinates></Point></Placemark>
<Placemark><name>Radar</name><description>Fonte: OSM</description><Point><coordinates>-40.202831,-14.036013,0</coordinates></Point></Placemark>
<Placemark><name>Radar 50 km/h</name><description>Fonte: DNIT+OSM</description><Point><coordinates>-39.431316,-14.018145,0</coordinates></Point></Placemark>
<Placemark><name>Radar 50 km/h</name><description>Fonte: DNIT+OSM</description><Point><coordinates>-39.434032,-14.016860,0</coordinates></Point></Placemark>
<Placemark><name>Radar</name><description>Fonte: OSM</description><Point><coordinates>-40.176384,-13.986943,0</coordinates></Point></Placemark>
<Placemark><name>Radar</name><description>Fonte: DNIT · sentido 134° (sudeste)</description><Point><coordinates>-46.193194,-13.966253,0</coordinates></Point></Placemark>
<Placemark><name>Radar 60 km/h</name><description>Fonte: DNIT+OSM</description><Point><coordinates>-40.115370,-13.871752,0</coordinates></Point></Placemark>
<Placemark><name>Radar</name><description>Fonte: OSM</description><Point><coordinates>-40.116461,-13.871682,0</coordinates></Point></Placemark>
<Placemark><name>Radar 40 km/h</name><description>Fonte: INMETRO</description><Point><coordinates>-40.073464,-13.868996,0</coordinates></Point></Placemark>
<Placemark><name>Radar</name><description>Fonte: DNIT</description><Point><coordinates>-40.059999,-13.867972,0</coordinates></Point></Placemark>
<Placemark><name>Radar 60 km/h</name><description>Fonte: DNIT+OSM</description><Point><coordinates>-40.112862,-13.867060,0</coordinates></Point></Placemark>
<Placemark><name>Radar 40 km/h</name><description>Fonte: INMETRO</description><Point><coordinates>-40.067688,-13.865175,0</coordinates></Point></Placemark>
<Placemark><name>Radar 60 km/h</name><description>Fonte: DNIT+OSM</description><Point><coordinates>-39.487899,-13.756210,0</coordinates></Point></Placemark>
<Placemark><name>Radar 50 km/h</name><description>Fonte: DNIT+OSM</description><Point><coordinates>-39.484108,-13.746199,0</coordinates></Point></Placemark>
<Placemark><name>Radar 60 km/h</name><description>Fonte: OSM</description><Point><coordinates>-39.482436,-13.742569,0</coordinates></Point></Placemark>
<Placemark><name>Radar 60 km/h</name><description>Fonte: OSM</description><Point><coordinates>-39.482323,-13.742339,0</coordinates></Point></Placemark>
<Placemark><name>Radar</name><description>Fonte: DNIT</description><Point><coordinates>-39.494938,-13.604690,0</coordinates></Point></Placemark>
<Placemark><name>Radar 40 km/h</name><description>Fonte: OSM</description><Point><coordinates>-39.494841,-13.604432,0</coordinates></Point></Placemark>
<Placemark><name>Radar 40 km/h</name><description>Fonte: OSM</description><Point><coordinates>-39.492365,-13.602108,0</coordinates></Point></Placemark>
<Placemark><name>Radar</name><description>Fonte: OSM</description><Point><coordinates>-40.086236,-13.599129,0</coordinates></Point></Placemark>
<Placemark><name>Radar</name><description>Fonte: OSM</description><Point><coordinates>-40.060656,-13.522919,0</coordinates></Point></Placemark>
<Placemark><name>Radar</name><description>Fonte: DNIT</description><Point><coordinates>-39.969086,-13.522499,0</coordinates></Point></Placemark>
<Placemark><name>Radar 60 km/h</name><description>Fonte: OSM</description><Point><coordinates>-40.043327,-13.483164,0</coordinates></Point></Placemark>
<Placemark><name>Radar</name><description>Fonte: DNIT</description><Point><coordinates>-44.339843,-13.398937,0</coordinates></Point></Placemark>
<Placemark><name>Radar</name><description>Fonte: OSM</description><Point><coordinates>-40.014267,-13.272222,0</coordinates></Point></Placemark>
<Placemark><name>Radar</name><description>Fonte: OSM</description><Point><coordinates>-40.025616,-13.213124,0</coordinates></Point></Placemark>
<Placemark><name>Radar</name><description>Fonte: OSM</description><Point><coordinates>-40.013806,-13.202275,0</coordinates></Point></Placemark>
<Placemark><name>Radar</name><description>Fonte: OSM</description><Point><coordinates>-39.999456,-13.162073,0</coordinates></Point></Placemark>
<Placemark><name>Radar 40 km/h</name><description>Fonte: INMETRO+OSM</description><Point><coordinates>-38.488325,-13.014148,0</coordinates></Point></Placemark>
<Placemark><name>Radar</name><description>Fonte: OSM</description><Point><coordinates>-39.957927,-13.012422,0</coordinates></Point></Placemark>
<Placemark><name>Radar 40 km/h</name><description>Fonte: OSM</description><Point><coordinates>-38.491747,-13.012154,0</coordinates></Point></Placemark>
<Placemark><name>Radar</name><description>Fonte: DNIT</description><Point><coordinates>-39.957754,-13.012055,0</coordinates></Point></Placemark>
<Placemark><name>Radar 60 km/h</name><description>Fonte: INMETRO</description><Point><coordinates>-38.471237,-13.011444,0</coordinates></Point></Placemark>
<Placemark><name>Radar 40 km/h</name><description>Fonte: INMETRO</description><Point><coordinates>-38.493614,-13.010922,0</coordinates></Point></Placemark>
<Placemark><name>Radar 60 km/h</name><description>Fonte: INMETRO+OSM</description><Point><coordinates>-38.467478,-13.010890,0</coordinates></Point></Placemark>
<Placemark><name>Radar</name><description>Fonte: OSM</description><Point><coordinates>-38.501014,-13.010783,0</coordinates></Point></Placemark>
<Placemark><name>Radar</name><description>Fonte: OSM</description><Point><coordinates>-38.527040,-13.009529,0</coordinates></Point></Placemark>
<Placemark><name>Radar</name><description>Fonte: OSM</description><Point><coordinates>-38.532757,-13.007430,0</coordinates></Point></Placemark>
<Placemark><name>Radar</name><description>Fonte: OSM</description><Point><coordinates>-39.956272,-13.006229,0</coordinates></Point></Placemark>
<Placemark><name>Radar 40 km/h</name><description>Fonte: OSM</description><Point><coordinates>-38.457487,-13.006058,0</coordinates></Point></Placemark>
<Placemark><name>Radar</name><description>Fonte: DNIT</description><Point><coordinates>-39.956125,-13.005891,0</coordinates></Point></Placemark>
<Placemark><name>Radar</name><description>Fonte: OSM</description><Point><coordinates>-38.532753,-13.003635,0</coordinates></Point></Placemark>
<Placemark><name>Radar</name><description>Fonte: OSM</description><Point><coordinates>-38.532579,-13.003079,0</coordinates></Point></Placemark>
<Placemark><name>Radar</name><description>Fonte: OSM</description><Point><coordinates>-38.482614,-13.002131,0</coordinates></Point></Placemark>
<Placemark><name>Radar 70 km/h</name><description>Fonte: OSM</description><Point><coordinates>-38.464329,-12.997194,0</coordinates></Point></Placemark>
<Placemark><name>Radar 70 km/h</name><description>Fonte: OSM</description><Point><coordinates>-38.438298,-12.991402,0</coordinates></Point></Placemark>
<Placemark><name>Radar 70 km/h</name><description>Fonte: OSM</description><Point><coordinates>-38.438381,-12.991326,0</coordinates></Point></Placemark>
<Placemark><name>Radar</name><description>Fonte: OSM</description><Point><coordinates>-38.512982,-12.988749,0</coordinates></Point></Placemark>
<Placemark><name>Radar</name><description>Fonte: DNIT</description><Point><coordinates>-39.291151,-12.985014,0</coordinates></Point></Placemark>
<Placemark><name>Radar 70 km/h</name><description>Fonte: OSM</description><Point><coordinates>-38.433469,-12.982907,0</coordinates></Point></Placemark>
<Placemark><name>Radar 60 km/h</name><description>Fonte: OSM</description><Point><coordinates>-38.431547,-12.981415,0</coordinates></Point></Placemark>
<Placemark><name>Radar 60 km/h</name><description>Fonte: OSM</description><Point><coordinates>-38.431600,-12.981304,0</coordinates></Point></Placemark>
<Placemark><name>Radar 40 km/h</name><description>Fonte: OSM</description><Point><coordinates>-39.286300,-12.980502,0</coordinates></Point></Placemark>
<Placemark><name>Radar</name><description>Fonte: DNIT</description><Point><coordinates>-39.284299,-12.978723,0</coordinates></Point></Placemark>
<Placemark><name>Radar 70 km/h</name><description>Fonte: OSM</description><Point><coordinates>-38.421112,-12.976019,0</coordinates></Point></Placemark>
<Placemark><name>Radar 40 km/h</name><description>Fonte: DNIT+OSM</description><Point><coordinates>-39.275640,-12.973546,0</coordinates></Point></Placemark>
<Placemark><name>Radar 80 km/h</name><description>Fonte: OSM</description><Point><coordinates>-38.447789,-12.972934,0</coordinates></Point></Placemark>
<Placemark><name>Radar 60 km/h</name><description>Fonte: OSM</description><Point><coordinates>-38.504004,-12.972562,0</coordinates></Point></Placemark>
<Placemark><name>Radar 80 km/h</name><description>Fonte: OSM</description><Point><coordinates>-38.448178,-12.972544,0</coordinates></Point></Placemark>
<Placemark><name>Radar 70 km/h</name><description>Fonte: OSM</description><Point><coordinates>-38.409982,-12.970308,0</coordinates></Point></Placemark>
<Placemark><name>Radar 40 km/h</name><description>Fonte: OSM</description><Point><coordinates>-39.272148,-12.964584,0</coordinates></Point></Placemark>
<Placemark><name>Radar 80 km/h</name><description>Fonte: OSM</description><Point><coordinates>-38.436526,-12.964284,0</coordinates></Point></Placemark>
<Placemark><name>Radar 40 km/h</name><description>Fonte: DNIT+OSM</description><Point><coordinates>-39.271993,-12.964270,0</coordinates></Point></Placemark>
<Placemark><name>Radar 80 km/h</name><description>Fonte: OSM</description><Point><coordinates>-38.434674,-12.963274,0</coordinates></Point></Placemark>
<Placemark><name>Radar 70 km/h</name><description>Fonte: OSM</description><Point><coordinates>-38.396577,-12.960899,0</coordinates></Point></Placemark>
<Placemark><name>Radar 70 km/h</name><description>Fonte: INMETRO</description><Point><coordinates>-38.395955,-12.958413,0</coordinates></Point></Placemark>
<Placemark><name>Radar 50 km/h</name><description>Fonte: OSM</description><Point><coordinates>-38.454325,-12.957584,0</coordinates></Point></Placemark>
<Placemark><name>Radar 50 km/h</name><description>Fonte: OSM</description><Point><coordinates>-38.454245,-12.957547,0</coordinates></Point></Placemark>
<Placemark><name>Radar</name><description>Fonte: OSM</description><Point><coordinates>-38.465263,-12.957413,0</coordinates></Point></Placemark>
<Placemark><name>Radar 70 km/h</name><description>Fonte: OSM</description><Point><coordinates>-38.386955,-12.955829,0</coordinates></Point></Placemark>
<Placemark><name>Radar 70 km/h</name><description>Fonte: OSM</description><Point><coordinates>-38.386420,-12.955398,0</coordinates></Point></Placemark>
<Placemark><name>Radar</name><description>Fonte: DNIT · sentido 185° (sul)</description><Point><coordinates>-38.471488,-12.954744,0</coordinates></Point></Placemark>
<Placemark><name>Radar 70 km/h</name><description>Fonte: OSM</description><Point><coordinates>-38.379979,-12.953522,0</coordinates></Point></Placemark>
<Placemark><name>Radar</name><description>Fonte: DNIT · sentido 349° (norte)</description><Point><coordinates>-38.469938,-12.945356,0</coordinates></Point></Placemark>
<Placemark><name>Radar</name><description>Fonte: OSM</description><Point><coordinates>-38.365974,-12.944651,0</coordinates></Point></Placemark>
<Placemark><name>Radar</name><description>Fonte: OSM</description><Point><coordinates>-38.365864,-12.944406,0</coordinates></Point></Placemark>
<Placemark><name>Radar</name><description>Fonte: OSM</description><Point><coordinates>-38.335996,-12.940795,0</coordinates></Point></Placemark>
<Placemark><name>Radar 50 km/h</name><description>Fonte: INMETRO+OSM</description><Point><coordinates>-38.335880,-12.940507,0</coordinates></Point></Placemark>
<Placemark><name>Radar 70 km/h</name><description>Fonte: OSM</description><Point><coordinates>-38.386347,-12.940344,0</coordinates></Point></Placemark>
<Placemark><name>Radar 70 km/h</name><description>Fonte: OSM</description><Point><coordinates>-38.386533,-12.939849,0</coordinates></Point></Placemark>
<Placemark><name>Radar 60 km/h</name><description>Fonte: OSM</description><Point><coordinates>-38.346575,-12.935021,0</coordinates></Point></Placemark>
<Placemark><name>Radar 60 km/h</name><description>Fonte: OSM</description><Point><coordinates>-38.344194,-12.934476,0</coordinates></Point></Placemark>
<Placemark><name>Radar 60 km/h</name><description>Fonte: OSM</description><Point><coordinates>-38.357636,-12.932190,0</coordinates></Point></Placemark>
<Placemark><name>Radar</name><description>Fonte: DNIT · sentido 223° (sudoeste)</description><Point><coordinates>-38.469600,-12.929463,0</coordinates></Point></Placemark>
<Placemark><name>Radar 60 km/h</name><description>Fonte: OSM</description><Point><coordinates>-38.357093,-12.929302,0</coordinates></Point></Placemark>
<Placemark><name>Radar 60 km/h</name><description>Fonte: OSM</description><Point><coordinates>-38.348946,-12.928961,0</coordinates></Point></Placemark>
<Placemark><name>Radar</name><description>Fonte: OSM</description><Point><coordinates>-38.356841,-12.928387,0</coordinates></Point></Placemark>
<Placemark><name>Radar 80 km/h</name><description>Fonte: OSM</description><Point><coordinates>-38.375760,-12.925057,0</coordinates></Point></Placemark>
<Placemark><name>Radar 80 km/h</name><description>Fonte: OSM</description><Point><coordinates>-38.375230,-12.924228,0</coordinates></Point></Placemark>
<Placemark><name>Radar 80 km/h</name><description>Fonte: OSM</description><Point><coordinates>-38.367297,-12.923472,0</coordinates></Point></Placemark>
<Placemark><name>Radar 80 km/h</name><description>Fonte: OSM</description><Point><coordinates>-38.359548,-12.922029,0</coordinates></Point></Placemark>
<Placemark><name>Radar 80 km/h</name><description>Fonte: OSM</description><Point><coordinates>-38.357000,-12.920814,0</coordinates></Point></Placemark>
<Placemark><name>Radar</name><description>Fonte: DNIT · sentido 43° (nordeste)</description><Point><coordinates>-38.466442,-12.920712,0</coordinates></Point></Placemark>
<Placemark><name>Radar 80 km/h</name><description>Fonte: OSM</description><Point><coordinates>-38.345833,-12.916282,0</coordinates></Point></Placemark>
<Placemark><name>Radar 80 km/h</name><description>Fonte: OSM</description><Point><coordinates>-38.345534,-12.916063,0</coordinates></Point></Placemark>
<Placemark><name>Radar 60 km/h</name><description>Fonte: OSM</description><Point><coordinates>-38.351382,-12.913692,0</coordinates></Point></Placemark>
<Placemark><name>Radar 60 km/h</name><description>Fonte: OSM</description><Point><coordinates>-38.351458,-12.913584,0</coordinates></Point></Placemark>
<Placemark><name>Radar</name><description>Fonte: DNIT · sentido 205° (sudoeste)</description><Point><coordinates>-38.459364,-12.911760,0</coordinates></Point></Placemark>
<Placemark><name>Radar</name><description>Fonte: DNIT · sentido 24° (nordeste)</description><Point><coordinates>-38.458233,-12.910074,0</coordinates></Point></Placemark>
<Placemark><name>Radar 60 km/h</name><description>Fonte: OSM</description><Point><coordinates>-38.340975,-12.903413,0</coordinates></Point></Placemark>
<Placemark><name>Radar 60 km/h</name><description>Fonte: OSM</description><Point><coordinates>-38.340156,-12.903266,0</coordinates></Point></Placemark>
<Placemark><name>Radar 60 km/h</name><description>Fonte: OSM</description><Point><coordinates>-38.326624,-12.896254,0</coordinates></Point></Placemark>
<Placemark><name>Radar 40 km/h</name><description>Fonte: OSM</description><Point><coordinates>-38.447882,-12.895543,0</coordinates></Point></Placemark>
<Placemark><name>Radar 60 km/h</name><description>Fonte: OSM</description><Point><coordinates>-38.324765,-12.892382,0</coordinates></Point></Placemark>
<Placemark><name>Radar 60 km/h</name><description>Fonte: OSM</description><Point><coordinates>-38.318933,-12.886068,0</coordinates></Point></Placemark>
<Placemark><name>Radar 60 km/h</name><description>Fonte: OSM</description><Point><coordinates>-38.318948,-12.885764,0</coordinates></Point></Placemark>
<Placemark><name>Radar 60 km/h</name><description>Fonte: OSM</description><Point><coordinates>-38.305412,-12.873818,0</coordinates></Point></Placemark>
<Placemark><name>Radar 60 km/h</name><description>Fonte: OSM</description><Point><coordinates>-38.305477,-12.873740,0</coordinates></Point></Placemark>
<Placemark><name>Radar 100 km/h</name><description>Fonte: DNIT+OSM · sentido 31° (nordeste)</description><Point><coordinates>-38.426817,-12.871393,0</coordinates></Point></Placemark>
<Placemark><name>Radar 100 km/h</name><description>Fonte: DNIT+OSM · sentido 211° (sudoeste)</description><Point><coordinates>-38.426789,-12.870863,0</coordinates></Point></Placemark>
<Placemark><name>Radar 60 km/h</name><description>Fonte: OSM</description><Point><coordinates>-38.292511,-12.863852,0</coordinates></Point></Placemark>
<Placemark><name>Radar 60 km/h</name><description>Fonte: OSM</description><Point><coordinates>-38.292627,-12.863758,0</coordinates></Point></Placemark>
<Placemark><name>Radar 80 km/h</name><description>Fonte: OSM</description><Point><coordinates>-38.363464,-12.858691,0</coordinates></Point></Placemark>
<Placemark><name>Radar 80 km/h</name><description>Fonte: OSM</description><Point><coordinates>-38.362294,-12.855138,0</coordinates></Point></Placemark>
<Placemark><name>Radar</name><description>Fonte: DNIT · sentido 199° (sul)</description><Point><coordinates>-38.419151,-12.851254,0</coordinates></Point></Placemark>
<Placemark><name>Radar 80 km/h</name><description>Fonte: OSM</description><Point><coordinates>-38.383273,-12.829761,0</coordinates></Point></Placemark>
<Placemark><name>Radar 80 km/h</name><description>Fonte: OSM</description><Point><coordinates>-38.383230,-12.829698,0</coordinates></Point></Placemark>
<Placemark><name>Radar</name><description>Fonte: DNIT · sentido 327° (noroeste)</description><Point><coordinates>-38.428962,-12.754381,0</coordinates></Point></Placemark>
<Placemark><name>Radar</name><description>Fonte: DNIT · sentido 147° (sudeste)</description><Point><coordinates>-38.433752,-12.747743,0</coordinates></Point></Placemark>
<Placemark><name>Radar</name><description>Fonte: DNIT</description><Point><coordinates>-39.183985,-12.740261,0</coordinates></Point></Placemark>
<Placemark><name>Radar 60 km/h</name><description>Fonte: OSM</description><Point><coordinates>-39.183819,-12.735309,0</coordinates></Point></Placemark>
<Placemark><name>Radar 60 km/h</name><description>Fonte: DNIT+OSM</description><Point><coordinates>-39.180892,-12.729517,0</coordinates></Point></Placemark>
<Placemark><name>Radar</name><description>Fonte: OSM</description><Point><coordinates>-39.697150,-12.693044,0</coordinates></Point></Placemark>
<Placemark><name>Radar</name><description>Fonte: DNIT</description><Point><coordinates>-45.930663,-12.684387,0</coordinates></Point></Placemark>
<Placemark><name>Radar</name><description>Fonte: DNIT</description><Point><coordinates>-39.142411,-12.682702,0</coordinates></Point></Placemark>
<Placemark><name>Radar 50 km/h</name><description>Fonte: OSM</description><Point><coordinates>-39.113021,-12.665453,0</coordinates></Point></Placemark>
<Placemark><name>Radar 50 km/h</name><description>Fonte: OSM</description><Point><coordinates>-39.113160,-12.665256,0</coordinates></Point></Placemark>
<Placemark><name>Radar 40 km/h</name><description>Fonte: OSM</description><Point><coordinates>-39.128577,-12.663453,0</coordinates></Point></Placemark>
<Placemark><name>Radar 50 km/h</name><description>Fonte: INMETRO+OSM</description><Point><coordinates>-39.116125,-12.663316,0</coordinates></Point></Placemark>
<Placemark><name>Radar 50 km/h</name><description>Fonte: OSM</description><Point><coordinates>-39.116088,-12.663232,0</coordinates></Point></Placemark>
<Placemark><name>Radar</name><description>Fonte: DNIT</description><Point><coordinates>-39.128474,-12.663199,0</coordinates></Point></Placemark>
<Placemark><name>Radar</name><description>Fonte: DNIT</description><Point><coordinates>-39.121996,-12.652813,0</coordinates></Point></Placemark>
<Placemark><name>Radar 60 km/h</name><description>Fonte: OSM</description><Point><coordinates>-39.118441,-12.649461,0</coordinates></Point></Placemark>
<Placemark><name>Radar</name><description>Fonte: DNIT</description><Point><coordinates>-39.117678,-12.648937,0</coordinates></Point></Placemark>
<Placemark><name>Radar</name><description>Fonte: DNIT · sentido 165° (sul)</description><Point><coordinates>-38.478217,-12.635748,0</coordinates></Point></Placemark>
<Placemark><name>Radar</name><description>Fonte: DNIT</description><Point><coordinates>-39.092156,-12.628950,0</coordinates></Point></Placemark>
<Placemark><name>Radar</name><description>Fonte: OSM</description><Point><coordinates>-39.568233,-12.612592,0</coordinates></Point></Placemark>
<Placemark><name>Radar</name><description>Fonte: DNIT</description><Point><coordinates>-39.077622,-12.609124,0</coordinates></Point></Placemark>
<Placemark><name>Radar</name><description>Fonte: DNIT</description><Point><coordinates>-39.015243,-12.602986,0</coordinates></Point></Placemark>
<Placemark><name>Radar</name><description>Fonte: DNIT</description><Point><coordinates>-39.051800,-12.602100,0</coordinates></Point></Placemark>
<Placemark><name>Radar 40 km/h</name><description>Fonte: OSM</description><Point><coordinates>-39.051528,-12.601955,0</coordinates></Point></Placemark>
<Placemark><name>Radar</name><description>Fonte: DNIT</description><Point><coordinates>-38.975431,-12.569637,0</coordinates></Point></Placemark>
<Placemark><name>Radar 60 km/h</name><description>Fonte: DNIT+OSM</description><Point><coordinates>-38.977916,-12.554937,0</coordinates></Point></Placemark>
<Placemark><name>Radar</name><description>Fonte: DNIT</description><Point><coordinates>-38.504926,-12.534563,0</coordinates></Point></Placemark>
<Placemark><name>Radar</name><description>Fonte: DNIT · sentido 63° (nordeste)</description><Point><coordinates>-39.417652,-12.533343,0</coordinates></Point></Placemark>
<Placemark><name>Radar</name><description>Fonte: DNIT+OSM · sentido 243° (sudoeste)</description><Point><coordinates>-39.412158,-12.530323,0</coordinates></Point></Placemark>
<Placemark><name>Radar 40 km/h</name><description>Fonte: OSM</description><Point><coordinates>-40.307197,-12.528146,0</coordinates></Point></Placemark>
<Placemark><name>Radar 40 km/h</name><description>Fonte: OSM</description><Point><coordinates>-40.307273,-12.528115,0</coordinates></Point></Placemark>
<Placemark><name>Radar 40 km/h</name><description>Fonte: OSM</description><Point><coordinates>-40.295435,-12.526044,0</coordinates></Point></Placemark>
<Placemark><name>Radar</name><description>Fonte: DNIT · sentido 21° (norte)</description><Point><coordinates>-38.970644,-12.519312,0</coordinates></Point></Placemark>
<Placemark><name>Radar</name><description>Fonte: DNIT · sentido 203° (sudoeste)</description><Point><coordinates>-38.970703,-12.518836,0</coordinates></Point></Placemark>
<Placemark><name>Radar 40 km/h</name><description>Fonte: INMETRO+OSM</description><Point><coordinates>-40.305653,-12.514151,0</coordinates></Point></Placemark>
<Placemark><name>Radar 40 km/h</name><description>Fonte: OSM</description><Point><coordinates>-40.305559,-12.514102,0</coordinates></Point></Placemark>
<Placemark><name>Radar 60 km/h</name><description>Fonte: OSM</description><Point><coordinates>-40.309479,-12.510189,0</coordinates></Point></Placemark>
<Placemark><name>Radar 60 km/h</name><description>Fonte: OSM</description><Point><coordinates>-40.309369,-12.510180,0</coordinates></Point></Placemark>
<Placemark><name>Radar 30 km/h</name><description>Fonte: DNIT+OSM</description><Point><coordinates>-41.213772,-12.505597,0</coordinates></Point></Placemark>
<Placemark><name>Radar</name><description>Fonte: DNIT</description><Point><coordinates>-40.429665,-12.502268,0</coordinates></Point></Placemark>
<Placemark><name>Radar 60 km/h</name><description>Fonte: OSM</description><Point><coordinates>-41.292689,-12.499210,0</coordinates></Point></Placemark>
<Placemark><name>Radar 50 km/h</name><description>Fonte: DNIT+OSM</description><Point><coordinates>-41.328133,-12.493973,0</coordinates></Point></Placemark>
<Placemark><name>Radar</name><description>Fonte: DNIT</description><Point><coordinates>-38.485862,-12.491689,0</coordinates></Point></Placemark>
<Placemark><name>Radar</name><description>Fonte: DNIT</description><Point><coordinates>-41.416303,-12.465931,0</coordinates></Point></Placemark>
<Placemark><name>Radar</name><description>Fonte: DNIT</description><Point><coordinates>-38.935106,-12.465770,0</coordinates></Point></Placemark>
<Placemark><name>Radar</name><description>Fonte: DNIT · sentido 307° (noroeste)</description><Point><coordinates>-38.704158,-12.454698,0</coordinates></Point></Placemark>
<Placemark><name>Radar</name><description>Fonte: DNIT · sentido 127° (sudeste)</description><Point><coordinates>-38.711989,-12.449212,0</coordinates></Point></Placemark>
<Placemark><name>Radar</name><description>Fonte: DNIT</description><Point><coordinates>-40.875646,-12.445127,0</coordinates></Point></Placemark>
<Placemark><name>Radar</name><description>Fonte: DNIT</description><Point><coordinates>-42.176988,-12.443979,0</coordinates></Point></Placemark>
<Placemark><name>Radar</name><description>Fonte: DNIT</description><Point><coordinates>-42.172340,-12.443694,0</coordinates></Point></Placemark>
<Placemark><name>Radar</name><description>Fonte: OSM</description><Point><coordinates>-39.235092,-12.442874,0</coordinates></Point></Placemark>
<Placemark><name>Radar</name><description>Fonte: OSM</description><Point><coordinates>-39.227002,-12.438770,0</coordinates></Point></Placemark>
<Placemark><name>Radar 50 km/h</name><description>Fonte: INMETRO</description><Point><coordinates>-39.247095,-12.437471,0</coordinates></Point></Placemark>
<Placemark><name>Radar 50 km/h</name><description>Fonte: INMETRO</description><Point><coordinates>-39.249297,-12.432797,0</coordinates></Point></Placemark>
<Placemark><name>Radar</name><description>Fonte: DNIT</description><Point><coordinates>-41.791282,-12.430288,0</coordinates></Point></Placemark>
<Placemark><name>Radar</name><description>Fonte: DNIT</description><Point><coordinates>-38.912241,-12.429507,0</coordinates></Point></Placemark>
<Placemark><name>Radar 50 km/h</name><description>Fonte: DNIT+OSM</description><Point><coordinates>-41.781246,-12.428823,0</coordinates></Point></Placemark>
<Placemark><name>Radar 40 km/h</name><description>Fonte: DNIT+OSM</description><Point><coordinates>-41.774003,-12.428015,0</coordinates></Point></Placemark>
<Placemark><name>Radar 40 km/h</name><description>Fonte: DNIT+OSM</description><Point><coordinates>-41.769167,-12.427370,0</coordinates></Point></Placemark>
<Placemark><name>Radar 40 km/h</name><description>Fonte: INMETRO</description><Point><coordinates>-39.259444,-12.424062,0</coordinates></Point></Placemark>
<Placemark><name>Radar</name><description>Fonte: DNIT · sentido 303° (noroeste)</description><Point><coordinates>-38.747894,-12.419263,0</coordinates></Point></Placemark>
<Placemark><name>Radar</name><description>Fonte: DNIT · sentido 131° (sudeste)</description><Point><coordinates>-38.749352,-12.418416,0</coordinates></Point></Placemark>
<Placemark><name>Radar</name><description>Fonte: DNIT</description><Point><coordinates>-38.373159,-12.397791,0</coordinates></Point></Placemark>
<Placemark><name>Radar 40 km/h</name><description>Fonte: OSM</description><Point><coordinates>-38.382756,-12.382409,0</coordinates></Point></Placemark>
<Placemark><name>Radar</name><description>Fonte: DNIT · sentido 308° (noroeste)</description><Point><coordinates>-38.798901,-12.380194,0</coordinates></Point></Placemark>
<Placemark><name>Radar</name><description>Fonte: DNIT · sentido 128° (sudeste)</description><Point><coordinates>-38.805513,-12.375451,0</coordinates></Point></Placemark>
<Placemark><name>Radar</name><description>Fonte: DNIT</description><Point><coordinates>-38.386156,-12.369764,0</coordinates></Point></Placemark>
<Placemark><name>Radar</name><description>Fonte: DNIT · sentido 308° (noroeste)</description><Point><coordinates>-38.821952,-12.362564,0</coordinates></Point></Placemark>
<Placemark><name>Radar</name><description>Fonte: DNIT · sentido 50° (nordeste)</description><Point><coordinates>-39.096419,-12.355618,0</coordinates></Point></Placemark>
<Placemark><name>Radar 50 km/h</name><description>Fonte: DNIT+OSM · sentido 95° (leste)</description><Point><coordinates>-38.790397,-12.354940,0</coordinates></Point></Placemark>
<Placemark><name>Radar</name><description>Fonte: DNIT · sentido 275° (oeste)</description><Point><coordinates>-38.787376,-12.354924,0</coordinates></Point></Placemark>
<Placemark><name>Radar</name><description>Fonte: DNIT · sentido 211° (sudoeste)</description><Point><coordinates>-39.091047,-12.349829,0</coordinates></Point></Placemark>
<Placemark><name>Radar</name><description>Fonte: DNIT · sentido 314° (noroeste)</description><Point><coordinates>-38.849010,-12.337404,0</coordinates></Point></Placemark>
<Placemark><name>Radar</name><description>Fonte: DNIT · sentido 51° (nordeste)</description><Point><coordinates>-38.757019,-12.337175,0</coordinates></Point></Placemark>
<Placemark><name>Radar</name><description>Fonte: DNIT · sentido 128° (sudeste)</description><Point><coordinates>-38.850752,-12.336575,0</coordinates></Point></Placemark>
<Placemark><name>Radar</name><description>Fonte: OSM</description><Point><coordinates>-39.072517,-12.336434,0</coordinates></Point></Placemark>
<Placemark><name>Radar</name><description>Fonte: DNIT · sentido 231° (sudoeste)</description><Point><coordinates>-38.755150,-12.335344,0</coordinates></Point></Placemark>
<Placemark><name>Radar</name><description>Fonte: DNIT</description><Point><coordinates>-38.383248,-12.334396,0</coordinates></Point></Placemark>
<Placemark><name>Radar</name><description>Fonte: DNIT · sentido 308° (noroeste)</description><Point><coordinates>-38.870584,-12.321267,0</coordinates></Point></Placemark>
<Placemark><name>Radar</name><description>Fonte: DNIT · sentido 128° (sudeste)</description><Point><coordinates>-38.875070,-12.318141,0</coordinates></Point></Placemark>
<Placemark><name>Radar 50 km/h</name><description>Fonte: DNIT+OSM</description><Point><coordinates>-38.372904,-12.308651,0</coordinates></Point></Placemark>
<Placemark><name>Radar</name><description>Fonte: OSM</description><Point><coordinates>-39.042598,-12.305474,0</coordinates></Point></Placemark>
<Placemark><name>Radar</name><description>Fonte: DNIT · sentido 308° (noroeste)</description><Point><coordinates>-38.895690,-12.302251,0</coordinates></Point></Placemark>
<Placemark><name>Radar</name><description>Fonte: DNIT · sentido 128° (sudeste)</description><Point><coordinates>-38.902273,-12.297554,0</coordinates></Point></Placemark>
<Placemark><name>Radar</name><description>Fonte: OSM</description><Point><coordinates>-39.024043,-12.293058,0</coordinates></Point></Placemark>
<Placemark><name>Radar</name><description>Fonte: OSM</description><Point><coordinates>-39.009893,-12.288346,0</coordinates></Point></Placemark>
<Placemark><name>Radar 50 km/h</name><description>Fonte: INMETRO</description><Point><coordinates>-38.968397,-12.282607,0</coordinates></Point></Placemark>
<Placemark><name>Radar</name><description>Fonte: DNIT</description><Point><coordinates>-38.941365,-12.279160,0</coordinates></Point></Placemark>
<Placemark><name>Radar</name><description>Fonte: DNIT</description><Point><coordinates>-38.370893,-12.275545,0</coordinates></Point></Placemark>
<Placemark><name>Radar</name><description>Fonte: OSM</description><Point><coordinates>-38.994073,-12.272599,0</coordinates></Point></Placemark>
<Placemark><name>Radar 60 km/h</name><description>Fonte: INMETRO</description><Point><coordinates>-38.942639,-12.267107,0</coordinates></Point></Placemark>
<Placemark><name>Radar 60 km/h</name><description>Fonte: INMETRO</description><Point><coordinates>-38.942504,-12.266650,0</coordinates></Point></Placemark>
<Placemark><name>Radar 60 km/h</name><description>Fonte: INMETRO</description><Point><coordinates>-38.955174,-12.263319,0</coordinates></Point></Placemark>
<Placemark><name>Radar 60 km/h</name><description>Fonte: INMETRO</description><Point><coordinates>-38.959149,-12.259905,0</coordinates></Point></Placemark>
<Placemark><name>Radar 60 km/h</name><description>Fonte: INMETRO</description><Point><coordinates>-38.939678,-12.256175,0</coordinates></Point></Placemark>
<Placemark><name>Radar 50 km/h</name><description>Fonte: INMETRO</description><Point><coordinates>-38.963699,-12.238713,0</coordinates></Point></Placemark>
<Placemark><name>Radar 60 km/h</name><description>Fonte: INMETRO</description><Point><coordinates>-38.963864,-12.234260,0</coordinates></Point></Placemark>
<Placemark><name>Radar</name><description>Fonte: DNIT</description><Point><coordinates>-43.835568,-12.229315,0</coordinates></Point></Placemark>
<Placemark><name>Radar</name><description>Fonte: DNIT</description><Point><coordinates>-43.915695,-12.229177,0</coordinates></Point></Placemark>
<Placemark><name>Radar</name><description>Fonte: OSM</description><Point><coordinates>-38.952904,-12.226878,0</coordinates></Point></Placemark>
<Placemark><name>Radar</name><description>Fonte: DNIT</description><Point><coordinates>-43.831353,-12.226036,0</coordinates></Point></Placemark>
<Placemark><name>Radar</name><description>Fonte: DNIT</description><Point><coordinates>-38.965215,-12.224384,0</coordinates></Point></Placemark>
<Placemark><name>Radar</name><description>Fonte: OSM</description><Point><coordinates>-38.965273,-12.223845,0</coordinates></Point></Placemark>
<Placemark><name>Radar</name><description>Fonte: OSM</description><Point><coordinates>-38.965518,-12.202856,0</coordinates></Point></Placemark>
<Placemark><name>Radar</name><description>Fonte: DNIT</description><Point><coordinates>-38.965128,-12.200427,0</coordinates></Point></Placemark>
<Placemark><name>Radar</name><description>Fonte: DNIT</description><Point><coordinates>-43.669899,-12.199862,0</coordinates></Point></Placemark>
<Placemark><name>Radar</name><description>Fonte: DNIT</description><Point><coordinates>-38.965710,-12.199676,0</coordinates></Point></Placemark>
<Placemark><name>Radar</name><description>Fonte: DNIT+OSM</description><Point><coordinates>-38.965166,-12.192059,0</coordinates></Point></Placemark>
<Placemark><name>Radar</name><description>Fonte: OSM</description><Point><coordinates>-38.965330,-12.191508,0</coordinates></Point></Placemark>
<Placemark><name>Radar</name><description>Fonte: DNIT+OSM</description><Point><coordinates>-38.965111,-12.188021,0</coordinates></Point></Placemark>
<Placemark><name>Radar</name><description>Fonte: OSM</description><Point><coordinates>-38.965273,-12.187209,0</coordinates></Point></Placemark>
<Placemark><name>Radar</name><description>Fonte: DNIT</description><Point><coordinates>-38.415016,-12.162060,0</coordinates></Point></Placemark>
<Placemark><name>Radar</name><description>Fonte: DNIT</description><Point><coordinates>-38.406514,-12.156051,0</coordinates></Point></Placemark>
<Placemark><name>Radar 40 km/h</name><description>Fonte: OSM</description><Point><coordinates>-38.395991,-12.148766,0</coordinates></Point></Placemark>
<Placemark><name>Radar 40 km/h</name><description>Fonte: DNIT+OSM</description><Point><coordinates>-38.395721,-12.148499,0</coordinates></Point></Placemark>
<Placemark><name>Radar 40 km/h</name><description>Fonte: INMETRO</description><Point><coordinates>-38.400765,-12.145034,0</coordinates></Point></Placemark>
<Placemark><name>Radar</name><description>Fonte: DNIT</description><Point><coordinates>-44.887869,-12.141912,0</coordinates></Point></Placemark>
<Placemark><name>Radar 40 km/h</name><description>Fonte: INMETRO</description><Point><coordinates>-38.418951,-12.138016,0</coordinates></Point></Placemark>
<Placemark><name>Radar 40 km/h</name><description>Fonte: INMETRO</description><Point><coordinates>-38.429263,-12.137396,0</coordinates></Point></Placemark>
<Placemark><name>Radar</name><description>Fonte: DNIT</description><Point><coordinates>-43.351179,-12.135975,0</coordinates></Point></Placemark>
<Placemark><name>Radar</name><description>Fonte: DNIT</description><Point><coordinates>-45.010007,-12.129588,0</coordinates></Point></Placemark>
<Placemark><name>Radar 40 km/h</name><description>Fonte: INMETRO</description><Point><coordinates>-38.401179,-12.122392,0</coordinates></Point></Placemark>
<Placemark><name>Radar 40 km/h</name><description>Fonte: INMETRO</description><Point><coordinates>-38.399775,-12.121360,0</coordinates></Point></Placemark>
<Placemark><name>Radar</name><description>Fonte: DNIT</description><Point><coordinates>-45.160997,-12.113576,0</coordinates></Point></Placemark>
<Placemark><name>Radar 50 km/h</name><description>Fonte: OSM</description><Point><coordinates>-45.792996,-12.090989,0</coordinates></Point></Placemark>
<Placemark><name>Radar 50 km/h</name><description>Fonte: OSM</description><Point><coordinates>-45.793044,-12.090872,0</coordinates></Point></Placemark>
<Placemark><name>Radar</name><description>Fonte: DNIT</description><Point><coordinates>-43.158080,-12.087388,0</coordinates></Point></Placemark>
<Placemark><name>Radar</name><description>Fonte: DNIT</description><Point><coordinates>-45.728561,-12.082389,0</coordinates></Point></Placemark>
<Placemark><name>Radar</name><description>Fonte: DNIT</description><Point><coordinates>-44.855913,-11.833960,0</coordinates></Point></Placemark>
<Placemark><name>Radar</name><description>Fonte: DNIT</description><Point><coordinates>-38.357713,-11.820841,0</coordinates></Point></Placemark>
<Placemark><name>Radar</name><description>Fonte: DNIT</description><Point><coordinates>-39.376389,-11.817251,0</coordinates></Point></Placemark>
<Placemark><name>Radar 50 km/h</name><description>Fonte: OSM</description><Point><coordinates>-38.350432,-11.798258,0</coordinates></Point></Placemark>
<Placemark><name>Radar 50 km/h</name><description>Fonte: OSM</description><Point><coordinates>-38.350406,-11.798080,0</coordinates></Point></Placemark>
<Placemark><name>Radar 40 km/h</name><description>Fonte: OSM</description><Point><coordinates>-38.350746,-11.792818,0</coordinates></Point></Placemark>
<Placemark><name>Radar</name><description>Fonte: DNIT</description><Point><coordinates>-44.905492,-11.766056,0</coordinates></Point></Placemark>
<Placemark><name>Radar</name><description>Fonte: OSM</description><Point><coordinates>-38.986438,-11.722793,0</coordinates></Point></Placemark>
<Placemark><name>Radar</name><description>Fonte: OSM</description><Point><coordinates>-38.986444,-11.722335,0</coordinates></Point></Placemark>
<Placemark><name>Radar</name><description>Fonte: OSM</description><Point><coordinates>-38.986492,-11.719149,0</coordinates></Point></Placemark>
<Placemark><name>Radar</name><description>Fonte: OSM</description><Point><coordinates>-38.990627,-11.684238,0</coordinates></Point></Placemark>
<Placemark><name>Radar</name><description>Fonte: DNIT+OSM</description><Point><coordinates>-38.998113,-11.672696,0</coordinates></Point></Placemark>
<Placemark><name>Radar</name><description>Fonte: OSM</description><Point><coordinates>-38.998320,-11.672361,0</coordinates></Point></Placemark>
<Placemark><name>Radar</name><description>Fonte: OSM</description><Point><coordinates>-38.993085,-11.652925,0</coordinates></Point></Placemark>
<Placemark><name>Radar</name><description>Fonte: DNIT</description><Point><coordinates>-38.293828,-11.549476,0</coordinates></Point></Placemark>
<Placemark><name>Radar</name><description>Fonte: DNIT</description><Point><coordinates>-37.856870,-11.539150,0</coordinates></Point></Placemark>
<Placemark><name>Radar</name><description>Fonte: DNIT</description><Point><coordinates>-38.298146,-11.507829,0</coordinates></Point></Placemark>
<Placemark><name>Radar</name><description>Fonte: DNIT</description><Point><coordinates>-38.296787,-11.497966,0</coordinates></Point></Placemark>
<Placemark><name>Radar</name><description>Fonte: DNIT</description><Point><coordinates>-38.293050,-11.416828,0</coordinates></Point></Placemark>
<Placemark><name>Radar</name><description>Fonte: DNIT</description><Point><coordinates>-40.003723,-11.379435,0</coordinates></Point></Placemark>
<Placemark><name>Radar</name><description>Fonte: DNIT</description><Point><coordinates>-44.916449,-11.377076,0</coordinates></Point></Placemark>
<Placemark><name>Radar 40 km/h</name><description>Fonte: INMETRO</description><Point><coordinates>-41.849509,-11.305179,0</coordinates></Point></Placemark>
<Placemark><name>Radar 50 km/h</name><description>Fonte: OSM</description><Point><coordinates>-41.852387,-11.295248,0</coordinates></Point></Placemark>
<Placemark><name>Radar 50 km/h</name><description>Fonte: OSM</description><Point><coordinates>-41.852106,-11.294931,0</coordinates></Point></Placemark>
<Placemark><name>Radar</name><description>Fonte: DNIT</description><Point><coordinates>-40.489428,-11.203685,0</coordinates></Point></Placemark>
<Placemark><name>Radar</name><description>Fonte: DNIT</description><Point><coordinates>-38.515633,-11.100979,0</coordinates></Point></Placemark>
<Placemark><name>Radar</name><description>Fonte: DNIT</description><Point><coordinates>-40.672731,-11.087363,0</coordinates></Point></Placemark>
<Placemark><name>Radar</name><description>Fonte: OSM</description><Point><coordinates>-38.562171,-10.835329,0</coordinates></Point></Placemark>
<Placemark><name>Radar</name><description>Fonte: DNIT</description><Point><coordinates>-38.532111,-10.835080,0</coordinates></Point></Placemark>
<Placemark><name>Radar</name><description>Fonte: OSM</description><Point><coordinates>-38.561405,-10.834835,0</coordinates></Point></Placemark>
<Placemark><name>Radar</name><description>Fonte: DNIT</description><Point><coordinates>-38.532168,-10.830682,0</coordinates></Point></Placemark>
<Placemark><name>Radar</name><description>Fonte: DNIT</description><Point><coordinates>-38.531763,-10.826262,0</coordinates></Point></Placemark>
<Placemark><name>Radar</name><description>Fonte: DNIT</description><Point><coordinates>-38.531347,-10.822279,0</coordinates></Point></Placemark>
<Placemark><name>Radar 60 km/h</name><description>Fonte: DNIT+OSM</description><Point><coordinates>-38.530847,-10.819627,0</coordinates></Point></Placemark>
<Placemark><name>Radar</name><description>Fonte: OSM</description><Point><coordinates>-38.519230,-10.786294,0</coordinates></Point></Placemark>
<Placemark><name>Radar</name><description>Fonte: OSM</description><Point><coordinates>-38.519181,-10.786162,0</coordinates></Point></Placemark>
<Placemark><name>Radar</name><description>Fonte: DNIT</description><Point><coordinates>-40.185171,-10.446929,0</coordinates></Point></Placemark>
<Placemark><name>Radar</name><description>Fonte: OSM</description><Point><coordinates>-38.338462,-10.080148,0</coordinates></Point></Placemark>
<Placemark><name>Radar</name><description>Fonte: OSM</description><Point><coordinates>-38.338844,-10.079944,0</coordinates></Point></Placemark>
<Placemark><name>Radar</name><description>Fonte: OSM</description><Point><coordinates>-38.341168,-10.077099,0</coordinates></Point></Placemark>
<Placemark><name>Radar</name><description>Fonte: OSM</description><Point><coordinates>-38.341566,-10.076219,0</coordinates></Point></Placemark>
<Placemark><name>Radar</name><description>Fonte: OSM</description><Point><coordinates>-38.229304,-9.701641,0</coordinates></Point></Placemark>
<Placemark><name>Radar 40 km/h</name><description>Fonte: DNIT+OSM</description><Point><coordinates>-40.487424,-9.454081,0</coordinates></Point></Placemark>
<Placemark><name>Radar</name><description>Fonte: DNIT</description><Point><coordinates>-40.480351,-9.453751,0</coordinates></Point></Placemark>
<Placemark><name>Radar 40 km/h</name><description>Fonte: OSM</description><Point><coordinates>-40.480906,-9.453689,0</coordinates></Point></Placemark>
<Placemark><name>Radar 40 km/h</name><description>Fonte: OSM</description><Point><coordinates>-40.487708,-9.453677,0</coordinates></Point></Placemark>
<Placemark><name>Radar 50 km/h</name><description>Fonte: OSM</description><Point><coordinates>-40.515024,-9.451370,0</coordinates></Point></Placemark>
<Placemark><name>Radar 50 km/h</name><description>Fonte: OSM</description><Point><coordinates>-40.513660,-9.451348,0</coordinates></Point></Placemark>
<Placemark><name>Radar 40 km/h</name><description>Fonte: DNIT+OSM</description><Point><coordinates>-40.484222,-9.451213,0</coordinates></Point></Placemark>
<Placemark><name>Radar 50 km/h</name><description>Fonte: OSM</description><Point><coordinates>-40.520124,-9.450986,0</coordinates></Point></Placemark>
<Placemark><name>Radar 50 km/h</name><description>Fonte: OSM</description><Point><coordinates>-40.524282,-9.450042,0</coordinates></Point></Placemark>
<Placemark><name>Radar 40 km/h</name><description>Fonte: DNIT+OSM</description><Point><coordinates>-40.492284,-9.443709,0</coordinates></Point></Placemark>
<Placemark><name>Radar 40 km/h</name><description>Fonte: DNIT+OSM</description><Point><coordinates>-40.495895,-9.439701,0</coordinates></Point></Placemark>
<Placemark><name>Radar 40 km/h</name><description>Fonte: OSM</description><Point><coordinates>-40.496473,-9.439211,0</coordinates></Point></Placemark>
<Placemark><name>Radar 40 km/h</name><description>Fonte: OSM</description><Point><coordinates>-40.527142,-9.438939,0</coordinates></Point></Placemark>
<Placemark><name>Radar 50 km/h</name><description>Fonte: OSM</description><Point><coordinates>-40.519844,-9.424627,0</coordinates></Point></Placemark>
<Placemark><name>Radar 50 km/h</name><description>Fonte: OSM</description><Point><coordinates>-40.500742,-9.422852,0</coordinates></Point></Placemark>
<Placemark><name>Radar 50 km/h</name><description>Fonte: OSM</description><Point><coordinates>-40.500681,-9.422691,0</coordinates></Point></Placemark>
<Placemark><name>Radar 40 km/h</name><description>Fonte: OSM</description><Point><coordinates>-40.523803,-9.421912,0</coordinates></Point></Placemark>
<Placemark><name>Radar 40 km/h</name><description>Fonte: OSM</description><Point><coordinates>-40.523602,-9.421868,0</coordinates></Point></Placemark>
<Placemark><name>Radar</name><description>Fonte: OSM</description><Point><coordinates>-38.198421,-9.421494,0</coordinates></Point></Placemark>
<Placemark><name>Radar 50 km/h</name><description>Fonte: OSM</description><Point><coordinates>-40.520823,-9.417990,0</coordinates></Point></Placemark>
<Placemark><name>Radar 40 km/h</name><description>Fonte: INMETRO+OSM</description><Point><coordinates>-40.519290,-9.414917,0</coordinates></Point></Placemark>
<Placemark><name>Radar 50 km/h</name><description>Fonte: OSM</description><Point><coordinates>-40.505938,-9.411157,0</coordinates></Point></Placemark>
</Folder>
<Folder><name>Avanço de sinal vermelho</name>
<Placemark><name>Avanço de sinal</name><description>Fonte: OSM</description><Point><coordinates>-38.365909,-12.944629,0</coordinates></Point></Placemark>
<Placemark><name>Avanço de sinal</name><description>Fonte: OSM</description><Point><coordinates>-38.365906,-12.944434,0</coordinates></Point></Placemark>
<Placemark><name>Avanço de sinal</name><description>Fonte: OSM</description><Point><coordinates>-38.335990,-12.940708,0</coordinates></Point></Placemark>
<Placemark><name>Avanço de sinal</name><description>Fonte: OSM</description><Point><coordinates>-38.356814,-12.928373,0</coordinates></Point></Placemark>
<Placemark><name>Avanço de sinal</name><description>Fonte: OSM</description><Point><coordinates>-38.965539,-12.211629,0</coordinates></Point></Placemark>
<Placemark><name>Avanço de sinal</name><description>Fonte: OSM</description><Point><coordinates>-38.965628,-12.211488,0</coordinates></Point></Placemark>
</Folder>
</Document></kml>