<?xml version="1.0" encoding="UTF-8"?>
<gpx version="1.1" creator="Pardal" xmlns="http://www.topografix.com/GPX/1/1">
<metadata><name>Pardal — radares — BA</name><desc>Pardal — © colaboradores do OpenStreetMap (ODbL 1.0) e fontes abertas listadas no README</desc></metadata>
<wpt lat="-18.104600" lon="-39.884400"><name>Radar 60 km/h</name><desc>Fonte: ANTT · sentido 142° (sudeste)</desc><type>FIXED</type></wpt>
<wpt lat="-18.054571" lon="-39.742583"><name>Radar 50 km/h</name><desc>Fonte: OSM</desc><type>FIXED</type></wpt>
<wpt lat="-18.008901" lon="-39.861413"><name>Radar 40 km/h</name><desc>Fonte: OSM</desc><type>FIXED</type></wpt>
<wpt lat="-18.007917" lon="-39.861337"><name>Radar 40 km/h</name><desc>Fonte: OSM</desc><type>FIXED</type></wpt>
<wpt lat="-18.002179" lon="-39.860906"><name>Radar 50 km/h</name><desc>Fonte: OSM</desc><type>FIXED</type></wpt>
<wpt lat="-18.001724" lon="-39.860975"><name>Radar</name><desc>Fonte: DNIT</desc><type>FIXED</type></wpt>
<wpt lat="-17.574230" lon="-39.734722"><name>Radar 40 km/h</name><desc>Fonte: DNIT+OSM</desc><type>FIXED</type></wpt>
<wpt lat="-17.554621" lon="-39.723761"><name>Radar 50 km/h</name><desc>Fonte: DNIT+OSM</desc><type>FIXED</type></wpt>
<wpt lat="-17.551446" lon="-39.721893"><name>Radar 40 km/h</name><desc>Fonte: DNIT+OSM</desc><type>FIXED</type></wpt>
<wpt lat="-17.543644" lon="-39.717481"><name>Radar 40 km/h</name><desc>Fonte: DNIT+OSM</desc><type>FIXED</type></wpt>
<wpt lat="-17.539675" lon="-39.715392"><name>Radar 40 km/h</name><desc>Fonte: DNIT+OSM</desc><type>FIXED</type></wpt>
<wpt lat="-17.539240" lon="-39.715062"><name>Radar 40 km/h</name><desc>Fonte: OSM</desc><type>FIXED</type></wpt>
<wpt lat="-17.528166" lon="-39.254745"><name>Radar 50 km/h</name><desc>Fonte: OSM</desc><type>FIXED</type></wpt>
<wpt lat="-17.528107" lon="-39.287799"><name>Radar 50 km/h</name><desc>Fonte: OSM</desc><type>FIXED</type></wpt>
<wpt lat="-17.525645" lon="-39.708507"><name>Radar</name><desc>Fonte: DNIT</desc><type>FIXED</type></wpt>
<wpt lat="-17.060537" lon="-39.552916"><name>Radar</name><desc>Fonte: DNIT</desc><type>FIXED</type></wpt>
<wpt lat="-17.049862" lon="-39.549359"><name>Radar 40 km/h</name><desc>Fonte: DNIT+OSM</desc><type>FIXED</type></wpt>
<wpt lat="-17.037576" lon="-39.544829"><name>Radar</name><desc>Fonte: DNIT</desc><type>FIXED</type></wpt>
<wpt lat="-17.017439" lon="-39.542017"><name>Radar 40 km/h</name><desc>Fonte: OSM</desc><type>FIXED</type></wpt>
<wpt lat="-17.017045" lon="-39.542026"><name>Radar 40 km/h</name><desc>Fonte: DNIT+OSM</desc><type>FIXED</type></wpt>
<wpt lat="-16.580648" lon="-39.556757"><name>Radar 40 km/h</name><desc>Fonte: OSM</desc><type>FIXED</type></wpt>
<wpt lat="-16.580080" lon="-39.556919"><name>Radar 40 km/h</name><desc>Fonte: OSM</desc><type>FIXED</type></wpt>
<wpt lat="-16.572588" lon="-39.558922"><name>Radar 40 km/h</name><desc>Fonte: OSM</desc><type>FIXED</type></wpt>
<wpt lat="-16.571795" lon="-39.559019"><name>Radar 40 km/h</name><desc>Fonte: DNIT+OSM</desc><type>FIXED</type></wpt>
<wpt lat="-16.440653" lon="-39.062731"><name>Radar</name><desc>Fonte: DNIT · sentido 165° (sul)</desc><type>FIXED</type></wpt>
<wpt lat="-16.434331" lon="-39.095000"><name>Radar 40 km/h</name><desc>Fonte: DNIT+OSM</desc><type>FIXED</type></wpt>
<wpt lat="-16.430446" lon="-39.095757"><name>Radar 40 km/h</name><desc>Fonte: DNIT+OSM</desc><type>FIXED</type></wpt>
<wpt lat="-16.404184" lon="-39.045170"><name>Radar 50 km/h</name><desc>Fonte: DNIT+OSM</desc><type>FIXED</type></wpt>
<wpt lat="-16.393883" lon="-39.039935"><name>Radar 50 km/h</name><desc>Fonte: DNIT+OSM</desc><type>FIXED</type></wpt>
<wpt lat="-16.391838" lon="-39.397195"><name>Radar</name><desc>Fonte: DNIT</desc><type>FIXED</type></wpt>
<wpt lat="-16.390380" lon="-39.388156"><name>Radar</name><desc>Fonte: DNIT</desc><type>FIXED</type></wpt>
<wpt lat="-16.386883" lon="-39.586678"><name>Radar 40 km/h</name><desc>Fonte: OSM</desc><type>FIXED</type></wpt>
<wpt lat="-16.386562" lon="-39.586442"><name>Radar</name><desc>Fonte: DNIT</desc><type>FIXED</type></wpt>
<wpt lat="-16.386263" lon="-39.586340"><name>Radar 40 km/h</name><desc>Fonte: OSM</desc><type>FIXED</type></wpt>
<wpt lat="-16.374991" lon="-39.581080"><name>Radar 40 km/h</name><desc>Fonte: DNIT+OSM</desc><type>FIXED</type></wpt>
<wpt lat="-16.374292" lon="-39.578238"><name>Radar 40 km/h</name><desc>Fonte: DNIT+OSM</desc><type>FIXED</type></wpt>
<wpt lat="-16.373363" lon="-39.580754"><name>Radar</name><desc>Fonte: DNIT</desc><type>FIXED</type></wpt>
<wpt lat="-16.372699" lon="-39.571036"><name>Radar 40 km/h</name><desc>Fonte: DNIT+OSM</desc><type>FIXED</type></wpt>
<wpt lat="-16.372498" lon="-39.570411"><name>Radar 40 km/h</name><desc>Fonte: OSM</desc><type>FIXED</type></wpt>
<wpt lat="-16.372032" lon="-39.581481"><name>Radar 40 km/h</name><desc>Fonte: DNIT+OSM</desc><type>FIXED</type></wpt>
<wpt lat="-16.372010" lon="-39.559414"><name>Radar 40 km/h</name><desc>Fonte: OSM</desc><type>FIXED</type></wpt>
<wpt lat="-16.372001" lon="-39.559971"><name>Radar 50 km/h</name><desc>Fonte: DNIT+OSM</desc><type>FIXED</type></wpt>
<wpt lat="-16.369281" lon="-39.583179"><name>Radar</name><desc>Fonte: DNIT</desc><type>FIXED</type></wpt>
<wpt lat="-16.366632" lon="-39.582249"><name>Radar 40 km/h</name><desc>Fonte: DNIT+OSM</desc><type>FIXED</type></wpt>
<wpt lat="-16.366141" lon="-39.582057"><name>Radar 40 km/h</name><desc>Fonte: OSM</desc><type>FIXED</type></wpt>
<wpt lat="-16.357899" lon="-39.579501"><name>Radar 40 km/h</name><desc>Fonte: DNIT+OSM</desc><type>FIXED</type></wpt>
<wpt lat="-16.357581" lon="-39.579410"><name>Radar 40 km/h</name><desc>Fonte: OSM</desc><type>FIXED</type></wpt>
<wpt lat="-16.350018" lon="-39.580015"><name>Radar 40 km/h</name><desc>Fonte: OSM</desc><type>FIXED</type></wpt>
<wpt lat="-16.349726" lon="-39.580057"><name>Radar 40 km/h</name><desc>Fonte: DNIT+OSM</desc><type>FIXED</type></wpt>
<wpt lat="-16.337474" lon="-39.581247"><name>Radar</name><desc>Fonte: DNIT</desc><type>FIXED</type></wpt>
<wpt lat="-16.337416" lon="-39.008760"><name>Radar 50 km/h</name><desc>Fonte: OSM</desc><type>FIXED</type></wpt>
<wpt lat="-16.321283" lon="-39.023245"><name>Radar</name><desc>Fonte: DNIT</desc><type>FIXED</type></wpt>
<wpt lat="-16.312109" lon="-39.597743"><name>Radar</name><desc>Fonte: DNIT</desc><type>FIXED</type></wpt>
<wpt lat="-16.263694" lon="-39.585258"><name>Radar</name><desc>Fonte: DNIT</desc><type>FIXED</type></wpt>
<wpt lat="-15.949784" lon="-39.559064"><name>Radar</name><desc>Fonte: DNIT</desc><type>FIXED</type></wpt>
<wpt lat="-15.699577" lon="-41.333340"><name>Radar</name><desc>Fonte: OSM</desc><type>FIXED</type></wpt>
<wpt lat="-15.613328" lon="-39.432544"><name>Radar 40 km/h</name><desc>Fonte: DNIT+OSM</desc><type>FIXED</type></wpt>
<wpt lat="-15.515401" lon="-41.238157"><name>Radar 40 km/h</name><desc>Fonte: DNIT+OSM</desc><type>FIXED</type></wpt>
<wpt lat="-15.512107" lon="-41.236667"><name>Radar 40 km/h</name><desc>Fonte: DNIT+OSM</desc><type>FIXED</type></wpt>
<wpt lat="-15.369904" lon="-39.493797"><name>Radar 60 km/h</name><desc>Fonte: DNIT+OSM</desc><type>FIXED</type></wpt>
<wpt lat="-15.255640" lon="-39.453208"><name>Radar</name><desc>Fonte: DNIT</desc><type>FIXED</type></wpt>
<wpt lat="-15.235177" lon="-41.102582"><name>Radar</name><desc>Fonte: DNIT</desc><type>FIXED</type></wpt>
<wpt lat="-15.229869" lon="-41.099469"><name>Radar</name><desc>Fonte: DNIT+OSM</desc><type>FIXED</type></wpt>
<wpt lat="-15.079724" lon="-39.338875"><name>Radar</name><desc>Fonte: DNIT</desc><type>FIXED</type></wpt>
<wpt lat="-15.035276" lon="-39.331370"><name>Radar</name><desc>Fonte: DNIT</desc><type>FIXED</type></wpt>
<wpt lat="-14.954440" lon="-39.306570"><name>Radar 40 km/h</name><desc>Fonte: DNIT+OSM</desc><type>FIXED</type></wpt>
<wpt lat="-14.929939" lon="-40.886760"><name>Radar</name><desc>Fonte: OSM</desc><type>FIXED</type></wpt>
<wpt lat="-14.928406" lon="-40.885797"><name>Radar</name><desc>Fonte: OSM</desc><type>FIXED</type></wpt>
<wpt lat="-14.925300" lon="-40.883887"><name>Radar</name><desc>Fonte: OSM</desc><type>FIXED</type></wpt>
<wpt lat="-14.924756" lon="-40.883543"><name>Radar</name><desc>Fonte: OSM</desc><type>FIXED</type></wpt>
<wpt lat="-14.910283" lon="-39.023032"><name>Radar</name><desc>Fonte: OSM</desc><type>FIXED</type></wpt>
<wpt lat="-14.895315" lon="-40.865295"><name>Radar 40 km/h</name><desc>Fonte: DNIT+OSM</desc><type>FIXED</type></wpt>
<wpt lat="-14.885358" lon="-40.858999"><name>Radar</name><desc>Fonte: OSM</desc><type>FIXED</type></wpt>
<wpt lat="-14.875436" lon="-40.856457"><name>Radar 40 km/h</name><desc>Fonte: OSM</desc><type>FIXED</type></wpt>
<wpt lat="-14.836734" lon="-39.325097"><name>Radar</name><desc>Fonte: DNIT</desc><type>FIXED</type></wpt>
<wpt lat="-14.828649" lon="-40.828148"><name>Radar</name><desc>Fonte: DNIT+OSM</desc><type>FIXED</type></wpt>
<wpt lat="-14.828426" lon="-40.827928"><name>Radar</name><desc>Fonte: OSM</desc><type>FIXED</type></wpt>
<wpt lat="-14.822324" lon="-40.816336"><name>Radar 60 km/h</name><desc>Fonte: DNIT+OSM</desc><type>FIXED</type></wpt>
<wpt lat="-14.818574" lon="-39.303164"><name>Radar</name><desc>Fonte: DNIT</desc><type>FIXED</type></wpt>
<wpt lat="-14.808177" lon="-39.296566"><name>Radar 40 km/h</name><desc>Fonte: DNIT+OSM</desc><type>FIXED</type></wpt>
<wpt lat="-14.802731" lon="-39.149184"><name>Radar 40 km/h</name><desc>Fonte: DNIT+OSM</desc><type>FIXED</type></wpt>
<wpt lat="-14.801589" lon="-39.290427"><name>Radar 50 km/h</name><desc>Fonte: OSM</desc><type>FIXED</type></wpt>
<wpt lat="-14.801560" lon="-39.290500"><name>Radar 50 km/h</name><desc>Fonte: OSM</desc><type>FIXED</type></wpt>
<wpt lat="-14.799013" lon="-39.172156"><name>Radar 60 km/h</name><desc>Fonte: DNIT+OSM</desc><type>FIXED</type></wpt>
<wpt lat="-14.797927" lon="-39.177491"><name>Radar</name><desc>Fonte: DNIT</desc><type>FIXED</type></wpt>
<wpt lat="-14.795053" lon="-39.286190"><name>Radar 50 km/h</name><desc>Fonte: OSM</desc><type>FIXED</type></wpt>
<wpt lat="-14.791717" lon="-39.032989"><name>Radar</name><desc>Fonte: OSM</desc><type>FIXED</type></wpt>
<wpt lat="-14.787478" lon="-39.032173"><name>Radar 40 km/h</name><desc>Fonte: OSM</desc><type>FIXED</type></wpt>
<wpt lat="-14.786640" lon="-39.290530"><name>Radar</name><desc>Fonte: DNIT</desc><type>FIXED</type></wpt>
<wpt lat="-14.785693" lon="-39.222698"><name>Radar</name><desc>Fonte: DNIT</desc><type>FIXED</type></wpt>
<wpt lat="-14.755903" lon="-40.688952"><name>Radar</name><desc>Fonte: OSM</desc><type>FIXED</type></wpt>
<wpt lat="-14.755785" lon="-40.688725"><name>Radar</name><desc>Fonte: OSM</desc><type>FIXED</type></wpt>
<wpt lat="-14.682161" lon="-40.529793"><name>Radar</name><desc>Fonte: OSM</desc><type>FIXED</type></wpt>
<wpt lat="-14.681823" lon="-40.528253"><name>Radar</name><desc>Fonte: OSM</desc><type>FIXED</type></wpt>
<wpt lat="-14.649143" lon="-40.456999"><name>Radar</name><desc>Fonte: DNIT</desc><type>FIXED</type></wpt>
<wpt lat="-14.642749" lon="-40.454536"><name>Radar</name><desc>Fonte: DNIT</desc><type>FIXED</type></wpt>
<wpt lat="-14.361881" lon="-40.340649"><name>Radar</name><desc>Fonte: OSM</desc><type>FIXED</type></wpt>
<wpt lat="-14.352180" lon="-40.334780"><name>Radar</name><desc>Fonte: OSM</desc><type>FIXED</type></wpt>
<wpt lat="-14.349976" lon="-40.333563"><name>Radar</name><desc>Fonte: OSM</desc><type>FIXED</type></wpt>
<wpt lat="-14.308910" lon="-39.321650"><name>Radar</name><desc>Fonte: DNIT · sentido 307° (noroeste)</desc><type>FIXED</type></wpt>
<wpt lat="-14.308548" lon="-39.321892"><name>Radar 40 km/h</name><desc>Fonte: OSM</desc><type>FIXED</type></wpt>
<wpt lat="-14.307720" lon="-39.322590"><name>Radar 40 km/h</name><desc>Fonte: DNIT+OSM · sentido 165° (sul)</desc><type>FIXED</type></wpt>
<wpt lat="-14.230785" lon="-41.629293"><name>Radar 50 km/h</name><desc>Fonte: OSM</desc><type>FIXED</type></wpt>
<wpt lat="-14.220229" lon="-41.640340"><name>Radar 50 km/h</name><desc>Fonte: OSM</desc><type>FIXED</type></wpt>
<wpt lat="-14.207173" lon="-41.677563"><name>Radar 40 km/h</name><desc>Fonte: OSM</desc><type>FIXED</type></wpt>
<wpt lat="-14.187038" lon="-41.670143"><name>Radar 60 km/h</name><desc>Fonte: OSM</desc><type>FIXED</type></wpt>
<wpt lat="-14.173041" lon="-39.323478"><name>Radar</name><desc>Fonte: DNIT</desc><type>FIXED</type></wpt>
<wpt lat="-14.141636" lon="-39.724902"><name>Radar</name><desc>Fonte: DNIT</desc><type>FIXED</type></wpt>
<wpt lat="-14.140470" lon="-39.351085"><name>Radar</name><desc>Fonte: DNIT</desc><type>FIXED</type></wpt>
<wpt lat="-14.137961" lon="-39.354832"><name>Radar</name><desc>Fonte: DNIT</desc><type>FIXED</type></wpt>
<wpt lat="-14.134616" lon="-39.747708"><name>Radar</name><desc>Fonte: DNIT</desc><type>FIXED</type></wpt>
<wpt lat="-14.133478" lon="-39.359030"><name>Radar</name><desc>Fonte: DNIT</desc><type>FIXED</type></wpt>
<wpt lat="-14.124797" lon="-39.763079"><name>Radar</name><desc>Fonte: DNIT</desc><type>FIXED</type></wpt>
<wpt lat="-14.058696" lon="-40.204841"><name>Radar</name><desc>Fonte: DNIT+OSM</desc><type>FIXED</type></wpt>
<wpt lat="-14.053164" lon="-40.203987"><name>Radar</name><desc>Fonte: DNIT+OSM</desc><type>FIXED</type></wpt>
<wpt lat="-14.036604" lon="-40.203297"><name>Radar</name><desc>Fonte: OSM</desc><type>FIXED</type></wpt>
<wpt lat="-14.036013" lon="-40.202831"><name>Radar</name><desc>Fonte: OSM</desc><type>FIXED</type></wpt>
<wpt lat="-14.018145" lon="-39.431316"><name>Radar 50 km/h</name><desc>Fonte: DNIT+OSM</desc><type>FIXED</type></wpt>
<wpt lat="-14.016860" lon="-39.434032"><name>Radar 50 km/h</name><desc>Fonte: DNIT+OSM</desc><type>FIXED</type></wpt>
<wpt lat="-13.986943" lon="-40.176384"><name>Radar</name><desc>Fonte: OSM</desc><type>FIXED</type></wpt>
<wpt lat="-13.966253" lon="-46.193194"><name>Radar</name><desc>Fonte: DNIT · sentido 134° (sudeste)</desc><type>FIXED</type></wpt>
<wpt lat="-13.871752" lon="-40.115370"><name>Radar 60 km/h</name><desc>Fonte: DNIT+OSM</desc><type>FIXED</type></wpt>
<wpt lat="-13.871682" lon="-40.116461"><name>Radar</name><desc>Fonte: OSM</desc><type>FIXED</type></wpt>
<wpt lat="-13.867972" lon="-40.059999"><name>Radar</name><desc>Fonte: DNIT</desc><type>FIXED</type></wpt>
<wpt lat="-13.867060" lon="-40.112862"><name>Radar 60 km/h</name><desc>Fonte: DNIT+OSM</desc><type>FIXED</type></wpt>
<wpt lat="-13.756210" lon="-39.487899"><name>Radar 60 km/h</name><desc>Fonte: DNIT+OSM</desc><type>FIXED</type></wpt>
<wpt lat="-13.746199" lon="-39.484108"><name>Radar 50 km/h</name><desc>Fonte: DNIT+OSM</desc><type>FIXED</type></wpt>
<wpt lat="-13.742569" lon="-39.482436"><name>Radar 60 km/h</name><desc>Fonte: OSM</desc><type>FIXED</type></wpt>
<wpt lat="-13.742339" lon="-39.482323"><name>Radar 60 km/h</name><desc>Fonte: OSM</desc><type>FIXED</type></wpt>
<wpt lat="-13.604690" lon="-39.494938"><name>Radar</name><desc>Fonte: DNIT</desc><type>FIXED</type></wpt>
<wpt lat="-13.604432" lon="-39.494841"><name>Radar 40 km/h</name><desc>Fonte: OSM</desc><type>FIXED</type></wpt>
<wpt lat="-13.602108" lon="-39.492365"><name>Radar 40 km/h</name><desc>Fonte: OSM</desc><type>FIXED</type></wpt>
<wpt lat="-13.599129" lon="-40.086236"><name>Radar</name><desc>Fonte: OSM</desc><type>FIXED</type></wpt>
<wpt lat="-13.522919" lon="-40.060656"><name>Radar</name><desc>Fonte: OSM</desc><type>FIXED</type></wpt>
<wpt lat="-13.522499" lon="-39.969086"><name>Radar</name><desc>Fonte: DNIT</desc><type>FIXED</type></wpt>
<wpt lat="-13.483164" lon="-40.043327"><name>Radar 60 km/h</name><desc>Fonte: OSM</desc><type>FIXED</type></wpt>
<wpt lat="-13.398937" lon="-44.339843"><name>Radar</name><desc>Fonte: DNIT</desc><type>FIXED</type></wpt>
<wpt lat="-13.272222" lon="-40.014267"><name>Radar</name><desc>Fonte: OSM</desc><type>FIXED</type></wpt>
<wpt lat="-13.213124" lon="-40.025616"><name>Radar</name><desc>Fonte: OSM</desc><type>FIXED</type></wpt>
<wpt lat="-13.202275" lon="-40.013806"><name>Radar</name><desc>Fonte: OSM</desc><type>FIXED</type></wpt>
<wpt lat="-13.162073" lon="-39.999456"><name>Radar</name><desc>Fonte: OSM</desc><type>FIXED</type></wpt>
<wpt lat="-13.014148" lon="-38.488325"><name>Radar 40 km/h</name><desc>Fonte: OSM</desc><type>FIXED</type></wpt>
<wpt lat="-13.012422" lon="-39.957927"><name>Radar</name><desc>Fonte: OSM</desc><type>FIXED</type></wpt>
<wpt lat="-13.012154" lon="-38.491747"><name>Radar 40 km/h</name><desc>Fonte: OSM</desc><type>FIXED</type></wpt>
<wpt lat="-13.012055" lon="-39.957754"><name>Radar</name><desc>Fonte: DNIT</desc><type>FIXED</type></wpt>
<wpt lat="-13.010890" lon="-38.467478"><name>Radar 60 km/h</name><desc>Fonte: OSM</desc><type>FIXED</type></wpt>
<wpt lat="-13.010783" lon="-38.501014"><name>Radar</name><desc>Fonte: OSM</desc><type>FIXED</type></wpt>
<wpt lat="-13.009529" lon="-38.527040"><name>Radar</name><desc>Fonte: OSM</desc><type>FIXED</type></wpt>
<wpt lat="-13.007430" lon="-38.532757"><name>Radar</name><desc>Fonte: OSM</desc><type>FIXED</type></wpt>
<wpt lat="-13.006229" lon="-39.956272"><name>Radar</name><desc>Fonte: OSM</desc><type>FIXED</type></wpt>
<wpt lat="-13.006058" lon="-38.457487"><name>Radar 40 km/h</name><desc>Fonte: OSM</desc><type>FIXED</type></wpt>
<wpt lat="-13.005891" lon="-39.956125"><name>Radar</name><desc>Fonte: DNIT</desc><type>FIXED</type></wpt>
<wpt lat="-13.003635" lon="-38.532753"><name>Radar</name><desc>Fonte: OSM</desc><type>FIXED</type></wpt>
<wpt lat="-13.003079" lon="-38.532579"><name>Radar</name><desc>Fonte: OSM</desc><type>FIXED</type></wpt>
<wpt lat="-13.002131" lon="-38.482614"><name>Radar</name><desc>Fonte: OSM</desc><type>FIXED</type></wpt>
<wpt lat="-12.997194" lon="-38.464329"><name>Radar 70 km/h</name><desc>Fonte: OSM</desc><type>FIXED</type></wpt>
<wpt lat="-12.991402" lon="-38.438298"><name>Radar 70 km/h</name><desc>Fonte: OSM</desc><type>FIXED</type></wpt>
<wpt lat="-12.991326" lon="-38.438381"><name>Radar 70 km/h</name><desc>Fonte: OSM</desc><type>FIXED</type></wpt>
<wpt lat="-12.988749" lon="-38.512982"><name>Radar</name><desc>Fonte: OSM</desc><type>FIXED</type></wpt>
<wpt lat="-12.985014" lon="-39.291151"><name>Radar</name><desc>Fonte: DNIT</desc><type>FIXED</type></wpt>
<wpt lat="-12.982907" lon="-38.433469"><name>Radar 70 km/h</name><desc>Fonte: OSM</desc><type>FIXED</type></wpt>
<wpt lat="-12.981415" lon="-38.431547"><name>Radar 60 km/h</name><desc>Fonte: OSM</desc><type>FIXED</type></wpt>
<wpt lat="-12.981304" lon="-38.431600"><name>Radar 60 km/h</name><desc>Fonte: OSM</desc><type>FIXED</type></wpt>
<wpt lat="-12.980502" lon="-39.286300"><name>Radar 40 km/h</name><desc>Fonte: OSM</desc><type>FIXED</type></wpt>
<wpt lat="-12.978723" lon="-39.284299"><name>Radar</name><desc>Fonte: DNIT</desc><type>FIXED</type></wpt>
<wpt lat="-12.976019" lon="-38.421112"><name>Radar 70 km/h</name><desc>Fonte: OSM</desc><type>FIXED</type></wpt>
<wpt lat="-12.973546" lon="-39.275640"><name>Radar 40 km/h</name><desc>Fonte: DNIT+OSM</desc><type>FIXED</type></wpt>
<wpt lat="-12.972934" lon="-38.447789"><name>Radar 80 km/h</name><desc>Fonte: OSM</desc><type>FIXED</type></wpt>
<wpt lat="-12.972562" lon="-38.504004"><name>Radar 60 km/h</name><desc>Fonte: OSM</desc><type>FIXED</type></wpt>
<wpt lat="-12.972544" lon="-38.448178"><name>Radar 80 km/h</name><desc>Fonte: OSM</desc><type>FIXED</type></wpt>
<wpt lat="-12.970308" lon="-38.409982"><name>Radar 70 km/h</name><desc>Fonte: OSM</desc><type>FIXED</type></wpt>
<wpt lat="-12.964584" lon="-39.272148"><name>Radar 40 km/h</name><desc>Fonte: OSM</desc><type>FIXED</type></wpt>
<wpt lat="-12.964284" lon="-38.436526"><name>Radar 80 km/h</name><desc>Fonte: OSM</desc><type>FIXED</type></wpt>
<wpt lat="-12.964270" lon="-39.271993"><name>Radar 40 km/h</name><desc>Fonte: DNIT+OSM</desc><type>FIXED</type></wpt>
<wpt lat="-12.963274" lon="-38.434674"><name>Radar 80 km/h</name><desc>Fonte: OSM</desc><type>FIXED</type></wpt>
<wpt lat="-12.960899" lon="-38.396577"><name>Radar 70 km/h</name><desc>Fonte: OSM</desc><type>FIXED</type></wpt>
<wpt lat="-12.957584" lon="-38.454325"><name>Radar 50 km/h</name><desc>Fonte: OSM</desc><type>FIXED</type></wpt>
<wpt lat="-12.957547" lon="-38.454245"><name>Radar 50 km/h</name><desc>Fonte: OSM</desc><type>FIXED</type></wpt>
<wpt lat="-12.957413" lon="-38.465263"><name>Radar</name><desc>Fonte: OSM</desc><type>FIXED</type></wpt>
<wpt lat="-12.955829" lon="-38.386955"><name>Radar 70 km/h</name><desc>Fonte: OSM</desc><type>FIXED</type></wpt>
<wpt lat="-12.955398" lon="-38.386420"><name>Radar 70 km/h</name><desc>Fonte: OSM</desc><type>FIXED</type></wpt>
<wpt lat="-12.954744" lon="-38.471488"><name>Radar</name><desc>Fonte: DNIT · sentido 185° (sul)</desc><type>FIXED</type></wpt>
<wpt lat="-12.953522" lon="-38.379979"><name>Radar 70 km/h</name><desc>Fonte: OSM</desc><type>FIXED</type></wpt>
<wpt lat="-12.945356" lon="-38.469938"><name>Radar</name><desc>Fonte: DNIT · sentido 349° (norte)</desc><type>FIXED</type></wpt>
<wpt lat="-12.944651" lon="-38.365974"><name>Radar</name><desc>Fonte: OSM</desc><type>FIXED</type></wpt>
<wpt lat="-12.944629" lon="-38.365909"><name>Avanço de sinal</name><desc>Fonte: OSM</desc><type>RED_LIGHT</type></wpt>
<wpt lat="-12.944434" lon="-38.365906"><name>Avanço de sinal</name><desc>Fonte: OSM</desc><type>RED_LIGHT</type></wpt>
<wpt lat="-12.944406" lon="-38.365864"><name>Radar</name><desc>Fonte: OSM</desc><type>FIXED</type></wpt>
<wpt lat="-12.940795" lon="-38.335996"><name>Radar</name><desc>Fonte: OSM</desc><type>FIXED</type></wpt>
<wpt lat="-12.940708" lon="-38.335990"><name>Avanço de sinal</name><desc>Fonte: OSM</desc><type>RED_LIGHT</type></wpt>
<wpt lat="-12.940507" lon="-38.335880"><name>Radar</name><desc>Fonte: OSM</desc><type>FIXED</type></wpt>
<wpt lat="-12.940344" lon="-38.386347"><name>Radar 70 km/h</name><desc>Fonte: OSM</desc><type>FIXED</type></wpt>
<wpt lat="-12.939849" lon="-38.386533"><name>Radar 70 km/h</name><desc>Fonte: OSM</desc><type>FIXED</type></wpt>
<wpt lat="-12.935021" lon="-38.346575"><name>Radar 60 km/h</name><desc>Fonte: OSM</desc><type>FIXED</type></wpt>
<wpt lat="-12.934476" lon="-38.344194"><name>Radar 60 km/h</name><desc>Fonte: OSM</desc><type>FIXED</type></wpt>
<wpt lat="-12.932190" lon="-38.357636"><name>Radar 60 km/h</name><desc>Fonte: OSM</desc><type>FIXED</type></wpt>
<wpt lat="-12.929463" lon="-38.469600"><name>Radar</name><desc>Fonte: DNIT · sentido 223° (sudoeste)</desc><type>FIXED</type></wpt>
<wpt lat="-12.929302" lon="-38.357093"><name>Radar 60 km/h</name><desc>Fonte: OSM</desc><type>FIXED</type></wpt>
<wpt lat="-12.928961" lon="-38.348946"><name>Radar 60 km/h</name><desc>Fonte: OSM</desc><type>FIXED</type></wpt>
<wpt lat="-12.928387" lon="-38.356841"><name>Radar</name><desc>Fonte: OSM</desc><type>FIXED</type></wpt>
<wpt lat="-12.928373" lon="-38.356814"><name>Avanço de sinal</name><desc>Fonte: OSM</desc><type>RED_LIGHT</type></wpt>
<wpt lat="-12.925057" lon="-38.375760"><name>Radar 80 km/h</name><desc>Fonte: OSM</desc><type>FIXED</type></wpt>
<wpt lat="-12.924228" lon="-38.375230"><name>Radar 80 km/h</name><desc>Fonte: OSM</desc><type>FIXED</type></wpt>
<wpt lat="-12.923472" lon="-38.367297"><name>Radar 80 km/h</name><desc>Fonte: OSM</desc><type>FIXED</type></wpt>
<wpt lat="-12.922029" lon="-38.359548"><name>Radar 80 km/h</name><desc>Fonte: OSM</desc><type>FIXED</type></wpt>
<wpt lat="-12.920814" lon="-38.357000"><name>Radar 80 km/h</name><desc>Fonte: OSM</desc><type>FIXED</type></wpt>
<wpt lat="-12.920712" lon="-38.466442"><name>Radar</name><desc>Fonte: DNIT · sentido 43° (nordeste)</desc><type>FIXED</type></wpt>
<wpt lat="-12.916282" lon="-38.345833"><name>Radar 80 km/h</name><desc>Fonte: OSM</desc><type>FIXED</type></wpt>
<wpt lat="-12.916063" lon="-38.345534"><name>Radar 80 km/h</name><desc>Fonte: OSM</desc><type>FIXED</type></wpt>
<wpt lat="-12.913692" lon="-38.351382"><name>Radar 60 km/h</name><desc>Fonte: OSM</desc><type>FIXED</type></wpt>
<wpt lat="-12.913584" lon="-38.351458"><name>Radar 60 km/h</name><desc>Fonte: OSM</desc><type>FIXED</type></wpt>
<wpt lat="-12.911760" lon="-38.459364"><name>Radar</name><desc>Fonte: DNIT · sentido 205° (sudoeste)</desc><type>FIXED</type></wpt>
<wpt lat="-12.910074" lon="-38.458233"><name>Radar</name><desc>Fonte: DNIT · sentido 24° (nordeste)</desc><type>FIXED</type></wpt>
<wpt lat="-12.903413" lon="-38.340975"><name>Radar 60 km/h</name><desc>Fonte: OSM</desc><type>FIXED</type></wpt>
<wpt lat="-12.903266" lon="-38.340156"><name>Radar 60 km/h</name><desc>Fonte: OSM</desc><type>FIXED</type></wpt>
<wpt lat="-12.896254" lon="-38.326624"><name>Radar 60 km/h</name><desc>Fonte: OSM</desc><type>FIXED</type></wpt>
<wpt lat="-12.895543" lon="-38.447882"><name>Radar 40 km/h</name><desc>Fonte: OSM</desc><type>FIXED</type></wpt>
<wpt lat="-12.892382" lon="-38.324765"><name>Radar 60 km/h</name><desc>Fonte: OSM</desc><type>FIXED</type></wpt>
<wpt lat="-12.886068" lon="-38.318933"><name>Radar 60 km/h</name><desc>Fonte: OSM</desc><type>FIXED</type></wpt>
<wpt lat="-12.885764" lon="-38.318948"><name>Radar 60 km/h</name><desc>Fonte: OSM</desc><type>FIXED</type></wpt>
<wpt lat="-12.873818" lon="-38.305412"><name>Radar 60 km/h</name><desc>Fonte: OSM</desc><type>FIXED</type></wpt>
<wpt lat="-12.873740" lon="-38.305477"><name>Radar 60 km/h</name><desc>Fonte: OSM</desc><type>FIXED</type></wpt>
<wpt lat="-12.871393" lon="-38.426817"><name>Radar 100 km/h</name><desc>Fonte: DNIT+OSM · sentido 31° (nordeste)</desc><type>FIXED</type></wpt>
<wpt lat="-12.870863" lon="-38.426789"><name>Radar 100 km/h</name><desc>Fonte: DNIT+OSM · sentido 211° (sudoeste)</desc><type>FIXED</type></wpt>
<wpt lat="-12.863852" lon="-38.292511"><name>Radar 60 km/h</name><desc>Fonte: OSM</desc><type>FIXED</type></wpt>
<wpt lat="-12.863758" lon="-38.292627"><name>Radar 60 km/h</name><desc>Fonte: OSM</desc><type>FIXED</type></wpt>
<wpt lat="-12.858691" lon="-38.363464"><name>Radar 80 km/h</name><desc>Fonte: OSM</desc><type>FIXED</type></wpt>
<wpt lat="-12.855138" lon="-38.362294"><name>Radar 80 km/h</name><desc>Fonte: OSM</desc><type>FIXED</type></wpt>
<wpt lat="-12.851254" lon="-38.419151"><name>Radar</name><desc>Fonte: DNIT · sentido 199° (sul)</desc><type>FIXED</type></wpt>
<wpt lat="-12.829761" lon="-38.383273"><name>Radar 80 km/h</name><desc>Fonte: OSM</desc><type>FIXED</type></wpt>
<wpt lat="-12.829698" lon="-38.383230"><name>Radar 80 km/h</name><desc>Fonte: OSM</desc><type>FIXED</type></wpt>
<wpt lat="-12.754381" lon="-38.428962"><name>Radar</name><desc>Fonte: DNIT · sentido 327° (noroeste)</desc><type>FIXED</type></wpt>
<wpt lat="-12.747743" lon="-38.433752"><name>Radar</name><desc>Fonte: DNIT · sentido 147° (sudeste)</desc><type>FIXED</type></wpt>
<wpt lat="-12.740261" lon="-39.183985"><name>Radar</name><desc>Fonte: DNIT</desc><type>FIXED</type></wpt>
<wpt lat="-12.735309" lon="-39.183819"><name>Radar 60 km/h</name><desc>Fonte: OSM</desc><type>FIXED</type></wpt>
<wpt lat="-12.729517" lon="-39.180892"><name>Radar 60 km/h</name><desc>Fonte: DNIT+OSM</desc><type>FIXED</type></wpt>
<wpt lat="-12.693044" lon="-39.697150"><name>Radar</name><desc>Fonte: OSM</desc><type>FIXED</type></wpt>
<wpt lat="-12.684387" lon="-45.930663"><name>Radar</name><desc>Fonte: DNIT</desc><type>FIXED</type></wpt>
<wpt lat="-12.682702" lon="-39.142411"><name>Radar</name><desc>Fonte: DNIT</desc><type>FIXED</type></wpt>
<wpt lat="-12.665453" lon="-39.113021"><name>Radar 50 km/h</name><desc>Fonte: OSM</desc><type>FIXED</type></wpt>
<wpt lat="-12.665256" lon="-39.113160"><name>Radar 50 km/h</name><desc>Fonte: OSM</desc><type>FIXED</type></wpt>
<wpt lat="-12.663453" lon="-39.128577"><name>Radar 40 km/h</name><desc>Fonte: OSM</desc><type>FIXED</type></wpt>
<wpt lat="-12.663316" lon="-39.116125"><name>Radar 50 km/h</name><desc>Fonte: OSM</desc><type>FIXED</type></wpt>
<wpt lat="-12.663232" lon="-39.116088"><name>Radar 50 km/h</name><desc>Fonte: OSM</desc><type>FIXED</type></wpt>
<wpt lat="-12.663199" lon="-39.128474"><name>Radar</name><desc>Fonte: DNIT</desc><type>FIXED</type></wpt>
<wpt lat="-12.652813" lon="-39.121996"><name>Radar</name><desc>Fonte: DNIT</desc><type>FIXED</type></wpt>
<wpt lat="-12.649461" lon="-39.118441"><name>Radar 60 km/h</name><desc>Fonte: OSM</desc><type>FIXED</type></wpt>
<wpt lat="-12.648937" lon="-39.117678"><name>Radar</name><desc>Fonte: DNIT</desc><type>FIXED</type></wpt>
<wpt lat="-12.635748" lon="-38.478217"><name>Radar</name><desc>Fonte: DNIT · sentido 165° (sul)</desc><type>FIXED</type></wpt>
<wpt lat="-12.628950" lon="-39.092156"><name>Radar</name><desc>Fonte: DNIT</desc><type>FIXED</type></wpt>
<wpt lat="-12.612592" lon="-39.568233"><name>Radar</name><desc>Fonte: OSM</desc><type>FIXED</type></wpt>
<wpt lat="-12.609124" lon="-39.077622"><name>Radar</name><desc>Fonte: DNIT</desc><type>FIXED</type></wpt>
<wpt lat="-12.602986" lon="-39.015243"><name>Radar</name><desc>Fonte: DNIT</desc><type>FIXED</type></wpt>
<wpt lat="-12.602100" lon="-39.051800"><name>Radar</name><desc>Fonte: DNIT</desc><type>FIXED</type></wpt>
<wpt lat="-12.601955" lon="-39.051528"><name>Radar 40 km/h</name><desc>Fonte: OSM</desc><type>FIXED</type></wpt>
<wpt lat="-12.569637" lon="-38.975431"><name>Radar</name><desc>Fonte: DNIT</desc><type>FIXED</type></wpt>
<wpt lat="-12.554937" lon="-38.977916"><name>Radar 60 km/h</name><desc>Fonte: DNIT+OSM</desc><type>FIXED</type></wpt>
<wpt lat="-12.534563" lon="-38.504926"><name>Radar</name><desc>Fonte: DNIT</desc><type>FIXED</type></wpt>
<wpt lat="-12.533343" lon="-39.417652"><name>Radar</name><desc>Fonte: DNIT · sentido 63° (nordeste)</desc><type>FIXED</type></wpt>
<wpt lat="-12.530323" lon="-39.412158"><name>Radar</name><desc>Fonte: DNIT+OSM · sentido 243° (sudoeste)</desc><type>FIXED</type></wpt>
<wpt lat="-12.528146" lon="-40.307197"><name>Radar 40 km/h</name><desc>Fonte: OSM</desc><type>FIXED</type></wpt>
<wpt lat="-12.528115" lon="-40.307273"><name>Radar 40 km/h</name><desc>Fonte: OSM</desc><type>FIXED</type></wpt>
<wpt lat="-12.526044" lon="-40.295435"><name>Radar 40 km/h</name><desc>Fonte: OSM</desc><type>FIXED</type></wpt>
<wpt lat="-12.519312" lon="-38.970644"><name>Radar</name><desc>Fonte: DNIT · sentido 21° (norte)</desc><type>FIXED</type></wpt>
<wpt lat="-12.518836" lon="-38.970703"><name>Radar</name><desc>Fonte: DNIT · sentido 203° (sudoeste)</desc><type>FIXED</type></wpt>
<wpt lat="-12.514151" lon="-40.305653"><name>Radar 40 km/h</name><desc>Fonte: OSM</desc><type>FIXED</type></wpt>
<wpt lat="-12.514102" lon="-40.305559"><name>Radar 40 km/h</name><desc>Fonte: OSM</desc><type>FIXED</type></wpt>
<wpt lat="-12.510189" lon="-40.309479"><name>Radar 60 km/h</name><desc>Fonte: OSM</desc><type>FIXED</type></wpt>
<wpt lat="-12.510180" lon="-40.309369"><name>Radar 60 km/h</name><desc>Fonte: OSM</desc><type>FIXED</type></wpt>
<wpt lat="-12.505597" lon="-41.213772"><name>Radar 30 km/h</name><desc>Fonte: DNIT+OSM</desc><type>FIXED</type></wpt>
<wpt lat="-12.502268" lon="-40.429665"><name>Radar</name><desc>Fonte: DNIT</desc><type>FIXED</type></wpt>
<wpt lat="-12.499210" lon="-41.292689"><name>Radar 60 km/h</name><desc>Fonte: OSM</desc><type>FIXED</type></wpt>
<wpt lat="-12.493973" lon="-41.328133"><name>Radar 50 km/h</name><desc>Fonte: DNIT+OSM</desc><type>FIXED</type></wpt>
<wpt lat="-12.491689" lon="-38.485862"><name>Radar</name><desc>Fonte: DNIT</desc><type>FIXED</type></wpt>
<wpt lat="-12.465931" lon="-41.416303"><name>Radar</name><desc>Fonte: DNIT</desc><type>FIXED</type></wpt>
<wpt lat="-12.465770" lon="-38.935106"><name>Radar</name><desc>Fonte: DNIT</desc><type>FIXED</type></wpt>
<wpt lat="-12.454698" lon="-38.704158"><name>Radar</name><desc>Fonte: DNIT · sentido 307° (noroeste)</desc><type>FIXED</type></wpt>
<wpt lat="-12.449212" lon="-38.711989"><name>Radar</name><desc>Fonte: DNIT · sentido 127° (sudeste)</desc><type>FIXED</type></wpt>
<wpt lat="-12.445127" lon="-40.875646"><name>Radar</name><desc>Fonte: DNIT</desc><type>FIXED</type></wpt>
<wpt lat="-12.443979" lon="-42.176988"><name>Radar</name><desc>Fonte: DNIT</desc><type>FIXED</type></wpt>
<wpt lat="-12.443694" lon="-42.172340"><name>Radar</name><desc>Fonte: DNIT</desc><type>FIXED</type></wpt>
<wpt lat="-12.442874" lon="-39.235092"><name>Radar</name><desc>Fonte: OSM</desc><type>FIXED</type></wpt>
<wpt lat="-12.438770" lon="-39.227002"><name>Radar</name><desc>Fonte: OSM</desc><type>FIXED</type></wpt>
<wpt lat="-12.430288" lon="-41.791282"><name>Radar</name><desc>Fonte: DNIT</desc><type>FIXED</type></wpt>
<wpt lat="-12.429507" lon="-38.912241"><name>Radar</name><desc>Fonte: DNIT</desc><type>FIXED</type></wpt>
<wpt lat="-12.428823" lon="-41.781246"><name>Radar 50 km/h</name><desc>Fonte: DNIT+OSM</desc><type>FIXED</type></wpt>
<wpt lat="-12.428015" lon="-41.774003"><name>Radar 40 km/h</name><desc>Fonte: DNIT+OSM</desc><type>FIXED</type></wpt>
<wpt lat="-12.427370" lon="-41.769167"><name>Radar 40 km/h</name><desc>Fonte: DNIT+OSM</desc><type>FIXED</type></wpt>
<wpt lat="-12.419263" lon="-38.747894"><name>Radar</name><desc>Fonte: DNIT · sentido 303° (noroeste)</desc><type>FIXED</type></wpt>
<wpt lat="-12.418416" lon="-38.749352"><name>Radar</name><desc>Fonte: DNIT · sentido 131° (sudeste)</desc><type>FIXED</type></wpt>
<wpt lat="-12.397791" lon="-38.373159"><name>Radar</name><desc>Fonte: DNIT</desc><type>FIXED</type></wpt>
<wpt lat="-12.382409" lon="-38.382756"><name>Radar 40 km/h</name><desc>Fonte: OSM</desc><type>FIXED</type></wpt>
<wpt lat="-12.380194" lon="-38.798901"><name>Radar</name><desc>Fonte: DNIT · sentido 308° (noroeste)</desc><type>FIXED</type></wpt>
<wpt lat="-12.375451" lon="-38.805513"><name>Radar</name><desc>Fonte: DNIT · sentido 128° (sudeste)</desc><type>FIXED</type></wpt>
<wpt lat="-12.369764" lon="-38.386156"><name>Radar</name><desc>Fonte: DNIT</desc><type>FIXED</type></wpt>
<wpt lat="-12.362564" lon="-38.821952"><name>Radar</name><desc>Fonte: DNIT · sentido 308° (noroeste)</desc><type>FIXED</type></wpt>
<wpt lat="-12.355618" lon="-39.096419"><name>Radar</name><desc>Fonte: DNIT · sentido 50° (nordeste)</desc><type>FIXED</type></wpt>
<wpt lat="-12.354940" lon="-38.790397"><name>Radar 50 km/h</name><desc>Fonte: DNIT+OSM · sentido 95° (leste)</desc><type>FIXED</type></wpt>
<wpt lat="-12.354924" lon="-38.787376"><name>Radar</name><desc>Fonte: DNIT · sentido 275° (oeste)</desc><type>FIXED</type></wpt>
<wpt lat="-12.349829" lon="-39.091047"><name>Radar</name><desc>Fonte: DNIT · sentido 211° (sudoeste)</desc><type>FIXED</type></wpt>
<wpt lat="-12.337404" lon="-38.849010"><name>Radar</name><desc>Fonte: DNIT · sentido 314° (noroeste)</desc><type>FIXED</type></wpt>
<wpt lat="-12.337175" lon="-38.757019"><name>Radar</name><desc>Fonte: DNIT · sentido 51° (nordeste)</desc><type>FIXED</type></wpt>
<wpt lat="-12.336575" lon="-38.850752"><name>Radar</name><desc>Fonte: DNIT · sentido 128° (sudeste)</desc><type>FIXED</type></wpt>
<wpt lat="-12.336434" lon="-39.072517"><name>Radar</name><desc>Fonte: OSM</desc><type>FIXED</type></wpt>
<wpt lat="-12.335344" lon="-38.755150"><name>Radar</name><desc>Fonte: DNIT · sentido 231° (sudoeste)</desc><type>FIXED</type></wpt>
<wpt lat="-12.334396" lon="-38.383248"><name>Radar</name><desc>Fonte: DNIT</desc><type>FIXED</type></wpt>
<wpt lat="-12.321267" lon="-38.870584"><name>Radar</name><desc>Fonte: DNIT · sentido 308° (noroeste)</desc><type>FIXED</type></wpt>
<wpt lat="-12.318141" lon="-38.875070"><name>Radar</name><desc>Fonte: DNIT · sentido 128° (sudeste)</desc><type>FIXED</type></wpt>
<wpt lat="-12.308651" lon="-38.372904"><name>Radar 50 km/h</name><desc>Fonte: DNIT+OSM</desc><type>FIXED</type></wpt>
<wpt lat="-12.305474" lon="-39.042598"><name>Radar</name><desc>Fonte: OSM</desc><type>FIXED</type></wpt>
<wpt lat="-12.302251" lon="-38.895690"><name>Radar</name><desc>Fonte: DNIT · sentido 308° (noroeste)</desc><type>FIXED</type></wpt>
<wpt lat="-12.297554" lon="-38.902273"><name>Radar</name><desc>Fonte: DNIT · sentido 128° (sudeste)</desc><type>FIXED</type></wpt>
<wpt lat="-12.293058" lon="-39.024043"><name>Radar</name><desc>Fonte: OSM</desc><type>FIXED</type></wpt>
<wpt lat="-12.288346" lon="-39.009893"><name>Radar</name><desc>Fonte: OSM</desc><type>FIXED</type></wpt>
<wpt lat="-12.279160" lon="-38.941365"><name>Radar</name><desc>Fonte: DNIT</desc><type>FIXED</type></wpt>
<wpt lat="-12.275545" lon="-38.370893"><name>Radar</name><desc>Fonte: DNIT</desc><type>FIXED</type></wpt>
<wpt lat="-12.272599" lon="-38.994073"><name>Radar</name><desc>Fonte: OSM</desc><type>FIXED</type></wpt>
<wpt lat="-12.229315" lon="-43.835568"><name>Radar</name><desc>Fonte: DNIT</desc><type>FIXED</type></wpt>
<wpt lat="-12.229177" lon="-43.915695"><name>Radar</name><desc>Fonte: DNIT</desc><type>FIXED</type></wpt>
<wpt lat="-12.226878" lon="-38.952904"><name>Radar</name><desc>Fonte: OSM</desc><type>FIXED</type></wpt>
<wpt lat="-12.226036" lon="-43.831353"><name>Radar</name><desc>Fonte: DNIT</desc><type>FIXED</type></wpt>
<wpt lat="-12.224384" lon="-38.965215"><name>Radar</name><desc>Fonte: DNIT</desc><type>FIXED</type></wpt>
<wpt lat="-12.223845" lon="-38.965273"><name>Radar</name><desc>Fonte: OSM</desc><type>FIXED</type></wpt>
<wpt lat="-12.211629" lon="-38.965539"><name>Avanço de sinal</name><desc>Fonte: OSM</desc><type>RED_LIGHT</type></wpt>
<wpt lat="-12.211488" lon="-38.965628"><name>Avanço de sinal</name><desc>Fonte: OSM</desc><type>RED_LIGHT</type></wpt>
<wpt lat="-12.202856" lon="-38.965518"><name>Radar</name><desc>Fonte: OSM</desc><type>FIXED</type></wpt>
<wpt lat="-12.200427" lon="-38.965128"><name>Radar</name><desc>Fonte: DNIT</desc><type>FIXED</type></wpt>
<wpt lat="-12.199862" lon="-43.669899"><name>Radar</name><desc>Fonte: DNIT</desc><type>FIXED</type></wpt>
<wpt lat="-12.199676" lon="-38.965710"><name>Radar</name><desc>Fonte: DNIT</desc><type>FIXED</type></wpt>
<wpt lat="-12.192059" lon="-38.965166"><name>Radar</name><desc>Fonte: DNIT+OSM</desc><type>FIXED</type></wpt>
<wpt lat="-12.191508" lon="-38.965330"><name>Radar</name><desc>Fonte: OSM</desc><type>FIXED</type></wpt>
<wpt lat="-12.188021" lon="-38.965111"><name>Radar</name><desc>Fonte: DNIT+OSM</desc><type>FIXED</type></wpt>
<wpt lat="-12.187209" lon="-38.965273"><name>Radar</name><desc>Fonte: OSM</desc><type>FIXED</type></wpt>
<wpt lat="-12.162060" lon="-38.415016"><name>Radar</name><desc>Fonte: DNIT</desc><type>FIXED</type></wpt>
<wpt lat="-12.156051" lon="-38.406514"><name>Radar</name><desc>Fonte: DNIT</desc><type>FIXED</type></wpt>
<wpt lat="-12.148766" lon="-38.395991"><name>Radar 40 km/h</name><desc>Fonte: OSM</desc><type>FIXED</type></wpt>
<wpt lat="-12.148499" lon="-38.395721"><name>Radar 40 km/h</name><desc>Fonte: DNIT+OSM</desc><type>FIXED</type></wpt>
<wpt lat="-12.141912" lon="-44.887869"><name>Radar</name><desc>Fonte: DNIT</desc><type>FIXED</type></wpt>
<wpt lat="-12.135975" lon="-43.351179"><name>Radar</name><desc>Fonte: DNIT</desc><type>FIXED</type></wpt>
<wpt lat="-12.129588" lon="-45.010007"><name>Radar</name><desc>Fonte: DNIT</desc><type>FIXED</type></wpt>
<wpt lat="-12.113576" lon="-45.160997"><name>Radar</name><desc>Fonte: DNIT</desc><type>FIXED</type></wpt>
<wpt lat="-12.090989" lon="-45.792996"><name>Radar 50 km/h</name><desc>Fonte: OSM</desc><type>FIXED</type></wpt>
<wpt lat="-12.090872" lon="-45.793044"><name>Radar 50 km/h</name><desc>Fonte: OSM</desc><type>FIXED</type></wpt>
<wpt lat="-12.087388" lon="-43.158080"><name>Radar</name><desc>Fonte: DNIT</desc><type>FIXED</type></wpt>
<wpt lat="-12.082389" lon="-45.728561"><name>Radar</name><desc>Fonte: DNIT</desc><type>FIXED</type></wpt>
<wpt lat="-11.833960" lon="-44.855913"><name>Radar</name><desc>Fonte: DNIT</desc><type>FIXED</type></wpt>
<wpt lat="-11.820841" lon="-38.357713"><name>Radar</name><desc>Fonte: DNIT</desc><type>FIXED</type></wpt>
<wpt lat="-11.817251" lon="-39.376389"><name>Radar</name><desc>Fonte: DNIT</desc><type>FIXED</type></wpt>
<wpt lat="-11.798258" lon="-38.350432"><name>Radar 50 km/h</name><desc>Fonte: OSM</desc><type>FIXED</type></wpt>
<wpt lat="-11.798080" lon="-38.350406"><name>Radar 50 km/h</name><desc>Fonte: OSM</desc><type>FIXED</type></wpt>
<wpt lat="-11.792818" lon="-38.350746"><name>Radar 40 km/h</name><desc>Fonte: OSM</desc><type>FIXED</type></wpt>
<wpt lat="-11.766056" lon="-44.905492"><name>Radar</name><desc>Fonte: DNIT</desc><type>FIXED</type></wpt>
<wpt lat="-11.722793" lon="-38.986438"><name>Radar</name><desc>Fonte: OSM</desc><type>FIXED</type></wpt>
<wpt lat="-11.722335" lon="-38.986444"><name>Radar</name><desc>Fonte: OSM</desc><type>FIXED</type></wpt>
<wpt lat="-11.719149" lon="-38.986492"><name>Radar</name><desc>Fonte: OSM</desc><type>FIXED</type></wpt>
<wpt lat="-11.684238" lon="-38.990627"><name>Radar</name><desc>Fonte: OSM</desc><type>FIXED</type></wpt>
<wpt lat="-11.672696" lon="-38.998113"><name>Radar</name><desc>Fonte: DNIT+OSM</desc><type>FIXED</type></wpt>
<wpt lat="-11.672361" lon="-38.998320"><name>Radar</name><desc>Fonte: OSM</desc><type>FIXED</type></wpt>
<wpt lat="-11.652925" lon="-38.993085"><name>Radar</name><desc>Fonte: OSM</desc><type>FIXED</type></wpt>
<wpt lat="-11.549476" lon="-38.293828"><name>Radar</name><desc>Fonte: DNIT</desc><type>FIXED</type></wpt>
<wpt lat="-11.539150" lon="-37.856870"><name>Radar</name><desc>Fonte: DNIT</desc><type>FIXED</type></wpt>
<wpt lat="-11.507829" lon="-38.298146"><name>Radar</name><desc>Fonte: DNIT</desc><type>FIXED</type></wpt>
<wpt lat="-11.497966" lon="-38.296787"><name>Radar</name><desc>Fonte: DNIT</desc><type>FIXED</type></wpt>
<wpt lat="-11.416828" lon="-38.293050"><name>Radar</name><desc>Fonte: DNIT</desc><type>FIXED</type></wpt>
<wpt lat="-11.379435" lon="-40.003723"><name>Radar</name><desc>Fonte: DNIT</desc><type>FIXED</type></wpt>
<wpt lat="-11.377076" lon="-44.916449"><name>Radar</name><desc>Fonte: DNIT</desc><type>FIXED</type></wpt>
<wpt lat="-11.295248" lon="-41.852387"><name>Radar 50 km/h</name><desc>Fonte: OSM</desc><type>FIXED</type></wpt>
<wpt lat="-11.294931" lon="-41.852106"><name>Radar 50 km/h</name><desc>Fonte: OSM</desc><type>FIXED</type></wpt>
<wpt lat="-11.203685" lon="-40.489428"><name>Radar</name><desc>Fonte: DNIT</desc><type>FIXED</type></wpt>
<wpt lat="-11.100979" lon="-38.515633"><name>Radar</name><desc>Fonte: DNIT</desc><type>FIXED</type></wpt>
<wpt lat="-11.087363" lon="-40.672731"><name>Radar</name><desc>Fonte: DNIT</desc><type>FIXED</type></wpt>
<wpt lat="-10.835329" lon="-38.562171"><name>Radar</name><desc>Fonte: OSM</desc><type>FIXED</type></wpt>
<wpt lat="-10.835080" lon="-38.532111"><name>Radar</name><desc>Fonte: DNIT</desc><type>FIXED</type></wpt>
<wpt lat="-10.834835" lon="-38.561405"><name>Radar</name><desc>Fonte: OSM</desc><type>FIXED</type></wpt>
<wpt lat="-10.830682" lon="-38.532168"><name>Radar</name><desc>Fonte: DNIT</desc><type>FIXED</type></wpt>
<wpt lat="-10.826262" lon="-38.531763"><name>Radar</name><desc>Fonte: DNIT</desc><type>FIXED</type></wpt>
<wpt lat="-10.822279" lon="-38.531347"><name>Radar</name><desc>Fonte: DNIT</desc><type>FIXED</type></wpt>
<wpt lat="-10.819627" lon="-38.530847"><name>Radar 60 km/h</name><desc>Fonte: DNIT+OSM</desc><type>FIXED</type></wpt>
<wpt lat="-10.786294" lon="-38.519230"><name>Radar</name><desc>Fonte: OSM</desc><type>FIXED</type></wpt>
<wpt lat="-10.786162" lon="-38.519181"><name>Radar</name><desc>Fonte: OSM</desc><type>FIXED</type></wpt>
<wpt lat="-10.446929" lon="-40.185171"><name>Radar</name><desc>Fonte: DNIT</desc><type>FIXED</type></wpt>
<wpt lat="-10.080148" lon="-38.338462"><name>Radar</name><desc>Fonte: OSM</desc><type>FIXED</type></wpt>
<wpt lat="-10.079944" lon="-38.338844"><name>Radar</name><desc>Fonte: OSM</desc><type>FIXED</type></wpt>
<wpt lat="-10.077099" lon="-38.341168"><name>Radar</name><desc>Fonte: OSM</desc><type>FIXED</type></wpt>
<wpt lat="-10.076219" lon="-38.341566"><name>Radar</name><desc>Fonte: OSM</desc><type>FIXED</type></wpt>
<wpt lat="-9.701641" lon="-38.229304"><name>Radar</name><desc>Fonte: OSM</desc><type>FIXED</type></wpt>
<wpt lat="-9.454081" lon="-40.487424"><name>Radar 40 km/h</name><desc>Fonte: DNIT+OSM</desc><type>FIXED</type></wpt>
<wpt lat="-9.453751" lon="-40.480351"><name>Radar</name><desc>Fonte: DNIT</desc><type>FIXED</type></wpt>
<wpt lat="-9.453689" lon="-40.480906"><name>Radar 40 km/h</name><desc>Fonte: OSM</desc><type>FIXED</type></wpt>
<wpt lat="-9.453677" lon="-40.487708"><name>Radar 40 km/h</name><desc>Fonte: OSM</desc><type>FIXED</type></wpt>
<wpt lat="-9.451370" lon="-40.515024"><name>Radar 50 km/h</name><desc>Fonte: OSM</desc><type>FIXED</type></wpt>
<wpt lat="-9.451348" lon="-40.513660"><name>Radar 50 km/h</name><desc>Fonte: OSM</desc><type>FIXED</type></wpt>
<wpt lat="-9.451213" lon="-40.484222"><name>Radar 40 km/h</name><desc>Fonte: DNIT+OSM</desc><type>FIXED</type></wpt>
<wpt lat="-9.450986" lon="-40.520124"><name>Radar 50 km/h</name><desc>Fonte: OSM</desc><type>FIXED</type></wpt>
<wpt lat="-9.450042" lon="-40.524282"><name>Radar 50 km/h</name><desc>Fonte: OSM</desc><type>FIXED</type></wpt>
<wpt lat="-9.443709" lon="-40.492284"><name>Radar 40 km/h</name><desc>Fonte: DNIT+OSM</desc><type>FIXED</type></wpt>
<wpt lat="-9.439701" lon="-40.495895"><name>Radar 40 km/h</name><desc>Fonte: DNIT+OSM</desc><type>FIXED</type></wpt>
<wpt lat="-9.439211" lon="-40.496473"><name>Radar 40 km/h</name><desc>Fonte: OSM</desc><type>FIXED</type></wpt>
<wpt lat="-9.438939" lon="-40.527142"><name>Radar 40 km/h</name><desc>Fonte: OSM</desc><type>FIXED</type></wpt>
<wpt lat="-9.424627" lon="-40.519844"><name>Radar 50 km/h</name><desc>Fonte: OSM</desc><type>FIXED</type></wpt>
<wpt lat="-9.422852" lon="-40.500742"><name>Radar 50 km/h</name><desc>Fonte: OSM</desc><type>FIXED</type></wpt>
<wpt lat="-9.422691" lon="-40.500681"><name>Radar 50 km/h</name><desc>Fonte: OSM</desc><type>FIXED</type></wpt>
<wpt lat="-9.421912" lon="-40.523803"><name>Radar 40 km/h</name><desc>Fonte: OSM</desc><type>FIXED</type></wpt>
<wpt lat="-9.421868" lon="-40.523602"><name>Radar 40 km/h</name><desc>Fonte: OSM</desc><type>FIXED</type></wpt>
<wpt lat="-9.421494" lon="-38.198421"><name>Radar</name><desc>Fonte: OSM</desc><type>FIXED</type></wpt>
<wpt lat="-9.417990" lon="-40.520823"><name>Radar 50 km/h</name><desc>Fonte: OSM</desc><type>FIXED</type></wpt>
<wpt lat="-9.414917" lon="-40.519290"><name>Radar 40 km/h</name><desc>Fonte: OSM</desc><type>FIXED</type></wpt>
<wpt lat="-9.411157" lon="-40.505938"><name>Radar 50 km/h</name><desc>Fonte: OSM</desc><type>FIXED</type></wpt>
</gpx>