<?xml version="1.0" encoding="UTF-8"?>
<gpx version="1.1" creator="Pardal" xmlns="http://www.topografix.com/GPX/1/1">
<metadata><name>Pardal — radares — MS</name><desc>Pardal — © colaboradores do OpenStreetMap (ODbL 1.0) e fontes abertas listadas no README</desc></metadata>
<wpt lat="-24.010345" lon="-54.305205"><name>Radar 60 km/h</name><desc>Fonte: ANTT</desc><type>FIXED</type></wpt>
<wpt lat="-24.009795" lon="-54.306174"><name>Radar</name><desc>Fonte: OSM</desc><type>FIXED</type></wpt>
<wpt lat="-23.945694" lon="-54.283600"><name>Radar 60 km/h</name><desc>Fonte: ANTT</desc><type>FIXED</type></wpt>
<wpt lat="-23.938598" lon="-54.281076"><name>Radar 40 km/h</name><desc>Fonte: ANTT</desc><type>FIXED</type></wpt>
<wpt lat="-23.876830" lon="-54.321937"><name>Radar 100 km/h</name><desc>Fonte: ANTT · sentido 329° (noroeste)</desc><type>FIXED</type></wpt>
<wpt lat="-23.871613" lon="-54.325601"><name>Radar 100 km/h</name><desc>Fonte: ANTT · sentido 148° (sudeste)</desc><type>FIXED</type></wpt>
<wpt lat="-23.803890" lon="-54.305911"><name>Radar 100 km/h</name><desc>Fonte: ANTT</desc><type>FIXED</type></wpt>
<wpt lat="-23.801533" lon="-54.298772"><name>Radar 100 km/h</name><desc>Fonte: ANTT</desc><type>FIXED</type></wpt>
<wpt lat="-23.492776" lon="-54.185490"><name>Radar 60 km/h</name><desc>Fonte: ANTT · sentido 191° (sul)</desc><type>FIXED</type></wpt>
<wpt lat="-23.059273" lon="-54.212750"><name>Radar 30 km/h</name><desc>Fonte: OSM</desc><type>FIXED</type></wpt>
<wpt lat="-23.058729" lon="-54.194942"><name>Radar 30 km/h</name><desc>Fonte: OSM</desc><type>FIXED</type></wpt>
<wpt lat="-23.058216" lon="-54.194311"><name>Radar 30 km/h</name><desc>Fonte: OSM</desc><type>FIXED</type></wpt>
<wpt lat="-22.620813" lon="-55.624049"><name>Radar</name><desc>Fonte: DNIT</desc><type>FIXED</type></wpt>
<wpt lat="-22.619313" lon="-55.610558"><name>Radar</name><desc>Fonte: DNIT · sentido 73° (leste)</desc><type>FIXED</type></wpt>
<wpt lat="-22.618910" lon="-55.609720"><name>Radar</name><desc>Fonte: DNIT · sentido 253° (oeste)</desc><type>FIXED</type></wpt>
<wpt lat="-22.589907" lon="-55.674631"><name>Radar</name><desc>Fonte: DNIT</desc><type>FIXED</type></wpt>
<wpt lat="-22.562740" lon="-55.698815"><name>Radar 40 km/h</name><desc>Fonte: OSM</desc><type>FIXED</type></wpt>
<wpt lat="-22.558502" lon="-55.709038"><name>Radar 40 km/h</name><desc>Fonte: OSM</desc><type>FIXED</type></wpt>
<wpt lat="-22.553969" lon="-55.715671"><name>Radar</name><desc>Fonte: OSM</desc><type>FIXED</type></wpt>
<wpt lat="-22.553860" lon="-54.833060"><name>Radar 100 km/h</name><desc>Fonte: ANTT</desc><type>FIXED</type></wpt>
<wpt lat="-22.553606" lon="-55.716190"><name>Radar</name><desc>Fonte: OSM</desc><type>FIXED</type></wpt>
<wpt lat="-22.526834" lon="-55.733934"><name>Radar 40 km/h</name><desc>Fonte: OSM</desc><type>FIXED</type></wpt>
<wpt lat="-22.510472" lon="-55.743893"><name>Radar 40 km/h</name><desc>Fonte: OSM</desc><type>FIXED</type></wpt>
<wpt lat="-22.509563" lon="-55.738350"><name>Radar 40 km/h</name><desc>Fonte: OSM</desc><type>FIXED</type></wpt>
<wpt lat="-22.509100" lon="-55.738095"><name>Radar 40 km/h</name><desc>Fonte: OSM</desc><type>FIXED</type></wpt>
<wpt lat="-22.505353" lon="-55.729513"><name>Radar 30 km/h</name><desc>Fonte: OSM</desc><type>FIXED</type></wpt>
<wpt lat="-22.505206" lon="-55.729826"><name>Radar 30 km/h</name><desc>Fonte: OSM</desc><type>FIXED</type></wpt>
<wpt lat="-22.476404" lon="-55.407038"><name>Radar 60 km/h</name><desc>Fonte: OSM</desc><type>FIXED</type></wpt>
<wpt lat="-22.390901" lon="-54.480937"><name>Radar</name><desc>Fonte: DNIT</desc><type>FIXED</type></wpt>
<wpt lat="-22.382270" lon="-55.266170"><name>Radar</name><desc>Fonte: DNIT</desc><type>FIXED</type></wpt>
<wpt lat="-22.286625" lon="-53.380146"><name>Radar</name><desc>Fonte: DNIT</desc><type>FIXED</type></wpt>
<wpt lat="-22.275142" lon="-53.370556"><name>Radar</name><desc>Fonte: DNIT</desc><type>FIXED</type></wpt>
<wpt lat="-22.273814" lon="-54.818604"><name>Radar 60 km/h</name><desc>Fonte: ANTT · sentido 47° (nordeste)</desc><type>FIXED</type></wpt>
<wpt lat="-22.271718" lon="-54.816481"><name>Radar 60 km/h</name><desc>Fonte: ANTT · sentido 227° (sudoeste)</desc><type>FIXED</type></wpt>
<wpt lat="-22.263270" lon="-53.360749"><name>Radar 40 km/h</name><desc>Fonte: OSM</desc><type>FIXED</type></wpt>
<wpt lat="-22.262965" lon="-53.360624"><name>Radar 40 km/h</name><desc>Fonte: OSM</desc><type>FIXED</type></wpt>
<wpt lat="-22.260623" lon="-54.804015"><name>Radar 60 km/h</name><desc>Fonte: ANTT · sentido 18° (norte)</desc><type>FIXED</type></wpt>
<wpt lat="-22.259050" lon="-54.816644"><name>Radar</name><desc>Fonte: DNIT</desc><type>FIXED</type></wpt>
<wpt lat="-22.243012" lon="-54.770460"><name>Radar 100 km/h</name><desc>Fonte: ANTT · sentido 31° (nordeste)</desc><type>FIXED</type></wpt>
<wpt lat="-22.231899" lon="-53.329823"><name>Radar 40 km/h</name><desc>Fonte: OSM</desc><type>FIXED</type></wpt>
<wpt lat="-22.230126" lon="-53.330432"><name>Radar 40 km/h</name><desc>Fonte: OSM</desc><type>FIXED</type></wpt>
<wpt lat="-22.224387" lon="-54.845096"><name>Radar 30 km/h</name><desc>Fonte: OSM</desc><type>FIXED</type></wpt>
<wpt lat="-22.219260" lon="-54.724047"><name>Radar 40 km/h</name><desc>Fonte: ANTT+OSM · sentido 230° (sudoeste)</desc><type>FIXED</type></wpt>
<wpt lat="-22.218984" lon="-54.723578"><name>Radar 40 km/h</name><desc>Fonte: OSM</desc><type>FIXED</type></wpt>
<wpt lat="-22.209773" lon="-54.651200"><name>Radar 40 km/h</name><desc>Fonte: OSM</desc><type>FIXED</type></wpt>
<wpt lat="-22.201613" lon="-54.701256"><name>Radar 100 km/h</name><desc>Fonte: OSM</desc><type>FIXED</type></wpt>
<wpt lat="-22.198842" lon="-54.697236"><name>Radar 60 km/h</name><desc>Fonte: ANTT+OSM · sentido 50° (nordeste)</desc><type>FIXED</type></wpt>
<wpt lat="-22.192938" lon="-54.689831"><name>Radar 60 km/h</name><desc>Fonte: ANTT · sentido 230° (sudoeste)</desc><type>FIXED</type></wpt>
<wpt lat="-22.190977" lon="-54.687427"><name>Radar 60 km/h</name><desc>Fonte: OSM</desc><type>FIXED</type></wpt>
<wpt lat="-21.917780" lon="-54.534979"><name>Radar 80 km/h</name><desc>Fonte: ANTT</desc><type>FIXED</type></wpt>
<wpt lat="-21.915802" lon="-54.535142"><name>Radar 60 km/h</name><desc>Fonte: OSM</desc><type>FIXED</type></wpt>
<wpt lat="-21.908149" lon="-54.533082"><name>Radar 80 km/h</name><desc>Fonte: ANTT</desc><type>FIXED</type></wpt>
<wpt lat="-21.907475" lon="-54.532734"><name>Radar 60 km/h</name><desc>Fonte: OSM</desc><type>FIXED</type></wpt>
<wpt lat="-21.725419" lon="-52.266002"><name>Radar 40 km/h</name><desc>Fonte: OSM</desc><type>FIXED</type></wpt>
<wpt lat="-21.725313" lon="-52.265689"><name>Radar 40 km/h</name><desc>Fonte: OSM</desc><type>FIXED</type></wpt>
<wpt lat="-21.722812" lon="-52.434623"><name>Radar 60 km/h</name><desc>Fonte: OSM</desc><type>FIXED</type></wpt>
<wpt lat="-21.721308" lon="-52.410948"><name>Radar 60 km/h</name><desc>Fonte: OSM</desc><type>FIXED</type></wpt>
<wpt lat="-21.721213" lon="-52.410927"><name>Radar 60 km/h</name><desc>Fonte: OSM</desc><type>FIXED</type></wpt>
<wpt lat="-21.719992" lon="-52.425523"><name>Radar 40 km/h</name><desc>Fonte: OSM</desc><type>FIXED</type></wpt>
<wpt lat="-21.719645" lon="-52.425303"><name>Radar 40 km/h</name><desc>Fonte: OSM</desc><type>FIXED</type></wpt>
<wpt lat="-21.689245" lon="-52.408175"><name>Radar 60 km/h</name><desc>Fonte: OSM</desc><type>FIXED</type></wpt>
<wpt lat="-21.646333" lon="-54.421858"><name>Radar 60 km/h</name><desc>Fonte: ANTT</desc><type>FIXED</type></wpt>
<wpt lat="-21.642903" lon="-55.122531"><name>Radar 60 km/h</name><desc>Fonte: OSM</desc><type>FIXED</type></wpt>
<wpt lat="-21.638472" lon="-55.166393"><name>Radar 40 km/h</name><desc>Fonte: OSM</desc><type>FIXED</type></wpt>
<wpt lat="-21.476968" lon="-54.387384"><name>Radar 60 km/h</name><desc>Fonte: ANTT · sentido 18° (norte)</desc><type>FIXED</type></wpt>
<wpt lat="-21.256855" lon="-51.993735"><name>Radar 80 km/h</name><desc>Fonte: OSM</desc><type>FIXED</type></wpt>
<wpt lat="-21.193144" lon="-54.465419"><name>Radar 100 km/h</name><desc>Fonte: ANTT · sentido 156° (sudeste)</desc><type>FIXED</type></wpt>
<wpt lat="-21.176146" lon="-55.635452"><name>Radar</name><desc>Fonte: DNIT · sentido 287° (oeste)</desc><type>FIXED</type></wpt>
<wpt lat="-21.051700" lon="-54.498883"><name>Radar 100 km/h</name><desc>Fonte: ANTT</desc><type>FIXED</type></wpt>
<wpt lat="-20.992381" lon="-54.506582"><name>Radar 60 km/h</name><desc>Fonte: ANTT</desc><type>FIXED</type></wpt>
<wpt lat="-20.986606" lon="-54.505924"><name>Radar 40 km/h</name><desc>Fonte: ANTT</desc><type>FIXED</type></wpt>
<wpt lat="-20.977829" lon="-54.504894"><name>Radar 60 km/h</name><desc>Fonte: ANTT</desc><type>FIXED</type></wpt>
<wpt lat="-20.944105" lon="-54.966738"><name>Radar</name><desc>Fonte: DNIT</desc><type>FIXED</type></wpt>
<wpt lat="-20.935872" lon="-54.961542"><name>Radar 30 km/h</name><desc>Fonte: OSM</desc><type>FIXED</type></wpt>
<wpt lat="-20.935852" lon="-54.961738"><name>Radar 30 km/h</name><desc>Fonte: OSM</desc><type>FIXED</type></wpt>
<wpt lat="-20.933985" lon="-54.960312"><name>Radar 30 km/h</name><desc>Fonte: OSM</desc><type>FIXED</type></wpt>
<wpt lat="-20.931890" lon="-54.958950"><name>Radar 30 km/h</name><desc>Fonte: OSM</desc><type>FIXED</type></wpt>
<wpt lat="-20.931237" lon="-54.958722"><name>Radar 30 km/h</name><desc>Fonte: OSM</desc><type>FIXED</type></wpt>
<wpt lat="-20.928338" lon="-54.956657"><name>Radar 30 km/h</name><desc>Fonte: OSM</desc><type>FIXED</type></wpt>
<wpt lat="-20.900605" lon="-54.925897"><name>Radar</name><desc>Fonte: DNIT</desc><type>FIXED</type></wpt>
<wpt lat="-20.855982" lon="-54.818550"><name>Radar 80 km/h</name><desc>Fonte: OSM</desc><type>FIXED</type></wpt>
<wpt lat="-20.820431" lon="-51.713057"><name>Radar</name><desc>Fonte: DNIT</desc><type>FIXED</type></wpt>
<wpt lat="-20.802390" lon="-51.689231"><name>Radar 50 km/h</name><desc>Fonte: OSM</desc><type>FIXED</type></wpt>
<wpt lat="-20.801815" lon="-51.690614"><name>Radar 50 km/h</name><desc>Fonte: OSM</desc><type>FIXED</type></wpt>
<wpt lat="-20.799533" lon="-51.683535"><name>Radar 40 km/h</name><desc>Fonte: DNIT+OSM · sentido 32° (nordeste)</desc><type>FIXED</type></wpt>
<wpt lat="-20.799279" lon="-51.683124"><name>Radar 40 km/h</name><desc>Fonte: DNIT+OSM</desc><type>FIXED</type></wpt>
<wpt lat="-20.799021" lon="-51.683804"><name>Radar 40 km/h</name><desc>Fonte: DNIT+OSM</desc><type>FIXED</type></wpt>
<wpt lat="-20.798855" lon="-51.683427"><name>Radar 40 km/h</name><desc>Fonte: DNIT+OSM · sentido 211° (sudoeste)</desc><type>FIXED</type></wpt>
<wpt lat="-20.796996" lon="-51.687263"><name>Radar 30 km/h</name><desc>Fonte: OSM</desc><type>FIXED</type></wpt>
<wpt lat="-20.796691" lon="-51.688108"><name>Radar 30 km/h</name><desc>Fonte: OSM</desc><type>FIXED</type></wpt>
<wpt lat="-20.792924" lon="-51.679300"><name>Radar 40 km/h</name><desc>Fonte: DNIT+OSM · sentido 32° (nordeste)</desc><type>FIXED</type></wpt>
<wpt lat="-20.792708" lon="-51.678966"><name>Radar 40 km/h</name><desc>Fonte: DNIT+OSM</desc><type>FIXED</type></wpt>
<wpt lat="-20.792561" lon="-51.679529"><name>Radar 40 km/h</name><desc>Fonte: DNIT+OSM</desc><type>FIXED</type></wpt>
<wpt lat="-20.792428" lon="-51.679125"><name>Radar 40 km/h</name><desc>Fonte: DNIT+OSM · sentido 211° (sudoeste)</desc><type>FIXED</type></wpt>
<wpt lat="-20.788830" lon="-51.702137"><name>Radar 40 km/h</name><desc>Fonte: OSM</desc><type>FIXED</type></wpt>
<wpt lat="-20.788766" lon="-51.701850"><name>Radar 40 km/h</name><desc>Fonte: OSM</desc><type>FIXED</type></wpt>
<wpt lat="-20.788663" lon="-51.686371"><name>Radar 30 km/h</name><desc>Fonte: OSM</desc><type>FIXED</type></wpt>
<wpt lat="-20.788644" lon="-51.701903"><name>Radar 40 km/h</name><desc>Fonte: OSM</desc><type>FIXED</type></wpt>
<wpt lat="-20.784285" lon="-51.710313"><name>Radar 30 km/h</name><desc>Fonte: OSM</desc><type>FIXED</type></wpt>
<wpt lat="-20.784131" lon="-51.710099"><name>Radar</name><desc>Fonte: OSM</desc><type>FIXED</type></wpt>
<wpt lat="-20.784046" lon="-51.710505"><name>Radar</name><desc>Fonte: OSM</desc><type>FIXED</type></wpt>
<wpt lat="-20.783903" lon="-51.710314"><name>Radar 30 km/h</name><desc>Fonte: OSM</desc><type>FIXED</type></wpt>
<wpt lat="-20.781996" lon="-51.666502"><name>Radar 40 km/h</name><desc>Fonte: DNIT+OSM · sentido 93° (leste)</desc><type>FIXED</type></wpt>
<wpt lat="-20.781791" lon="-51.665838"><name>Radar 40 km/h</name><desc>Fonte: DNIT+OSM · sentido 272° (oeste)</desc><type>FIXED</type></wpt>
<wpt lat="-20.580972" lon="-54.579500"><name>Radar 60 km/h</name><desc>Fonte: OSM</desc><type>FIXED</type></wpt>
<wpt lat="-20.580802" lon="-54.579087"><name>Radar 60 km/h</name><desc>Fonte: ANTT · sentido 56° (nordeste)</desc><type>FIXED</type></wpt>
<wpt lat="-20.547998" lon="-54.678955"><name>Radar</name><desc>Fonte: DNIT</desc><type>FIXED</type></wpt>
<wpt lat="-20.514983" lon="-54.563330"><name>Radar 60 km/h</name><desc>Fonte: ANTT · sentido 221° (sudoeste)</desc><type>FIXED</type></wpt>
<wpt lat="-20.500863" lon="-55.906285"><name>Radar</name><desc>Fonte: DNIT</desc><type>FIXED</type></wpt>
<wpt lat="-20.500423" lon="-55.795635"><name>Radar</name><desc>Fonte: DNIT</desc><type>FIXED</type></wpt>
<wpt lat="-20.497418" lon="-54.628763"><name>Radar 30 km/h</name><desc>Fonte: OSM</desc><type>FIXED</type></wpt>
<wpt lat="-20.496214" lon="-54.646443"><name>Radar 30 km/h</name><desc>Fonte: OSM</desc><type>FIXED</type></wpt>
<wpt lat="-20.481099" lon="-54.580769"><name>Radar 30 km/h</name><desc>Fonte: OSM</desc><type>FIXED</type></wpt>
<wpt lat="-20.480821" lon="-54.580360"><name>Radar 30 km/h</name><desc>Fonte: OSM</desc><type>FIXED</type></wpt>
<wpt lat="-20.474359" lon="-54.389722"><name>Radar 100 km/h</name><desc>Fonte: OSM</desc><type>FIXED</type></wpt>
<wpt lat="-20.473359" lon="-54.632022"><name>Radar 50 km/h</name><desc>Fonte: OSM</desc><type>FIXED</type></wpt>
<wpt lat="-20.473340" lon="-54.559409"><name>Radar 60 km/h</name><desc>Fonte: ANTT+OSM · sentido 359° (norte)</desc><type>FIXED</type></wpt>
<wpt lat="-20.468585" lon="-54.530908"><name>Radar</name><desc>Fonte: DNIT · sentido 267° (oeste)</desc><type>FIXED</type></wpt>
<wpt lat="-20.468053" lon="-54.592164"><name>Radar 50 km/h</name><desc>Fonte: OSM</desc><type>FIXED</type></wpt>
<wpt lat="-20.467968" lon="-54.591940"><name>Radar 50 km/h</name><desc>Fonte: OSM</desc><type>FIXED</type></wpt>
<wpt lat="-20.465994" lon="-54.546535"><name>Radar</name><desc>Fonte: DNIT</desc><type>FIXED</type></wpt>
<wpt lat="-20.464906" lon="-54.621928"><name>Radar</name><desc>Fonte: OSM</desc><type>FIXED</type></wpt>
<wpt lat="-20.464885" lon="-54.621783"><name>Radar</name><desc>Fonte: OSM</desc><type>FIXED</type></wpt>
<wpt lat="-20.464758" lon="-54.621499"><name>Radar 50 km/h</name><desc>Fonte: OSM</desc><type>FIXED</type></wpt>
<wpt lat="-20.464744" lon="-54.621983"><name>Radar</name><desc>Fonte: OSM</desc><type>FIXED</type></wpt>
<wpt lat="-20.464716" lon="-54.621824"><name>Radar</name><desc>Fonte: OSM</desc><type>FIXED</type></wpt>
<wpt lat="-20.458446" lon="-54.638615"><name>Radar</name><desc>Fonte: OSM</desc><type>FIXED</type></wpt>
<wpt lat="-20.458377" lon="-54.638563"><name>Radar</name><desc>Fonte: OSM</desc><type>FIXED</type></wpt>
<wpt lat="-20.457113" lon="-53.758599"><name>Radar</name><desc>Fonte: DNIT</desc><type>FIXED</type></wpt>
<wpt lat="-20.451494" lon="-54.619400"><name>Radar</name><desc>Fonte: OSM</desc><type>FIXED</type></wpt>
<wpt lat="-20.441873" lon="-54.581559"><name>Radar 50 km/h</name><desc>Fonte: OSM</desc><type>FIXED</type></wpt>
<wpt lat="-20.440726" lon="-52.838629"><name>Radar 60 km/h</name><desc>Fonte: OSM</desc><type>FIXED</type></wpt>
<wpt lat="-20.438773" lon="-54.856730"><name>Radar</name><desc>Fonte: DNIT</desc><type>FIXED</type></wpt>
<wpt lat="-20.420239" lon="-54.546428"><name>Radar 60 km/h</name><desc>Fonte: OSM</desc><type>FIXED</type></wpt>
<wpt lat="-20.419893" lon="-54.546449"><name>Radar 60 km/h</name><desc>Fonte: ANTT</desc><type>FIXED</type></wpt>
<wpt lat="-20.410746" lon="-54.573247"><name>Radar 50 km/h</name><desc>Fonte: OSM</desc><type>FIXED</type></wpt>
<wpt lat="-20.410016" lon="-54.572951"><name>Radar 50 km/h</name><desc>Fonte: OSM</desc><type>FIXED</type></wpt>
<wpt lat="-20.387276" lon="-54.548019"><name>Radar 60 km/h</name><desc>Fonte: ANTT · sentido 235° (sudoeste)</desc><type>FIXED</type></wpt>
<wpt lat="-20.378370" lon="-54.538020"><name>Radar 100 km/h</name><desc>Fonte: ANTT</desc><type>FIXED</type></wpt>
<wpt lat="-20.221258" lon="-56.405595"><name>Radar 80 km/h</name><desc>Fonte: OSM</desc><type>FIXED</type></wpt>
<wpt lat="-20.179674" lon="-56.525673"><name>Radar</name><desc>Fonte: DNIT</desc><type>FIXED</type></wpt>
<wpt lat="-20.174771" lon="-56.538241"><name>Radar</name><desc>Fonte: DNIT</desc><type>FIXED</type></wpt>
<wpt lat="-20.135485" lon="-56.639551"><name>Radar</name><desc>Fonte: DNIT</desc><type>FIXED</type></wpt>
<wpt lat="-20.134202" lon="-56.665841"><name>Radar</name><desc>Fonte: DNIT</desc><type>FIXED</type></wpt>
<wpt lat="-20.133791" lon="-56.671245"><name>Radar</name><desc>Fonte: DNIT</desc><type>FIXED</type></wpt>
<wpt lat="-20.133475" lon="-56.679399"><name>Radar</name><desc>Fonte: DNIT</desc><type>FIXED</type></wpt>
<wpt lat="-20.102531" lon="-54.439985"><name>Radar 40 km/h</name><desc>Fonte: ANTT</desc><type>FIXED</type></wpt>
<wpt lat="-20.097670" lon="-54.437691"><name>Radar 40 km/h</name><desc>Fonte: ANTT</desc><type>FIXED</type></wpt>
<wpt lat="-20.021415" lon="-56.805247"><name>Radar</name><desc>Fonte: DNIT</desc><type>FIXED</type></wpt>
<wpt lat="-20.002084" lon="-56.818316"><name>Radar</name><desc>Fonte: DNIT</desc><type>FIXED</type></wpt>
<wpt lat="-19.927230" lon="-54.366066"><name>Radar 60 km/h</name><desc>Fonte: ANTT</desc><type>FIXED</type></wpt>
<wpt lat="-19.918372" lon="-54.368570"><name>Radar 40 km/h</name><desc>Fonte: ANTT</desc><type>FIXED</type></wpt>
<wpt lat="-19.915095" lon="-54.369550"><name>Radar 40 km/h</name><desc>Fonte: ANTT</desc><type>FIXED</type></wpt>
<wpt lat="-19.817018" lon="-56.912320"><name>Radar</name><desc>Fonte: DNIT</desc><type>FIXED</type></wpt>
<wpt lat="-19.812552" lon="-56.922136"><name>Radar</name><desc>Fonte: DNIT</desc><type>FIXED</type></wpt>
<wpt lat="-19.810065" lon="-56.927079"><name>Radar</name><desc>Fonte: DNIT</desc><type>FIXED</type></wpt>
<wpt lat="-19.679582" lon="-54.350129"><name>Radar 60 km/h</name><desc>Fonte: ANTT</desc><type>FIXED</type></wpt>
<wpt lat="-19.674423" lon="-57.012377"><name>Radar</name><desc>Fonte: DNIT</desc><type>FIXED</type></wpt>
<wpt lat="-19.661692" lon="-57.019651"><name>Radar</name><desc>Fonte: DNIT</desc><type>FIXED</type></wpt>
<wpt lat="-19.558057" lon="-57.205005"><name>Radar</name><desc>Fonte: DNIT</desc><type>FIXED</type></wpt>
<wpt lat="-19.556523" lon="-57.253737"><name>Radar</name><desc>Fonte: DNIT</desc><type>FIXED</type></wpt>
<wpt lat="-19.535765" lon="-57.407289"><name>Radar</name><desc>Fonte: DNIT</desc><type>FIXED</type></wpt>
<wpt lat="-19.532467" lon="-54.043437"><name>Radar</name><desc>Fonte: DNIT</desc><type>FIXED</type></wpt>
<wpt lat="-19.400625" lon="-54.564441"><name>Radar 40 km/h</name><desc>Fonte: ANTT</desc><type>FIXED</type></wpt>
<wpt lat="-19.382116" lon="-54.576027"><name>Radar 60 km/h</name><desc>Fonte: ANTT</desc><type>FIXED</type></wpt>
<wpt lat="-19.373270" lon="-54.581459"><name>Radar 60 km/h</name><desc>Fonte: ANTT</desc><type>FIXED</type></wpt>
<wpt lat="-19.344893" lon="-54.571672"><name>Radar 40 km/h</name><desc>Fonte: ANTT</desc><type>FIXED</type></wpt>
<wpt lat="-19.162209" lon="-54.759449"><name>Radar 100 km/h</name><desc>Fonte: ANTT</desc><type>FIXED</type></wpt>
<wpt lat="-18.959533" lon="-54.827949"><name>Radar 100 km/h</name><desc>Fonte: OSM</desc><type>FIXED</type></wpt>
<wpt lat="-18.959252" lon="-54.828029"><name>Radar 100 km/h</name><desc>Fonte: ANTT · sentido 331° (noroeste)</desc><type>FIXED</type></wpt>
<wpt lat="-18.916241" lon="-54.838486"><name>Radar 40 km/h</name><desc>Fonte: ANTT</desc><type>FIXED</type></wpt>
<wpt lat="-18.907938" lon="-54.840658"><name>Radar 60 km/h</name><desc>Fonte: ANTT</desc><type>FIXED</type></wpt>
<wpt lat="-18.834186" lon="-54.813606"><name>Radar 100 km/h</name><desc>Fonte: ANTT · sentido 345° (norte)</desc><type>FIXED</type></wpt>
<wpt lat="-18.544525" lon="-54.746877"><name>Radar 60 km/h</name><desc>Fonte: ANTT</desc><type>FIXED</type></wpt>
<wpt lat="-18.530077" lon="-54.741251"><name>Radar 40 km/h</name><desc>Fonte: ANTT</desc><type>FIXED</type></wpt>
<wpt lat="-18.514410" lon="-54.737190"><name>Radar 60 km/h</name><desc>Fonte: ANTT</desc><type>FIXED</type></wpt>
<wpt lat="-18.503097" lon="-54.733498"><name>Radar 40 km/h</name><desc>Fonte: ANTT</desc><type>FIXED</type></wpt>
<wpt lat="-18.185793" lon="-54.654673"><name>Radar 60 km/h</name><desc>Fonte: ANTT</desc><type>FIXED</type></wpt>
</gpx>