<?xml version="1.0" encoding="UTF-8"?>
<kml xmlns="http://www.opengis.net/kml/2.2"><Document>
<name>Pardal — radares — MS</name>
<description>Pardal — © colaboradores do OpenStreetMap (ODbL 1.0) e fontes abertas listadas no README</description>
<Folder><name>Radares de velocidade</name>
<Placemark><name>Radar 60 km/h</name><description>Fonte: ANTT</description><Point><coordinates>-54.305205,-24.010345,0</coordinates></Point></Placemark>
<Placemark><name>Radar</name><description>Fonte: OSM</description><Point><coordinates>-54.306174,-24.009795,0</coordinates></Point></Placemark>
<Placemark><name>Radar 60 km/h</name><description>Fonte: ANTT</description><Point><coordinates>-54.283600,-23.945694,0</coordinates></Point></Placemark>
<Placemark><name>Radar 40 km/h</name><description>Fonte: ANTT</description><Point><coordinates>-54.281076,-23.938598,0</coordinates></Point></Placemark>
<Placemark><name>Radar 100 km/h</name><description>Fonte: ANTT · sentido 329° (noroeste)</description><Point><coordinates>-54.321937,-23.876830,0</coordinates></Point></Placemark>
<Placemark><name>Radar 100 km/h</name><description>Fonte: ANTT · sentido 148° (sudeste)</description><Point><coordinates>-54.325601,-23.871613,0</coordinates></Point></Placemark>
<Placemark><name>Radar 100 km/h</name><description>Fonte: ANTT</description><Point><coordinates>-54.305911,-23.803890,0</coordinates></Point></Placemark>
<Placemark><name>Radar 100 km/h</name><description>Fonte: ANTT</description><Point><coordinates>-54.298772,-23.801533,0</coordinates></Point></Placemark>
<Placemark><name>Radar 60 km/h</name><description>Fonte: ANTT · sentido 191° (sul)</description><Point><coordinates>-54.185490,-23.492776,0</coordinates></Point></Placemark>
<Placemark><name>Radar 30 km/h</name><description>Fonte: OSM</description><Point><coordinates>-54.212750,-23.059273,0</coordinates></Point></Placemark>
<Placemark><name>Radar 30 km/h</name><description>Fonte: OSM</description><Point><coordinates>-54.194942,-23.058729,0</coordinates></Point></Placemark>
<Placemark><name>Radar 30 km/h</name><description>Fonte: OSM</description><Point><coordinates>-54.194311,-23.058216,0</coordinates></Point></Placemark>
<Placemark><name>Radar</name><description>Fonte: DNIT</description><Point><coordinates>-55.624049,-22.620813,0</coordinates></Point></Placemark>
<Placemark><name>Radar</name><description>Fonte: DNIT · sentido 73° (leste)</description><Point><coordinates>-55.610558,-22.619313,0</coordinates></Point></Placemark>
<Placemark><name>Radar</name><description>Fonte: DNIT · sentido 253° (oeste)</description><Point><coordinates>-55.609720,-22.618910,0</coordinates></Point></Placemark>
<Placemark><name>Radar</name><description>Fonte: DNIT</description><Point><coordinates>-55.674631,-22.589907,0</coordinates></Point></Placemark>
<Placemark><name>Radar 40 km/h</name><description>Fonte: OSM</description><Point><coordinates>-55.698815,-22.562740,0</coordinates></Point></Placemark>
<Placemark><name>Radar 40 km/h</name><description>Fonte: OSM</description><Point><coordinates>-55.709038,-22.558502,0</coordinates></Point></Placemark>
<Placemark><name>Radar</name><description>Fonte: OSM</description><Point><coordinates>-55.715671,-22.553969,0</coordinates></Point></Placemark>
<Placemark><name>Radar 100 km/h</name><description>Fonte: ANTT</description><Point><coordinates>-54.833060,-22.553860,0</coordinates></Point></Placemark>
<Placemark><name>Radar</name><description>Fonte: OSM</description><Point><coordinates>-55.716190,-22.553606,0</coordinates></Point></Placemark>
<Placemark><name>Radar 40 km/h</name><description>Fonte: OSM</description><Point><coordinates>-55.733934,-22.526834,0</coordinates></Point></Placemark>
<Placemark><name>Radar 40 km/h</name><description>Fonte: OSM</description><Point><coordinates>-55.743893,-22.510472,0</coordinates></Point></Placemark>
<Placemark><name>Radar 40 km/h</name><description>Fonte: OSM</description><Point><coordinates>-55.738350,-22.509563,0</coordinates></Point></Placemark>
<Placemark><name>Radar 40 km/h</name><description>Fonte: OSM</description><Point><coordinates>-55.738095,-22.509100,0</coordinates></Point></Placemark>
<Placemark><name>Radar 30 km/h</name><description>Fonte: OSM</description><Point><coordinates>-55.729513,-22.505353,0</coordinates></Point></Placemark>
<Placemark><name>Radar 30 km/h</name><description>Fonte: OSM</description><Point><coordinates>-55.729826,-22.505206,0</coordinates></Point></Placemark>
<Placemark><name>Radar 60 km/h</name><description>Fonte: OSM</description><Point><coordinates>-55.407038,-22.476404,0</coordinates></Point></Placemark>
<Placemark><name>Radar</name><description>Fonte: DNIT</description><Point><coordinates>-54.480937,-22.390901,0</coordinates></Point></Placemark>
<Placemark><name>Radar</name><description>Fonte: DNIT</description><Point><coordinates>-55.266170,-22.382270,0</coordinates></Point></Placemark>
<Placemark><name>Radar</name><description>Fonte: DNIT</description><Point><coordinates>-53.380146,-22.286625,0</coordinates></Point></Placemark>
<Placemark><name>Radar</name><description>Fonte: DNIT</description><Point><coordinates>-53.370556,-22.275142,0</coordinates></Point></Placemark>
<Placemark><name>Radar 60 km/h</name><description>Fonte: ANTT · sentido 47° (nordeste)</description><Point><coordinates>-54.818604,-22.273814,0</coordinates></Point></Placemark>
<Placemark><name>Radar 60 km/h</name><description>Fonte: ANTT · sentido 227° (sudoeste)</description><Point><coordinates>-54.816481,-22.271718,0</coordinates></Point></Placemark>
<Placemark><name>Radar 40 km/h</name><description>Fonte: OSM</description><Point><coordinates>-53.360749,-22.263270,0</coordinates></Point></Placemark>
<Placemark><name>Radar 40 km/h</name><description>Fonte: OSM</description><Point><coordinates>-53.360624,-22.262965,0</coordinates></Point></Placemark>
<Placemark><name>Radar 60 km/h</name><description>Fonte: ANTT · sentido 18° (norte)</description><Point><coordinates>-54.804015,-22.260623,0</coordinates></Point></Placemark>
<Placemark><name>Radar</name><description>Fonte: DNIT</description><Point><coordinates>-54.816644,-22.259050,0</coordinates></Point></Placemark>
<Placemark><name>Radar 100 km/h</name><description>Fonte: ANTT · sentido 31° (nordeste)</description><Point><coordinates>-54.770460,-22.243012,0</coordinates></Point></Placemark>
<Placemark><name>Radar 40 km/h</name><description>Fonte: OSM</description><Point><coordinates>-53.329823,-22.231899,0</coordinates></Point></Placemark>
<Placemark><name>Radar 40 km/h</name><description>Fonte: OSM</description><Point><coordinates>-53.330432,-22.230126,0</coordinates></Point></Placemark>
<Placemark><name>Radar 30 km/h</name><description>Fonte: OSM</description><Point><coordinates>-54.845096,-22.224387,0</coordinates></Point></Placemark>
<Placemark><name>Radar 40 km/h</name><description>Fonte: ANTT+OSM · sentido 230° (sudoeste)</description><Point><coordinates>-54.724047,-22.219260,0</coordinates></Point></Placemark>
<Placemark><name>Radar 40 km/h</name><description>Fonte: OSM</description><Point><coordinates>-54.723578,-22.218984,0</coordinates></Point></Placemark>
<Placemark><name>Radar 40 km/h</name><description>Fonte: OSM</description><Point><coordinates>-54.651200,-22.209773,0</coordinates></Point></Placemark>
<Placemark><name>Radar 100 km/h</name><description>Fonte: OSM</description><Point><coordinates>-54.701256,-22.201613,0</coordinates></Point></Placemark>
<Placemark><name>Radar 60 km/h</name><description>Fonte: ANTT+OSM · sentido 50° (nordeste)</description><Point><coordinates>-54.697236,-22.198842,0</coordinates></Point></Placemark>
<Placemark><name>Radar 60 km/h</name><description>Fonte: ANTT · sentido 230° (sudoeste)</description><Point><coordinates>-54.689831,-22.192938,0</coordinates></Point></Placemark>
<Placemark><name>Radar 60 km/h</name><description>Fonte: OSM</description><Point><coordinates>-54.687427,-22.190977,0</coordinates></Point></Placemark>
<Placemark><name>Radar 80 km/h</name><description>Fonte: ANTT</description><Point><coordinates>-54.534979,-21.917780,0</coordinates></Point></Placemark>
<Placemark><name>Radar 60 km/h</name><description>Fonte: OSM</description><Point><coordinates>-54.535142,-21.915802,0</coordinates></Point></Placemark>
<Placemark><name>Radar 80 km/h</name><description>Fonte: ANTT</description><Point><coordinates>-54.533082,-21.908149,0</coordinates></Point></Placemark>
<Placemark><name>Radar 60 km/h</name><description>Fonte: OSM</description><Point><coordinates>-54.532734,-21.907475,0</coordinates></Point></Placemark>
<Placemark><name>Radar 40 km/h</name><description>Fonte: OSM</description><Point><coordinates>-52.266002,-21.725419,0</coordinates></Point></Placemark>
<Placemark><name>Radar 40 km/h</name><description>Fonte: OSM</description><Point><coordinates>-52.265689,-21.725313,0</coordinates></Point></Placemark>
<Placemark><name>Radar 60 km/h</name><description>Fonte: OSM</description><Point><coordinates>-52.434623,-21.722812,0</coordinates></Point></Placemark>
<Placemark><name>Radar 60 km/h</name><description>Fonte: OSM</description><Point><coordinates>-52.410948,-21.721308,0</coordinates></Point></Placemark>
<Placemark><name>Radar 60 km/h</name><description>Fonte: OSM</description><Point><coordinates>-52.410927,-21.721213,0</coordinates></Point></Placemark>
<Placemark><name>Radar 40 km/h</name><description>Fonte: OSM</description><Point><coordinates>-52.425523,-21.719992,0</coordinates></Point></Placemark>
<Placemark><name>Radar 40 km/h</name><description>Fonte: OSM</description><Point><coordinates>-52.425303,-21.719645,0</coordinates></Point></Placemark>
<Placemark><name>Radar 60 km/h</name><description>Fonte: OSM</description><Point><coordinates>-52.408175,-21.689245,0</coordinates></Point></Placemark>
<Placemark><name>Radar 60 km/h</name><description>Fonte: ANTT</description><Point><coordinates>-54.421858,-21.646333,0</coordinates></Point></Placemark>
<Placemark><name>Radar 60 km/h</name><description>Fonte: OSM</description><Point><coordinates>-55.122531,-21.642903,0</coordinates></Point></Placemark>
<Placemark><name>Radar 40 km/h</name><description>Fonte: OSM</description><Point><coordinates>-55.166393,-21.638472,0</coordinates></Point></Placemark>
<Placemark><name>Radar 60 km/h</name><description>Fonte: ANTT · sentido 18° (norte)</description><Point><coordinates>-54.387384,-21.476968,0</coordinates></Point></Placemark>
<Placemark><name>Radar 80 km/h</name><description>Fonte: OSM</description><Point><coordinates>-51.993735,-21.256855,0</coordinates></Point></Placemark>
<Placemark><name>Radar 100 km/h</name><description>Fonte: ANTT · sentido 156° (sudeste)</description><Point><coordinates>-54.465419,-21.193144,0</coordinates></Point></Placemark>
<Placemark><name>Radar</name><description>Fonte: DNIT · sentido 287° (oeste)</description><Point><coordinates>-55.635452,-21.176146,0</coordinates></Point></Placemark>
<Placemark><name>Radar 100 km/h</name><description>Fonte: ANTT</description><Point><coordinates>-54.498883,-21.051700,0</coordinates></Point></Placemark>
<Placemark><name>Radar 60 km/h</name><description>Fonte: ANTT</description><Point><coordinates>-54.506582,-20.992381,0</coordinates></Point></Placemark>
<Placemark><name>Radar 40 km/h</name><description>Fonte: ANTT</description><Point><coordinates>-54.505924,-20.986606,0</coordinates></Point></Placemark>
<Placemark><name>Radar 60 km/h</name><description>Fonte: ANTT</description><Point><coordinates>-54.504894,-20.977829,0</coordinates></Point></Placemark>
<Placemark><name>Radar</name><description>Fonte: DNIT</description><Point><coordinates>-54.966738,-20.944105,0</coordinates></Point></Placemark>
<Placemark><name>Radar 30 km/h</name><description>Fonte: OSM</description><Point><coordinates>-54.961542,-20.935872,0</coordinates></Point></Placemark>
<Placemark><name>Radar 30 km/h</name><description>Fonte: OSM</description><Point><coordinates>-54.961738,-20.935852,0</coordinates></Point></Placemark>
<Placemark><name>Radar 30 km/h</name><description>Fonte: OSM</description><Point><coordinates>-54.960312,-20.933985,0</coordinates></Point></Placemark>
<Placemark><name>Radar 30 km/h</name><description>Fonte: OSM</description><Point><coordinates>-54.958950,-20.931890,0</coordinates></Point></Placemark>
<Placemark><name>Radar 30 km/h</name><description>Fonte: OSM</description><Point><coordinates>-54.958722,-20.931237,0</coordinates></Point></Placemark>
<Placemark><name>Radar 30 km/h</name><description>Fonte: OSM</description><Point><coordinates>-54.956657,-20.928338,0</coordinates></Point></Placemark>
<Placemark><name>Radar</name><description>Fonte: DNIT</description><Point><coordinates>-54.925897,-20.900605,0</coordinates></Point></Placemark>
<Placemark><name>Radar 80 km/h</name><description>Fonte: OSM</description><Point><coordinates>-54.818550,-20.855982,0</coordinates></Point></Placemark>
<Placemark><name>Radar</name><description>Fonte: DNIT</description><Point><coordinates>-51.713057,-20.820431,0</coordinates></Point></Placemark>
<Placemark><name>Radar 50 km/h</name><description>Fonte: OSM</description><Point><coordinates>-51.689231,-20.802390,0</coordinates></Point></Placemark>
<Placemark><name>Radar 50 km/h</name><description>Fonte: OSM</description><Point><coordinates>-51.690614,-20.801815,0</coordinates></Point></Placemark>
<Placemark><name>Radar 40 km/h</name><description>Fonte: DNIT+OSM · sentido 32° (nordeste)</description><Point><coordinates>-51.683535,-20.799533,0</coordinates></Point></Placemark>
<Placemark><name>Radar 40 km/h</name><description>Fonte: DNIT+OSM</description><Point><coordinates>-51.683124,-20.799279,0</coordinates></Point></Placemark>
<Placemark><name>Radar 40 km/h</name><description>Fonte: DNIT+OSM</description><Point><coordinates>-51.683804,-20.799021,0</coordinates></Point></Placemark>
<Placemark><name>Radar 40 km/h</name><description>Fonte: DNIT+OSM · sentido 211° (sudoeste)</description><Point><coordinates>-51.683427,-20.798855,0</coordinates></Point></Placemark>
<Placemark><name>Radar 30 km/h</name><description>Fonte: OSM</description><Point><coordinates>-51.687263,-20.796996,0</coordinates></Point></Placemark>
<Placemark><name>Radar 30 km/h</name><description>Fonte: OSM</description><Point><coordinates>-51.688108,-20.796691,0</coordinates></Point></Placemark>
<Placemark><name>Radar 40 km/h</name><description>Fonte: DNIT+OSM · sentido 32° (nordeste)</description><Point><coordinates>-51.679300,-20.792924,0</coordinates></Point></Placemark>
<Placemark><name>Radar 40 km/h</name><description>Fonte: DNIT+OSM</description><Point><coordinates>-51.678966,-20.792708,0</coordinates></Point></Placemark>
<Placemark><name>Radar 40 km/h</name><description>Fonte: DNIT+OSM</description><Point><coordinates>-51.679529,-20.792561,0</coordinates></Point></Placemark>
<Placemark><name>Radar 40 km/h</name><description>Fonte: DNIT+OSM · sentido 211° (sudoeste)</description><Point><coordinates>-51.679125,-20.792428,0</coordinates></Point></Placemark>
<Placemark><name>Radar 40 km/h</name><description>Fonte: OSM</description><Point><coordinates>-51.702137,-20.788830,0</coordinates></Point></Placemark>
<Placemark><name>Radar 40 km/h</name><description>Fonte: OSM</description><Point><coordinates>-51.701850,-20.788766,0</coordinates></Point></Placemark>
<Placemark><name>Radar 30 km/h</name><description>Fonte: OSM</description><Point><coordinates>-51.686371,-20.788663,0</coordinates></Point></Placemark>
<Placemark><name>Radar 40 km/h</name><description>Fonte: OSM</description><Point><coordinates>-51.701903,-20.788644,0</coordinates></Point></Placemark>
<Placemark><name>Radar 30 km/h</name><description>Fonte: OSM</description><Point><coordinates>-51.710313,-20.784285,0</coordinates></Point></Placemark>
<Placemark><name>Radar</name><description>Fonte: OSM</description><Point><coordinates>-51.710099,-20.784131,0</coordinates></Point></Placemark>
<Placemark><name>Radar</name><description>Fonte: OSM</description><Point><coordinates>-51.710505,-20.784046,0</coordinates></Point></Placemark>
<Placemark><name>Radar 30 km/h</name><description>Fonte: OSM</description><Point><coordinates>-51.710314,-20.783903,0</coordinates></Point></Placemark>
<Placemark><name>Radar 40 km/h</name><description>Fonte: DNIT+OSM · sentido 93° (leste)</description><Point><coordinates>-51.666502,-20.781996,0</coordinates></Point></Placemark>
<Placemark><name>Radar 40 km/h</name><description>Fonte: DNIT+OSM · sentido 272° (oeste)</description><Point><coordinates>-51.665838,-20.781791,0</coordinates></Point></Placemark>
<Placemark><name>Radar 60 km/h</name><description>Fonte: OSM</description><Point><coordinates>-54.579500,-20.580972,0</coordinates></Point></Placemark>
<Placemark><name>Radar 60 km/h</name><description>Fonte: ANTT · sentido 56° (nordeste)</description><Point><coordinates>-54.579087,-20.580802,0</coordinates></Point></Placemark>
<Placemark><name>Radar</name><description>Fonte: DNIT</description><Point><coordinates>-54.678955,-20.547998,0</coordinates></Point></Placemark>
<Placemark><name>Radar 60 km/h</name><description>Fonte: ANTT · sentido 221° (sudoeste)</description><Point><coordinates>-54.563330,-20.514983,0</coordinates></Point></Placemark>
<Placemark><name>Radar</name><description>Fonte: DNIT</description><Point><coordinates>-55.906285,-20.500863,0</coordinates></Point></Placemark>
<Placemark><name>Radar</name><description>Fonte: DNIT</description><Point><coordinates>-55.795635,-20.500423,0</coordinates></Point></Placemark>
<Placemark><name>Radar 30 km/h</name><description>Fonte: OSM</description><Point><coordinates>-54.628763,-20.497418,0</coordinates></Point></Placemark>
<Placemark><name>Radar 30 km/h</name><description>Fonte: OSM</description><Point><coordinates>-54.646443,-20.496214,0</coordinates></Point></Placemark>
<Placemark><name>Radar 30 km/h</name><description>Fonte: OSM</description><Point><coordinates>-54.580769,-20.481099,0</coordinates></Point></Placemark>
<Placemark><name>Radar 30 km/h</name><description>Fonte: OSM</description><Point><coordinates>-54.580360,-20.480821,0</coordinates></Point></Placemark>
<Placemark><name>Radar 100 km/h</name><description>Fonte: OSM</description><Point><coordinates>-54.389722,-20.474359,0</coordinates></Point></Placemark>
<Placemark><name>Radar 50 km/h</name><description>Fonte: OSM</description><Point><coordinates>-54.632022,-20.473359,0</coordinates></Point></Placemark>
<Placemark><name>Radar 60 km/h</name><description>Fonte: ANTT+OSM · sentido 359° (norte)</description><Point><coordinates>-54.559409,-20.473340,0</coordinates></Point></Placemark>
<Placemark><name>Radar</name><description>Fonte: DNIT · sentido 267° (oeste)</description><Point><coordinates>-54.530908,-20.468585,0</coordinates></Point></Placemark>
<Placemark><name>Radar 50 km/h</name><description>Fonte: OSM</description><Point><coordinates>-54.592164,-20.468053,0</coordinates></Point></Placemark>
<Placemark><name>Radar 50 km/h</name><description>Fonte: OSM</description><Point><coordinates>-54.591940,-20.467968,0</coordinates></Point></Placemark>
<Placemark><name>Radar</name><description>Fonte: DNIT</description><Point><coordinates>-54.546535,-20.465994,0</coordinates></Point></Placemark>
<Placemark><name>Radar</name><description>Fonte: OSM</description><Point><coordinates>-54.621928,-20.464906,0</coordinates></Point></Placemark>
<Placemark><name>Radar</name><description>Fonte: OSM</description><Point><coordinates>-54.621783,-20.464885,0</coordinates></Point></Placemark>
<Placemark><name>Radar 50 km/h</name><description>Fonte: OSM</description><Point><coordinates>-54.621499,-20.464758,0</coordinates></Point></Placemark>
<Placemark><name>Radar</name><description>Fonte: OSM</description><Point><coordinates>-54.621983,-20.464744,0</coordinates></Point></Placemark>
<Placemark><name>Radar</name><description>Fonte: OSM</description><Point><coordinates>-54.621824,-20.464716,0</coordinates></Point></Placemark>
<Placemark><name>Radar</name><description>Fonte: OSM</description><Point><coordinates>-54.638615,-20.458446,0</coordinates></Point></Placemark>
<Placemark><name>Radar</name><description>Fonte: OSM</description><Point><coordinates>-54.638563,-20.458377,0</coordinates></Point></Placemark>
<Placemark><name>Radar</name><description>Fonte: DNIT</description><Point><coordinates>-53.758599,-20.457113,0</coordinates></Point></Placemark>
<Placemark><name>Radar</name><description>Fonte: OSM</description><Point><coordinates>-54.619400,-20.451494,0</coordinates></Point></Placemark>
<Placemark><name>Radar 50 km/h</name><description>Fonte: OSM</description><Point><coordinates>-54.581559,-20.441873,0</coordinates></Point></Placemark>
<Placemark><name>Radar 60 km/h</name><description>Fonte: OSM</description><Point><coordinates>-52.838629,-20.440726,0</coordinates></Point></Placemark>
<Placemark><name>Radar</name><description>Fonte: DNIT</description><Point><coordinates>-54.856730,-20.438773,0</coordinates></Point></Placemark>
<Placemark><name>Radar 60 km/h</name><description>Fonte: OSM</description><Point><coordinates>-54.546428,-20.420239,0</coordinates></Point></Placemark>
<Placemark><name>Radar 60 km/h</name><description>Fonte: ANTT</description><Point><coordinates>-54.546449,-20.419893,0</coordinates></Point></Placemark>
<Placemark><name>Radar 50 km/h</name><description>Fonte: OSM</description><Point><coordinates>-54.573247,-20.410746,0</coordinates></Point></Placemark>
<Placemark><name>Radar 50 km/h</name><description>Fonte: OSM</description><Point><coordinates>-54.572951,-20.410016,0</coordinates></Point></Placemark>
<Placemark><name>Radar 60 km/h</name><description>Fonte: ANTT · sentido 235° (sudoeste)</description><Point><coordinates>-54.548019,-20.387276,0</coordinates></Point></Placemark>
<Placemark><name>Radar 100 km/h</name><description>Fonte: ANTT</description><Point><coordinates>-54.538020,-20.378370,0</coordinates></Point></Placemark>
<Placemark><name>Radar 80 km/h</name><description>Fonte: OSM</description><Point><coordinates>-56.405595,-20.221258,0</coordinates></Point></Placemark>
<Placemark><name>Radar</name><description>Fonte: DNIT</description><Point><coordinates>-56.525673,-20.179674,0</coordinates></Point></Placemark>
<Placemark><name>Radar</name><description>Fonte: DNIT</description><Point><coordinates>-56.538241,-20.174771,0</coordinates></Point></Placemark>
<Placemark><name>Radar</name><description>Fonte: DNIT</description><Point><coordinates>-56.639551,-20.135485,0</coordinates></Point></Placemark>
<Placemark><name>Radar</name><description>Fonte: DNIT</description><Point><coordinates>-56.665841,-20.134202,0</coordinates></Point></Placemark>
<Placemark><name>Radar</name><description>Fonte: DNIT</description><Point><coordinates>-56.671245,-20.133791,0</coordinates></Point></Placemark>
<Placemark><name>Radar</name><description>Fonte: DNIT</description><Point><coordinates>-56.679399,-20.133475,0</coordinates></Point></Placemark>
<Placemark><name>Radar 40 km/h</name><description>Fonte: ANTT</description><Point><coordinates>-54.439985,-20.102531,0</coordinates></Point></Placemark>
<Placemark><name>Radar 40 km/h</name><description>Fonte: ANTT</description><Point><coordinates>-54.437691,-20.097670,0</coordinates></Point></Placemark>
<Placemark><name>Radar</name><description>Fonte: DNIT</description><Point><coordinates>-56.805247,-20.021415,0</coordinates></Point></Placemark>
<Placemark><name>Radar</name><description>Fonte: DNIT</description><Point><coordinates>-56.818316,-20.002084,0</coordinates></Point></Placemark>
<Placemark><name>Radar 60 km/h</name><description>Fonte: ANTT</description><Point><coordinates>-54.366066,-19.927230,0</coordinates></Point></Placemark>
<Placemark><name>Radar 40 km/h</name><description>Fonte: ANTT</description><Point><coordinates>-54.368570,-19.918372,0</coordinates></Point></Placemark>
<Placemark><name>Radar 40 km/h</name><description>Fonte: ANTT</description><Point><coordinates>-54.369550,-19.915095,0</coordinates></Point></Placemark>
<Placemark><name>Radar</name><description>Fonte: DNIT</description><Point><coordinates>-56.912320,-19.817018,0</coordinates></Point></Placemark>
<Placemark><name>Radar</name><description>Fonte: DNIT</description><Point><coordinates>-56.922136,-19.812552,0</coordinates></Point></Placemark>
<Placemark><name>Radar</name><description>Fonte: DNIT</description><Point><coordinates>-56.927079,-19.810065,0</coordinates></Point></Placemark>
<Placemark><name>Radar 60 km/h</name><description>Fonte: ANTT</description><Point><coordinates>-54.350129,-19.679582,0</coordinates></Point></Placemark>
<Placemark><name>Radar</name><description>Fonte: DNIT</description><Point><coordinates>-57.012377,-19.674423,0</coordinates></Point></Placemark>
<Placemark><name>Radar</name><description>Fonte: DNIT</description><Point><coordinates>-57.019651,-19.661692,0</coordinates></Point></Placemark>
<Placemark><name>Radar</name><description>Fonte: DNIT</description><Point><coordinates>-57.253737,-19.556523,0</coordinates></Point></Placemark>
<Placemark><name>Radar</name><description>Fonte: DNIT</description><Point><coordinates>-57.407289,-19.535765,0</coordinates></Point></Placemark>
<Placemark><name>Radar</name><description>Fonte: DNIT</description><Point><coordinates>-54.043437,-19.532467,0</coordinates></Point></Placemark>
<Placemark><name>Radar 40 km/h</name><description>Fonte: ANTT</description><Point><coordinates>-54.564441,-19.400625,0</coordinates></Point></Placemark>
<Placemark><name>Radar 60 km/h</name><description>Fonte: ANTT</description><Point><coordinates>-54.576027,-19.382116,0</coordinates></Point></Placemark>
<Placemark><name>Radar 60 km/h</name><description>Fonte: ANTT</description><Point><coordinates>-54.581459,-19.373270,0</coordinates></Point></Placemark>
<Placemark><name>Radar 40 km/h</name><description>Fonte: ANTT</description><Point><coordinates>-54.571672,-19.344893,0</coordinates></Point></Placemark>
<Placemark><name>Radar 100 km/h</name><description>Fonte: ANTT</description><Point><coordinates>-54.759449,-19.162209,0</coordinates></Point></Placemark>
<Placemark><name>Radar 100 km/h</name><description>Fonte: OSM</description><Point><coordinates>-54.827949,-18.959533,0</coordinates></Point></Placemark>
<Placemark><name>Radar 100 km/h</name><description>Fonte: ANTT · sentido 331° (noroeste)</description><Point><coordinates>-54.828029,-18.959252,0</coordinates></Point></Placemark>
<Placemark><name>Radar 40 km/h</name><description>Fonte: ANTT</description><Point><coordinates>-54.838486,-18.916241,0</coordinates></Point></Placemark>
<Placemark><name>Radar 60 km/h</name><description>Fonte: ANTT</description><Point><coordinates>-54.840658,-18.907938,0</coordinates></Point></Placemark>
<Placemark><name>Radar 100 km/h</name><description>Fonte: ANTT · sentido 345° (norte)</description><Point><coordinates>-54.813606,-18.834186,0</coordinates></Point></Placemark>
<Placemark><name>Radar 60 km/h</name><description>Fonte: ANTT</description><Point><coordinates>-54.746877,-18.544525,0</coordinates></Point></Placemark>
<Placemark><name>Radar 40 km/h</name><description>Fonte: ANTT</description><Point><coordinates>-54.741251,-18.530077,0</coordinates></Point></Placemark>
<Placemark><name>Radar 60 km/h</name><description>Fonte: ANTT</description><Point><coordinates>-54.737190,-18.514410,0</coordinates></Point></Placemark>
<Placemark><name>Radar 40 km/h</name><description>Fonte: ANTT</description><Point><coordinates>-54.733498,-18.503097,0</coordinates></Point></Placemark>
<Placemark><name>Radar 60 km/h</name><description>Fonte: ANTT</description><Point><coordinates>-54.654673,-18.185793,0</coordinates></Point></Placemark>
</Folder>
</Document></kml>