<?xml version="1.0" encoding="UTF-8"?>
<gpx version="1.1" creator="Pardal" xmlns="http://www.topografix.com/GPX/1/1">
<metadata><name>Pardal — radares — AC</name><desc>Pardal — © colaboradores do OpenStreetMap (ODbL 1.0) e fontes abertas listadas no README</desc></metadata>
<wpt lat="-10.011852" lon="-67.773819"><name>Radar</name><desc>Fonte: DNIT</desc><type>FIXED</type></wpt>
<wpt lat="-10.011417" lon="-67.794678"><name>Radar</name><desc>Fonte: DNIT</desc><type>FIXED</type></wpt>
<wpt lat="-10.010705" lon="-67.845244"><name>Radar</name><desc>Fonte: DNIT</desc><type>FIXED</type></wpt>
<wpt lat="-9.965592" lon="-67.854500"><name>Radar</name><desc>Fonte: DNIT</desc><type>FIXED</type></wpt>
<wpt lat="-9.961280" lon="-67.856482"><name>Radar</name><desc>Fonte: DNIT</desc><type>FIXED</type></wpt>
</gpx>