{"type":"FeatureCollection","attribution":"Pardal — © colaboradores do OpenStreetMap (ODbL 1.0) e fontes abertas listadas no README","features":[{"type":"Feature","geometry":{"type":"Point","coordinates":[-67.773819,-10.011852]},"properties":{"kind":"FIXED","limit_kmh":null,"source":"DNIT","active":true}},{"type":"Feature","geometry":{"type":"Point","coordinates":[-67.794678,-10.011417]},"properties":{"kind":"FIXED","limit_kmh":null,"source":"DNIT","active":true}},{"type":"Feature","geometry":{"type":"Point","coordinates":[-67.845244,-10.010705]},"properties":{"kind":"FIXED","limit_kmh":null,"source":"DNIT","active":true}},{"type":"Feature","geometry":{"type":"Point","coordinates":[-67.8545,-9.965592]},"properties":{"kind":"FIXED","limit_kmh":null,"source":"DNIT","active":true}},{"type":"Feature","geometry":{"type":"Point","coordinates":[-67.856482,-9.96128]},"properties":{"kind":"FIXED","limit_kmh":null,"source":"DNIT","active":true}}]}