<?xml version="1.0" encoding="UTF-8"?>
<gpx version="1.1" creator="Pardal" xmlns="http://www.topografix.com/GPX/1/1">
<metadata><name>Pardal — radares — AM</name><desc>Pardal — © colaboradores do OpenStreetMap (ODbL 1.0) e fontes abertas listadas no README</desc></metadata>
<wpt lat="-3.090915" lon="-60.056599"><name>Radar 60 km/h</name><desc>Fonte: INMETRO</desc><type>FIXED</type></wpt>
<wpt lat="-3.085888" lon="-60.031435"><name>Radar 60 km/h</name><desc>Fonte: INMETRO</desc><type>FIXED</type></wpt>
<wpt lat="-3.066090" lon="-60.007961"><name>Radar 60 km/h</name><desc>Fonte: INMETRO</desc><type>FIXED</type></wpt>
<wpt lat="-3.064925" lon="-60.008896"><name>Radar 60 km/h</name><desc>Fonte: INMETRO</desc><type>FIXED</type></wpt>
<wpt lat="-3.042350" lon="-60.072304"><name>Radar 60 km/h</name><desc>Fonte: INMETRO</desc><type>FIXED</type></wpt>
<wpt lat="-3.034642" lon="-59.962667"><name>Radar 60 km/h</name><desc>Fonte: INMETRO</desc><type>FIXED</type></wpt>
<wpt lat="-3.026981" lon="-60.020291"><name>Radar 60 km/h</name><desc>Fonte: INMETRO</desc><type>FIXED</type></wpt>
<wpt lat="-2.997201" lon="-60.055532"><name>Radar 60 km/h</name><desc>Fonte: INMETRO</desc><type>FIXED</type></wpt>
<wpt lat="-2.965583" lon="-60.021389"><name>Radar 60 km/h</name><desc>Fonte: DNIT+OSM</desc><type>FIXED</type></wpt>
<wpt lat="-2.958883" lon="-60.032697"><name>Radar 60 km/h</name><desc>Fonte: OSM</desc><type>FIXED</type></wpt>
<wpt lat="-2.947972" lon="-60.033444"><name>Radar 60 km/h</name><desc>Fonte: DNIT+OSM</desc><type>FIXED</type></wpt>
<wpt lat="-2.927816" lon="-60.035193"><name>Radar 80 km/h</name><desc>Fonte: OSM</desc><type>FIXED</type></wpt>
<wpt lat="-2.909500" lon="-60.038250"><name>Radar</name><desc>Fonte: DNIT</desc><type>FIXED</type></wpt>
<wpt lat="-2.886267" lon="-60.035159"><name>Radar 80 km/h</name><desc>Fonte: OSM</desc><type>FIXED</type></wpt>
<wpt lat="-2.856680" lon="-60.037580"><name>Radar 60 km/h</name><desc>Fonte: DNIT+OSM</desc><type>FIXED</type></wpt>
<wpt lat="-2.056199" lon="-60.022210"><name>Radar 60 km/h</name><desc>Fonte: OSM</desc><type>FIXED</type></wpt>
<wpt lat="-2.055960" lon="-60.022410"><name>Radar</name><desc>Fonte: DNIT</desc><type>FIXED</type></wpt>
<wpt lat="-2.053194" lon="-60.023765"><name>Radar 60 km/h</name><desc>Fonte: OSM</desc><type>FIXED</type></wpt>
<wpt lat="-2.041144" lon="-60.025914"><name>Radar 60 km/h</name><desc>Fonte: OSM</desc><type>FIXED</type></wpt>
<wpt lat="-2.040400" lon="-60.025970"><name>Radar</name><desc>Fonte: DNIT</desc><type>FIXED</type></wpt>
</gpx>