{"type":"FeatureCollection","attribution":"Pardal — © colaboradores do OpenStreetMap (ODbL 1.0) e fontes abertas listadas no README","features":[{"type":"Feature","geometry":{"type":"Point","coordinates":[-35.99113,-7.523291]},"properties":{"kind":"FIXED","limit_kmh":50,"source":"OSM","active":true,"direction_deg":null}},{"type":"Feature","geometry":{"type":"Point","coordinates":[-34.984908,-7.500318]},"properties":{"kind":"FIXED","limit_kmh":50,"source":"DNIT+OSM","active":true,"direction_deg":5}},{"type":"Feature","geometry":{"type":"Point","coordinates":[-34.985089,-7.500021]},"properties":{"kind":"FIXED","limit_kmh":50,"source":"OSM","active":true,"direction_deg":null}},{"type":"Feature","geometry":{"type":"Point","coordinates":[-34.985087,-7.499483]},"properties":{"kind":"FIXED","limit_kmh":50,"source":"OSM","active":true,"direction_deg":null}},{"type":"Feature","geometry":{"type":"Point","coordinates":[-34.984974,-7.499378]},"properties":{"kind":"FIXED","limit_kmh":50,"source":"OSM","active":true,"direction_deg":null}},{"type":"Feature","geometry":{"type":"Point","coordinates":[-34.981056,-7.485109]},"properties":{"kind":"FIXED","limit_kmh":100,"source":"OSM","active":true,"direction_deg":null}},{"type":"Feature","geometry":{"type":"Point","coordinates":[-34.981179,-7.455729]},"properties":{"kind":"FIXED","limit_kmh":null,"source":"DNIT","active":true,"direction_deg":191}},{"type":"Feature","geometry":{"type":"Point","coordinates":[-34.977218,-7.439334]},"properties":{"kind":"FIXED","limit_kmh":null,"source":"DNIT","active":true,"direction_deg":13}},{"type":"Feature","geometry":{"type":"Point","coordinates":[-34.977202,-7.438894]},"properties":{"kind":"FIXED","limit_kmh":100,"source":"OSM","active":true,"direction_deg":null}},{"type":"Feature","geometry":{"type":"Point","coordinates":[-34.955521,-7.410996]},"properties":{"kind":"FIXED","limit_kmh":100,"source":"OSM","active":true,"direction_deg":null}},{"type":"Feature","geometry":{"type":"Point","coordinates":[-34.955249,-7.41024]},"properties":{"kind":"FIXED","limit_kmh":null,"source":"DNIT","active":true,"direction_deg":29}},{"type":"Feature","geometry":{"type":"Point","coordinates":[-34.956631,-7.37842]},"properties":{"kind":"FIXED","limit_kmh":null,"source":"DNIT","active":true,"direction_deg":196}},{"type":"Feature","geometry":{"type":"Point","coordinates":[-34.956159,-7.376437]},"properties":{"kind":"FIXED","limit_kmh":100,"source":"OSM","active":true,"direction_deg":null}},{"type":"Feature","geometry":{"type":"Point","coordinates":[-35.898229,-7.3751]},"properties":{"kind":"FIXED","limit_kmh":50,"source":"OSM","active":true,"direction_deg":null}},{"type":"Feature","geometry":{"type":"Point","coordinates":[-35.902131,-7.36421]},"properties":{"kind":"FIXED","limit_kmh":50,"source":"OSM","active":true,"direction_deg":null}},{"type":"Feature","geometry":{"type":"Point","coordinates":[-35.902518,-7.363347]},"properties":{"kind":"FIXED","limit_kmh":50,"source":"OSM","active":true,"direction_deg":null}},{"type":"Feature","geometry":{"type":"Point","coordinates":[-34.951402,-7.360727]},"properties":{"kind":"FIXED","limit_kmh":80,"source":"OSM","active":true,"direction_deg":null}},{"type":"Feature","geometry":{"type":"Point","coordinates":[-34.951233,-7.360249]},"properties":{"kind":"FIXED","limit_kmh":null,"source":"DNIT","active":true,"direction_deg":15}},{"type":"Feature","geometry":{"type":"Point","coordinates":[-35.9017,-7.358266]},"properties":{"kind":"FIXED","limit_kmh":null,"source":"DNIT","active":true,"direction_deg":null}},{"type":"Feature","geometry":{"type":"Point","coordinates":[-34.949492,-7.35293]},"properties":{"kind":"FIXED","limit_kmh":80,"source":"OSM","active":true,"direction_deg":null}},{"type":"Feature","geometry":{"type":"Point","coordinates":[-34.949345,-7.352533]},"properties":{"kind":"FIXED","limit_kmh":null,"source":"DNIT","active":true,"direction_deg":196}},{"type":"Feature","geometry":{"type":"Point","coordinates":[-35.896699,-7.326537]},"properties":{"kind":"FIXED","limit_kmh":80,"source":"OSM","active":true,"direction_deg":null}},{"type":"Feature","geometry":{"type":"Point","coordinates":[-35.892007,-7.29975]},"properties":{"kind":"FIXED","limit_kmh":80,"source":"OSM","active":true,"direction_deg":null}},{"type":"Feature","geometry":{"type":"Point","coordinates":[-35.890755,-7.292514]},"properties":{"kind":"FIXED","limit_kmh":null,"source":"DNIT","active":true,"direction_deg":null}},{"type":"Feature","geometry":{"type":"Point","coordinates":[-35.767196,-7.281763]},"properties":{"kind":"FIXED","limit_kmh":80,"source":"OSM","active":true,"direction_deg":null}},{"type":"Feature","geometry":{"type":"Point","coordinates":[-35.767616,-7.281722]},"properties":{"kind":"FIXED","limit_kmh":null,"source":"DNIT","active":true,"direction_deg":258}},{"type":"Feature","geometry":{"type":"Point","coordinates":[-35.771188,-7.27949]},"properties":{"kind":"FIXED","limit_kmh":80,"source":"DNIT+OSM","active":true,"direction_deg":149}},{"type":"Feature","geometry":{"type":"Point","coordinates":[-35.744783,-7.277118]},"properties":{"kind":"FIXED","limit_kmh":null,"source":"DNIT","active":true,"direction_deg":276}},{"type":"Feature","geometry":{"type":"Point","coordinates":[-35.746467,-7.276792]},"properties":{"kind":"FIXED","limit_kmh":null,"source":"DNIT","active":true,"direction_deg":127}},{"type":"Feature","geometry":{"type":"Point","coordinates":[-35.780815,-7.275836]},"properties":{"kind":"FIXED","limit_kmh":80,"source":"DNIT+OSM","active":true,"direction_deg":270}},{"type":"Feature","geometry":{"type":"Point","coordinates":[-35.887011,-7.274461]},"properties":{"kind":"FIXED","limit_kmh":50,"source":"OSM","active":true,"direction_deg":null}},{"type":"Feature","geometry":{"type":"Point","coordinates":[-35.783939,-7.274457]},"properties":{"kind":"FIXED","limit_kmh":80,"source":"DNIT+OSM","active":true,"direction_deg":144}},{"type":"Feature","geometry":{"type":"Point","coordinates":[-34.936004,-7.261558]},"properties":{"kind":"FIXED","limit_kmh":null,"source":"DNIT","active":true,"direction_deg":9}},{"type":"Feature","geometry":{"type":"Point","coordinates":[-34.935349,-7.257472]},"properties":{"kind":"FIXED","limit_kmh":null,"source":"DNIT","active":true,"direction_deg":202}},{"type":"Feature","geometry":{"type":"Point","coordinates":[-36.228153,-7.252793]},"properties":{"kind":"FIXED","limit_kmh":80,"source":"OSM","active":true,"direction_deg":null}},{"type":"Feature","geometry":{"type":"Point","coordinates":[-35.622655,-7.24098]},"properties":{"kind":"FIXED","limit_kmh":null,"source":"DNIT","active":true,"direction_deg":81}},{"type":"Feature","geometry":{"type":"Point","coordinates":[-35.622333,-7.240873]},"properties":{"kind":"FIXED","limit_kmh":null,"source":"DNIT","active":true,"direction_deg":260}},{"type":"Feature","geometry":{"type":"Point","coordinates":[-35.860302,-7.240824]},"properties":{"kind":"FIXED","limit_kmh":80,"source":"OSM","active":true,"direction_deg":null}},{"type":"Feature","geometry":{"type":"Point","coordinates":[-35.862435,-7.239839]},"properties":{"kind":"FIXED","limit_kmh":50,"source":"DNIT+OSM","active":true,"direction_deg":117}},{"type":"Feature","geometry":{"type":"Point","coordinates":[-35.606061,-7.238292]},"properties":{"kind":"FIXED","limit_kmh":80,"source":"OSM","active":true,"direction_deg":null}},{"type":"Feature","geometry":{"type":"Point","coordinates":[-35.604166,-7.237058]},"properties":{"kind":"FIXED","limit_kmh":80,"source":"OSM","active":true,"direction_deg":null}},{"type":"Feature","geometry":{"type":"Point","coordinates":[-35.896633,-7.236367]},"properties":{"kind":"FIXED","limit_kmh":50,"source":"INMETRO","active":true,"direction_deg":null}},{"type":"Feature","geometry":{"type":"Point","coordinates":[-35.879781,-7.235018]},"properties":{"kind":"FIXED","limit_kmh":50,"source":"INMETRO","active":true,"direction_deg":null}},{"type":"Feature","geometry":{"type":"Point","coordinates":[-35.913205,-7.232889]},"properties":{"kind":"FIXED","limit_kmh":50,"source":"OSM","active":true,"direction_deg":null}},{"type":"Feature","geometry":{"type":"Point","coordinates":[-35.907752,-7.230199]},"properties":{"kind":"FIXED","limit_kmh":50,"source":"INMETRO","active":true,"direction_deg":null}},{"type":"Feature","geometry":{"type":"Point","coordinates":[-35.893525,-7.23003]},"properties":{"kind":"FIXED","limit_kmh":50,"source":"INMETRO","active":true,"direction_deg":null}},{"type":"Feature","geometry":{"type":"Point","coordinates":[-34.915778,-7.225427]},"properties":{"kind":"FIXED","limit_kmh":null,"source":"DNIT","active":true,"direction_deg":42}},{"type":"Feature","geometry":{"type":"Point","coordinates":[-35.892854,-7.221326]},"properties":{"kind":"FIXED","limit_kmh":50,"source":"INMETRO+OSM","active":true,"direction_deg":null}},{"type":"Feature","geometry":{"type":"Point","coordinates":[-35.892514,-7.221193]},"properties":{"kind":"FIXED","limit_kmh":50,"source":"OSM","active":true,"direction_deg":null}},{"type":"Feature","geometry":{"type":"Point","coordinates":[-35.895806,-7.220453]},"properties":{"kind":"FIXED","limit_kmh":50,"source":"INMETRO","active":true,"direction_deg":null}},{"type":"Feature","geometry":{"type":"Point","coordinates":[-37.950969,-7.208719]},"properties":{"kind":"FIXED","limit_kmh":50,"source":"OSM","active":true,"direction_deg":null}},{"type":"Feature","geometry":{"type":"Point","coordinates":[-34.845576,-7.207963]},"properties":{"kind":"FIXED","limit_kmh":50,"source":"INMETRO","active":true,"direction_deg":null}},{"type":"Feature","geometry":{"type":"Point","coordinates":[-34.846916,-7.207838]},"properties":{"kind":"FIXED","limit_kmh":50,"source":"PMJP","active":true,"direction_deg":null}},{"type":"Feature","geometry":{"type":"Point","coordinates":[-34.846913,-7.207765]},"properties":{"kind":"FIXED","limit_kmh":50,"source":"PMJP","active":true,"direction_deg":null}},{"type":"Feature","geometry":{"type":"Point","coordinates":[-35.875225,-7.206237]},"properties":{"kind":"FIXED","limit_kmh":50,"source":"INMETRO","active":true,"direction_deg":null}},{"type":"Feature","geometry":{"type":"Point","coordinates":[-35.53879,-7.204306]},"properties":{"kind":"FIXED","limit_kmh":80,"source":"OSM","active":true,"direction_deg":null}},{"type":"Feature","geometry":{"type":"Point","coordinates":[-35.537777,-7.204198]},"properties":{"kind":"FIXED","limit_kmh":80,"source":"OSM","active":true,"direction_deg":null}},{"type":"Feature","geometry":{"type":"Point","coordinates":[-34.907956,-7.203526]},"properties":{"kind":"FIXED","limit_kmh":null,"source":"DNIT","active":true,"direction_deg":13}},{"type":"Feature","geometry":{"type":"Point","coordinates":[-35.156438,-7.202492]},"properties":{"kind":"FIXED","limit_kmh":null,"source":"DNIT","active":true,"direction_deg":null}},{"type":"Feature","geometry":{"type":"Point","coordinates":[-35.952625,-7.200701]},"properties":{"kind":"FIXED","limit_kmh":50,"source":"OSM","active":false,"direction_deg":null}},{"type":"Feature","geometry":{"type":"Point","coordinates":[-34.907082,-7.200568]},"properties":{"kind":"FIXED","limit_kmh":null,"source":"DNIT","active":true,"direction_deg":201}},{"type":"Feature","geometry":{"type":"Point","coordinates":[-34.85396,-7.193187]},"properties":{"kind":"FIXED","limit_kmh":50,"source":"PMJP","active":true,"direction_deg":null}},{"type":"Feature","geometry":{"type":"Point","coordinates":[-34.839457,-7.192563]},"properties":{"kind":"FIXED","limit_kmh":50,"source":"PMJP","active":true,"direction_deg":null}},{"type":"Feature","geometry":{"type":"Point","coordinates":[-34.839584,-7.192536]},"properties":{"kind":"FIXED","limit_kmh":50,"source":"PMJP","active":true,"direction_deg":null}},{"type":"Feature","geometry":{"type":"Point","coordinates":[-35.231431,-7.191711]},"properties":{"kind":"FIXED","limit_kmh":null,"source":"DNIT","active":true,"direction_deg":89}},{"type":"Feature","geometry":{"type":"Point","coordinates":[-34.856135,-7.191687]},"properties":{"kind":"FIXED","limit_kmh":50,"source":"PMJP","active":true,"direction_deg":null}},{"type":"Feature","geometry":{"type":"Point","coordinates":[-35.23029,-7.191515]},"properties":{"kind":"FIXED","limit_kmh":null,"source":"DNIT","active":true,"direction_deg":281}},{"type":"Feature","geometry":{"type":"Point","coordinates":[-34.855235,-7.188269]},"properties":{"kind":"FIXED","limit_kmh":50,"source":"PMJP","active":true,"direction_deg":null}},{"type":"Feature","geometry":{"type":"Point","coordinates":[-34.85618,-7.186778]},"properties":{"kind":"FIXED","limit_kmh":50,"source":"PMJP+INMETRO","active":true,"direction_deg":null}},{"type":"Feature","geometry":{"type":"Point","coordinates":[-35.866287,-7.185694]},"properties":{"kind":"FIXED","limit_kmh":null,"source":"DNIT","active":true,"direction_deg":null}},{"type":"Feature","geometry":{"type":"Point","coordinates":[-35.198731,-7.185606]},"properties":{"kind":"FIXED","limit_kmh":80,"source":"DNIT+OSM","active":true,"direction_deg":56}},{"type":"Feature","geometry":{"type":"Point","coordinates":[-35.195904,-7.184878]},"properties":{"kind":"FIXED","limit_kmh":null,"source":"DNIT","active":true,"direction_deg":289}},{"type":"Feature","geometry":{"type":"Point","coordinates":[-34.900881,-7.181826]},"properties":{"kind":"FIXED","limit_kmh":50,"source":"DNIT+OSM","active":true,"direction_deg":15}},{"type":"Feature","geometry":{"type":"Point","coordinates":[-34.899723,-7.177568]},"properties":{"kind":"FIXED","limit_kmh":50,"source":"OSM","active":true,"direction_deg":null}},{"type":"Feature","geometry":{"type":"Point","coordinates":[-34.899594,-7.177282]},"properties":{"kind":"FIXED","limit_kmh":null,"source":"DNIT","active":true,"direction_deg":199}},{"type":"Feature","geometry":{"type":"Point","coordinates":[-35.392812,-7.173017]},"properties":{"kind":"FIXED","limit_kmh":null,"source":"DNIT","active":true,"direction_deg":81}},{"type":"Feature","geometry":{"type":"Point","coordinates":[-35.392419,-7.172889]},"properties":{"kind":"FIXED","limit_kmh":50,"source":"OSM","active":true,"direction_deg":null}},{"type":"Feature","geometry":{"type":"Point","coordinates":[-35.339049,-7.171213]},"properties":{"kind":"FIXED","limit_kmh":50,"source":"DNIT+OSM","active":true,"direction_deg":null}},{"type":"Feature","geometry":{"type":"Point","coordinates":[-34.871678,-7.170138]},"properties":{"kind":"FIXED","limit_kmh":null,"source":"DNIT","active":true,"direction_deg":288}},{"type":"Feature","geometry":{"type":"Point","coordinates":[-34.877872,-7.169525]},"properties":{"kind":"FIXED","limit_kmh":null,"source":"DNIT","active":true,"direction_deg":99}},{"type":"Feature","geometry":{"type":"Point","coordinates":[-35.344197,-7.168914]},"properties":{"kind":"FIXED","limit_kmh":50,"source":"DNIT+OSM","active":true,"direction_deg":null}},{"type":"Feature","geometry":{"type":"Point","coordinates":[-34.842256,-7.168269]},"properties":{"kind":"FIXED","limit_kmh":40,"source":"PMJP","active":true,"direction_deg":null}},{"type":"Feature","geometry":{"type":"Point","coordinates":[-34.842198,-7.168268]},"properties":{"kind":"FIXED","limit_kmh":40,"source":"PMJP+INMETRO","active":true,"direction_deg":null}},{"type":"Feature","geometry":{"type":"Point","coordinates":[-35.352287,-7.167883]},"properties":{"kind":"FIXED","limit_kmh":null,"source":"DNIT","active":true,"direction_deg":null}},{"type":"Feature","geometry":{"type":"Point","coordinates":[-34.827192,-7.163931]},"properties":{"kind":"FIXED","limit_kmh":50,"source":"PMJP","active":true,"direction_deg":null}},{"type":"Feature","geometry":{"type":"Point","coordinates":[-34.827183,-7.163697]},"properties":{"kind":"FIXED","limit_kmh":50,"source":"PMJP+INMETRO","active":true,"direction_deg":null}},{"type":"Feature","geometry":{"type":"Point","coordinates":[-35.346886,-7.162935]},"properties":{"kind":"FIXED","limit_kmh":null,"source":"DNIT","active":true,"direction_deg":271}},{"type":"Feature","geometry":{"type":"Point","coordinates":[-34.843304,-7.162083]},"properties":{"kind":"FIXED","limit_kmh":50,"source":"PMJP+INMETRO","active":true,"direction_deg":null}},{"type":"Feature","geometry":{"type":"Point","coordinates":[-34.896353,-7.161852]},"properties":{"kind":"FIXED","limit_kmh":50,"source":"PMJP+INMETRO","active":true,"direction_deg":null}},{"type":"Feature","geometry":{"type":"Point","coordinates":[-34.842981,-7.161772]},"properties":{"kind":"FIXED","limit_kmh":50,"source":"PMJP","active":true,"direction_deg":null}},{"type":"Feature","geometry":{"type":"Point","coordinates":[-34.896363,-7.161254]},"properties":{"kind":"FIXED","limit_kmh":50,"source":"PMJP+INMETRO","active":true,"direction_deg":null}},{"type":"Feature","geometry":{"type":"Point","coordinates":[-34.838585,-7.156189]},"properties":{"kind":"FIXED","limit_kmh":50,"source":"PMJP+INMETRO","active":true,"direction_deg":null}},{"type":"Feature","geometry":{"type":"Point","coordinates":[-34.83849,-7.156183]},"properties":{"kind":"FIXED","limit_kmh":50,"source":"PMJP+INMETRO","active":true,"direction_deg":null}},{"type":"Feature","geometry":{"type":"Point","coordinates":[-34.853961,-7.152071]},"properties":{"kind":"FIXED","limit_kmh":80,"source":"OSM","active":true,"direction_deg":null}},{"type":"Feature","geometry":{"type":"Point","coordinates":[-34.853504,-7.151694]},"properties":{"kind":"FIXED","limit_kmh":80,"source":"OSM","active":true,"direction_deg":null}},{"type":"Feature","geometry":{"type":"Point","coordinates":[-34.839652,-7.151088]},"properties":{"kind":"FIXED","limit_kmh":50,"source":"PMJP+INMETRO","active":true,"direction_deg":null}},{"type":"Feature","geometry":{"type":"Point","coordinates":[-34.839872,-7.151009]},"properties":{"kind":"FIXED","limit_kmh":50,"source":"PMJP+INMETRO","active":true,"direction_deg":null}},{"type":"Feature","geometry":{"type":"Point","coordinates":[-35.000311,-7.146425]},"properties":{"kind":"FIXED","limit_kmh":null,"source":"DNIT","active":true,"direction_deg":62}},{"type":"Feature","geometry":{"type":"Point","coordinates":[-35.000403,-7.146249]},"properties":{"kind":"FIXED","limit_kmh":null,"source":"DNIT","active":true,"direction_deg":242}},{"type":"Feature","geometry":{"type":"Point","coordinates":[-34.892296,-7.14617]},"properties":{"kind":"FIXED","limit_kmh":40,"source":"PMJP+INMETRO","active":true,"direction_deg":null}},{"type":"Feature","geometry":{"type":"Point","coordinates":[-34.892165,-7.146034]},"properties":{"kind":"FIXED","limit_kmh":40,"source":"PMJP+INMETRO","active":true,"direction_deg":null}},{"type":"Feature","geometry":{"type":"Point","coordinates":[-34.875079,-7.145167]},"properties":{"kind":"FIXED","limit_kmh":50,"source":"PMJP+INMETRO","active":true,"direction_deg":null}},{"type":"Feature","geometry":{"type":"Point","coordinates":[-34.87434,-7.145044]},"properties":{"kind":"FIXED","limit_kmh":50,"source":"PMJP+INMETRO","active":true,"direction_deg":null}},{"type":"Feature","geometry":{"type":"Point","coordinates":[-34.830299,-7.144153]},"properties":{"kind":"FIXED","limit_kmh":50,"source":"PMJP","active":true,"direction_deg":null}},{"type":"Feature","geometry":{"type":"Point","coordinates":[-34.830337,-7.144116]},"properties":{"kind":"FIXED","limit_kmh":50,"source":"PMJP","active":true,"direction_deg":null}},{"type":"Feature","geometry":{"type":"Point","coordinates":[-34.980378,-7.142137]},"properties":{"kind":"FIXED","limit_kmh":100,"source":"OSM","active":true,"direction_deg":null}},{"type":"Feature","geometry":{"type":"Point","coordinates":[-34.979386,-7.141995]},"properties":{"kind":"FIXED","limit_kmh":null,"source":"DNIT","active":true,"direction_deg":78}},{"type":"Feature","geometry":{"type":"Point","coordinates":[-34.814894,-7.141879]},"properties":{"kind":"FIXED","limit_kmh":30,"source":"PMJP","active":true,"direction_deg":null}},{"type":"Feature","geometry":{"type":"Point","coordinates":[-34.851953,-7.140639]},"properties":{"kind":"FIXED","limit_kmh":80,"source":"DNIT+OSM","active":true,"direction_deg":347}},{"type":"Feature","geometry":{"type":"Point","coordinates":[-34.975704,-7.140455]},"properties":{"kind":"FIXED","limit_kmh":100,"source":"OSM","active":true,"direction_deg":null}},{"type":"Feature","geometry":{"type":"Point","coordinates":[-34.974763,-7.140093]},"properties":{"kind":"FIXED","limit_kmh":null,"source":"DNIT","active":true,"direction_deg":245}},{"type":"Feature","geometry":{"type":"Point","coordinates":[-34.878993,-7.139474]},"properties":{"kind":"FIXED","limit_kmh":50,"source":"PMJP+INMETRO","active":true,"direction_deg":null}},{"type":"Feature","geometry":{"type":"Point","coordinates":[-34.875795,-7.137649]},"properties":{"kind":"FIXED","limit_kmh":50,"source":"PMJP","active":true,"direction_deg":null}},{"type":"Feature","geometry":{"type":"Point","coordinates":[-34.854326,-7.136606]},"properties":{"kind":"FIXED","limit_kmh":null,"source":"DNIT","active":true,"direction_deg":154}},{"type":"Feature","geometry":{"type":"Point","coordinates":[-34.819944,-7.135476]},"properties":{"kind":"FIXED","limit_kmh":30,"source":"PMJP+INMETRO","active":true,"direction_deg":null}},{"type":"Feature","geometry":{"type":"Point","coordinates":[-34.882427,-7.135205]},"properties":{"kind":"FIXED","limit_kmh":50,"source":"PMJP","active":true,"direction_deg":null}},{"type":"Feature","geometry":{"type":"Point","coordinates":[-34.860353,-7.133933]},"properties":{"kind":"FIXED","limit_kmh":50,"source":"PMJP","active":true,"direction_deg":null}},{"type":"Feature","geometry":{"type":"Point","coordinates":[-34.822396,-7.130126]},"properties":{"kind":"FIXED","limit_kmh":30,"source":"PMJP+INMETRO+OSM","active":true,"direction_deg":null}},{"type":"Feature","geometry":{"type":"Point","coordinates":[-34.844089,-7.129505]},"properties":{"kind":"FIXED","limit_kmh":40,"source":"OSM","active":true,"direction_deg":null}},{"type":"Feature","geometry":{"type":"Point","coordinates":[-34.843023,-7.129298]},"properties":{"kind":"FIXED","limit_kmh":50,"source":"PMJP+INMETRO","active":true,"direction_deg":null}},{"type":"Feature","geometry":{"type":"Point","coordinates":[-34.883686,-7.128989]},"properties":{"kind":"FIXED","limit_kmh":40,"source":"PMJP+INMETRO","active":true,"direction_deg":null}},{"type":"Feature","geometry":{"type":"Point","coordinates":[-34.93902,-7.128164]},"properties":{"kind":"FIXED","limit_kmh":80,"source":"OSM","active":true,"direction_deg":null}},{"type":"Feature","geometry":{"type":"Point","coordinates":[-34.938992,-7.128092]},"properties":{"kind":"FIXED","limit_kmh":80,"source":"OSM","active":true,"direction_deg":null}},{"type":"Feature","geometry":{"type":"Point","coordinates":[-34.836658,-7.127086]},"properties":{"kind":"FIXED","limit_kmh":50,"source":"PMJP","active":true,"direction_deg":null}},{"type":"Feature","geometry":{"type":"Point","coordinates":[-34.836752,-7.12708]},"properties":{"kind":"FIXED","limit_kmh":50,"source":"PMJP","active":true,"direction_deg":null}},{"type":"Feature","geometry":{"type":"Point","coordinates":[-34.940964,-7.127044]},"properties":{"kind":"FIXED","limit_kmh":null,"source":"DNIT","active":true,"direction_deg":295}},{"type":"Feature","geometry":{"type":"Point","coordinates":[-34.850244,-7.126736]},"properties":{"kind":"FIXED","limit_kmh":50,"source":"OSM","active":true,"direction_deg":null}},{"type":"Feature","geometry":{"type":"Point","coordinates":[-34.849687,-7.126389]},"properties":{"kind":"FIXED","limit_kmh":50,"source":"PMJP","active":true,"direction_deg":null}},{"type":"Feature","geometry":{"type":"Point","coordinates":[-34.94294,-7.126183]},"properties":{"kind":"FIXED","limit_kmh":null,"source":"DNIT","active":true,"direction_deg":117}},{"type":"Feature","geometry":{"type":"Point","coordinates":[-34.948963,-7.126112]},"properties":{"kind":"FIXED","limit_kmh":null,"source":"DNIT","active":true,"direction_deg":56}},{"type":"Feature","geometry":{"type":"Point","coordinates":[-34.930485,-7.125903]},"properties":{"kind":"FIXED","limit_kmh":50,"source":"INMETRO","active":true,"direction_deg":null}},{"type":"Feature","geometry":{"type":"Point","coordinates":[-34.838735,-7.125803]},"properties":{"kind":"FIXED","limit_kmh":50,"source":"PMJP","active":true,"direction_deg":null}},{"type":"Feature","geometry":{"type":"Point","coordinates":[-34.839089,-7.125669]},"properties":{"kind":"FIXED","limit_kmh":50,"source":"PMJP+OSM","active":true,"direction_deg":null}},{"type":"Feature","geometry":{"type":"Point","coordinates":[-34.823751,-7.125455]},"properties":{"kind":"FIXED","limit_kmh":50,"source":"OSM","active":true,"direction_deg":null}},{"type":"Feature","geometry":{"type":"Point","coordinates":[-34.846045,-7.124802]},"properties":{"kind":"FIXED","limit_kmh":50,"source":"PMJP+OSM","active":true,"direction_deg":null}},{"type":"Feature","geometry":{"type":"Point","coordinates":[-34.912808,-7.124644]},"properties":{"kind":"FIXED","limit_kmh":50,"source":"INMETRO","active":true,"direction_deg":null}},{"type":"Feature","geometry":{"type":"Point","coordinates":[-34.919049,-7.123455]},"properties":{"kind":"FIXED","limit_kmh":50,"source":"INMETRO","active":true,"direction_deg":null}},{"type":"Feature","geometry":{"type":"Point","coordinates":[-34.914608,-7.122644]},"properties":{"kind":"FIXED","limit_kmh":50,"source":"INMETRO","active":true,"direction_deg":null}},{"type":"Feature","geometry":{"type":"Point","coordinates":[-34.907827,-7.120962]},"properties":{"kind":"FIXED","limit_kmh":50,"source":"INMETRO","active":true,"direction_deg":null}},{"type":"Feature","geometry":{"type":"Point","coordinates":[-34.876697,-7.1209]},"properties":{"kind":"FIXED","limit_kmh":50,"source":"PMJP","active":true,"direction_deg":null}},{"type":"Feature","geometry":{"type":"Point","coordinates":[-34.87653,-7.1206]},"properties":{"kind":"FIXED","limit_kmh":50,"source":"PMJP+INMETRO","active":true,"direction_deg":null}},{"type":"Feature","geometry":{"type":"Point","coordinates":[-34.855237,-7.119827]},"properties":{"kind":"FIXED","limit_kmh":50,"source":"PMJP","active":true,"direction_deg":null}},{"type":"Feature","geometry":{"type":"Point","coordinates":[-34.829471,-7.119749]},"properties":{"kind":"FIXED","limit_kmh":50,"source":"INMETRO","active":true,"direction_deg":null}},{"type":"Feature","geometry":{"type":"Point","coordinates":[-34.839004,-7.119699]},"properties":{"kind":"FIXED","limit_kmh":50,"source":"PMJP+INMETRO","active":true,"direction_deg":null}},{"type":"Feature","geometry":{"type":"Point","coordinates":[-34.855228,-7.1196]},"properties":{"kind":"FIXED","limit_kmh":50,"source":"PMJP","active":true,"direction_deg":null}},{"type":"Feature","geometry":{"type":"Point","coordinates":[-34.83901,-7.119487]},"properties":{"kind":"FIXED","limit_kmh":50,"source":"PMJP+INMETRO","active":true,"direction_deg":null}},{"type":"Feature","geometry":{"type":"Point","coordinates":[-34.844612,-7.118673]},"properties":{"kind":"FIXED","limit_kmh":60,"source":"DNIT+OSM","active":true,"direction_deg":52}},{"type":"Feature","geometry":{"type":"Point","coordinates":[-34.88668,-7.117431]},"properties":{"kind":"FIXED","limit_kmh":50,"source":"PMJP+OSM","active":true,"direction_deg":null}},{"type":"Feature","geometry":{"type":"Point","coordinates":[-34.855181,-7.115586]},"properties":{"kind":"FIXED","limit_kmh":50,"source":"PMJP","active":true,"direction_deg":null}},{"type":"Feature","geometry":{"type":"Point","coordinates":[-34.841946,-7.115532]},"properties":{"kind":"FIXED","limit_kmh":60,"source":"DNIT+OSM","active":true,"direction_deg":182}},{"type":"Feature","geometry":{"type":"Point","coordinates":[-34.855285,-7.115476]},"properties":{"kind":"FIXED","limit_kmh":50,"source":"PMJP+INMETRO","active":true,"direction_deg":null}},{"type":"Feature","geometry":{"type":"Point","coordinates":[-34.833999,-7.115115]},"properties":{"kind":"FIXED","limit_kmh":50,"source":"PMJP","active":true,"direction_deg":null}},{"type":"Feature","geometry":{"type":"Point","coordinates":[-34.847588,-7.114588]},"properties":{"kind":"FIXED","limit_kmh":50,"source":"PMJP","active":true,"direction_deg":null}},{"type":"Feature","geometry":{"type":"Point","coordinates":[-34.84769,-7.114514]},"properties":{"kind":"FIXED","limit_kmh":50,"source":"PMJP+INMETRO","active":true,"direction_deg":null}},{"type":"Feature","geometry":{"type":"Point","coordinates":[-34.82542,-7.114132]},"properties":{"kind":"FIXED","limit_kmh":50,"source":"PMJP+INMETRO","active":true,"direction_deg":null}},{"type":"Feature","geometry":{"type":"Point","coordinates":[-34.825411,-7.114054]},"properties":{"kind":"FIXED","limit_kmh":50,"source":"PMJP","active":true,"direction_deg":null}},{"type":"Feature","geometry":{"type":"Point","coordinates":[-34.831233,-7.110784]},"properties":{"kind":"FIXED","limit_kmh":50,"source":"INMETRO","active":true,"direction_deg":null}},{"type":"Feature","geometry":{"type":"Point","coordinates":[-34.870591,-7.110286]},"properties":{"kind":"FIXED","limit_kmh":50,"source":"PMJP+INMETRO","active":true,"direction_deg":null}},{"type":"Feature","geometry":{"type":"Point","coordinates":[-34.870606,-7.110154]},"properties":{"kind":"FIXED","limit_kmh":50,"source":"PMJP","active":true,"direction_deg":null}},{"type":"Feature","geometry":{"type":"Point","coordinates":[-34.832219,-7.109525]},"properties":{"kind":"FIXED","limit_kmh":50,"source":"PMJP","active":true,"direction_deg":null}},{"type":"Feature","geometry":{"type":"Point","coordinates":[-34.84349,-7.108507]},"properties":{"kind":"FIXED","limit_kmh":80,"source":"OSM","active":true,"direction_deg":null}},{"type":"Feature","geometry":{"type":"Point","coordinates":[-34.827947,-7.108158]},"properties":{"kind":"FIXED","limit_kmh":50,"source":"PMJP+INMETRO","active":true,"direction_deg":null}},{"type":"Feature","geometry":{"type":"Point","coordinates":[-34.872583,-7.107058]},"properties":{"kind":"FIXED","limit_kmh":50,"source":"PMJP","active":true,"direction_deg":null}},{"type":"Feature","geometry":{"type":"Point","coordinates":[-34.872266,-7.107047]},"properties":{"kind":"FIXED","limit_kmh":50,"source":"PMJP","active":true,"direction_deg":null}},{"type":"Feature","geometry":{"type":"Point","coordinates":[-35.867517,-7.106863]},"properties":{"kind":"FIXED","limit_kmh":50,"source":"OSM","active":true,"direction_deg":null}},{"type":"Feature","geometry":{"type":"Point","coordinates":[-34.835451,-7.105675]},"properties":{"kind":"FIXED","limit_kmh":50,"source":"PMJP+INMETRO","active":true,"direction_deg":null}},{"type":"Feature","geometry":{"type":"Point","coordinates":[-34.866588,-7.105166]},"properties":{"kind":"FIXED","limit_kmh":50,"source":"INMETRO","active":true,"direction_deg":null}},{"type":"Feature","geometry":{"type":"Point","coordinates":[-34.834247,-7.10506]},"properties":{"kind":"FIXED","limit_kmh":50,"source":"PMJP+INMETRO","active":true,"direction_deg":null}},{"type":"Feature","geometry":{"type":"Point","coordinates":[-34.861455,-7.101246]},"properties":{"kind":"FIXED","limit_kmh":40,"source":"PMJP+INMETRO","active":true,"direction_deg":null}},{"type":"Feature","geometry":{"type":"Point","coordinates":[-34.833892,-7.100677]},"properties":{"kind":"FIXED","limit_kmh":50,"source":"PMJP+INMETRO","active":true,"direction_deg":null}},{"type":"Feature","geometry":{"type":"Point","coordinates":[-34.837758,-7.099556]},"properties":{"kind":"FIXED","limit_kmh":50,"source":"PMJP","active":true,"direction_deg":null}},{"type":"Feature","geometry":{"type":"Point","coordinates":[-34.839344,-7.097518]},"properties":{"kind":"FIXED","limit_kmh":50,"source":"PMJP","active":true,"direction_deg":null}},{"type":"Feature","geometry":{"type":"Point","coordinates":[-34.835549,-7.097359]},"properties":{"kind":"FIXED","limit_kmh":50,"source":"PMJP","active":true,"direction_deg":null}},{"type":"Feature","geometry":{"type":"Point","coordinates":[-34.83557,-7.097244]},"properties":{"kind":"FIXED","limit_kmh":50,"source":"PMJP","active":true,"direction_deg":null}},{"type":"Feature","geometry":{"type":"Point","coordinates":[-34.856528,-7.097044]},"properties":{"kind":"FIXED","limit_kmh":50,"source":"PMJP+INMETRO","active":true,"direction_deg":null}},{"type":"Feature","geometry":{"type":"Point","coordinates":[-34.848369,-7.090599]},"properties":{"kind":"FIXED","limit_kmh":null,"source":"DNIT","active":true,"direction_deg":356}},{"type":"Feature","geometry":{"type":"Point","coordinates":[-34.848308,-7.090102]},"properties":{"kind":"FIXED","limit_kmh":50,"source":"OSM","active":true,"direction_deg":null}},{"type":"Feature","geometry":{"type":"Point","coordinates":[-34.835269,-7.088907]},"properties":{"kind":"FIXED","limit_kmh":50,"source":"PMJP","active":true,"direction_deg":null}},{"type":"Feature","geometry":{"type":"Point","coordinates":[-34.834201,-7.088462]},"properties":{"kind":"FIXED","limit_kmh":50,"source":"PMJP+INMETRO","active":true,"direction_deg":null}},{"type":"Feature","geometry":{"type":"Point","coordinates":[-34.848602,-7.08773]},"properties":{"kind":"FIXED","limit_kmh":60,"source":"DNIT+OSM","active":true,"direction_deg":175}},{"type":"Feature","geometry":{"type":"Point","coordinates":[-37.440011,-7.085103]},"properties":{"kind":"FIXED","limit_kmh":50,"source":"OSM","active":false,"direction_deg":null}},{"type":"Feature","geometry":{"type":"Point","coordinates":[-37.451718,-7.08505]},"properties":{"kind":"FIXED","limit_kmh":50,"source":"OSM","active":false,"direction_deg":null}},{"type":"Feature","geometry":{"type":"Point","coordinates":[-34.832886,-7.083922]},"properties":{"kind":"FIXED","limit_kmh":50,"source":"PMJP","active":true,"direction_deg":null}},{"type":"Feature","geometry":{"type":"Point","coordinates":[-34.980403,-7.083779]},"properties":{"kind":"FIXED","limit_kmh":null,"source":"DNIT","active":true,"direction_deg":119}},{"type":"Feature","geometry":{"type":"Point","coordinates":[-34.833676,-7.083282]},"properties":{"kind":"FIXED","limit_kmh":50,"source":"PMJP","active":true,"direction_deg":null}},{"type":"Feature","geometry":{"type":"Point","coordinates":[-34.83119,-7.080001]},"properties":{"kind":"FIXED","limit_kmh":50,"source":"PMJP+INMETRO","active":true,"direction_deg":null}},{"type":"Feature","geometry":{"type":"Point","coordinates":[-34.831608,-7.07721]},"properties":{"kind":"FIXED","limit_kmh":50,"source":"PMJP","active":true,"direction_deg":null}},{"type":"Feature","geometry":{"type":"Point","coordinates":[-34.849365,-7.074631]},"properties":{"kind":"FIXED","limit_kmh":60,"source":"OSM","active":true,"direction_deg":null}},{"type":"Feature","geometry":{"type":"Point","coordinates":[-34.849763,-7.072457]},"properties":{"kind":"FIXED","limit_kmh":60,"source":"OSM","active":true,"direction_deg":null}},{"type":"Feature","geometry":{"type":"Point","coordinates":[-35.854998,-7.068906]},"properties":{"kind":"FIXED","limit_kmh":80,"source":"OSM","active":true,"direction_deg":null}},{"type":"Feature","geometry":{"type":"Point","coordinates":[-34.850047,-7.065867]},"properties":{"kind":"FIXED","limit_kmh":60,"source":"OSM","active":true,"direction_deg":null}},{"type":"Feature","geometry":{"type":"Point","coordinates":[-34.85035,-7.063369]},"properties":{"kind":"FIXED","limit_kmh":60,"source":"OSM","active":true,"direction_deg":null}},{"type":"Feature","geometry":{"type":"Point","coordinates":[-37.275377,-7.051646]},"properties":{"kind":"FIXED","limit_kmh":40,"source":"OSM","active":true,"direction_deg":null}},{"type":"Feature","geometry":{"type":"Point","coordinates":[-37.275162,-7.046698]},"properties":{"kind":"FIXED","limit_kmh":40,"source":"OSM","active":true,"direction_deg":null}},{"type":"Feature","geometry":{"type":"Point","coordinates":[-34.846841,-7.044659]},"properties":{"kind":"FIXED","limit_kmh":null,"source":"DNIT","active":true,"direction_deg":24}},{"type":"Feature","geometry":{"type":"Point","coordinates":[-34.847058,-7.04454]},"properties":{"kind":"FIXED","limit_kmh":null,"source":"DNIT","active":true,"direction_deg":204}},{"type":"Feature","geometry":{"type":"Point","coordinates":[-34.846333,-7.043622]},"properties":{"kind":"FIXED","limit_kmh":null,"source":"DNIT","active":true,"direction_deg":null}},{"type":"Feature","geometry":{"type":"Point","coordinates":[-37.314641,-7.036519]},"properties":{"kind":"FIXED","limit_kmh":50,"source":"DNIT+OSM","active":true,"direction_deg":null}},{"type":"Feature","geometry":{"type":"Point","coordinates":[-34.842293,-7.034664]},"properties":{"kind":"FIXED","limit_kmh":null,"source":"DNIT","active":true,"direction_deg":24}},{"type":"Feature","geometry":{"type":"Point","coordinates":[-34.837616,-7.023759]},"properties":{"kind":"FIXED","limit_kmh":null,"source":"DNIT","active":true,"direction_deg":205}},{"type":"Feature","geometry":{"type":"Point","coordinates":[-34.836452,-7.022031]},"properties":{"kind":"FIXED","limit_kmh":50,"source":"OSM","active":true,"direction_deg":null}},{"type":"Feature","geometry":{"type":"Point","coordinates":[-34.836021,-7.021047]},"properties":{"kind":"FIXED","limit_kmh":null,"source":"DNIT","active":true,"direction_deg":null}},{"type":"Feature","geometry":{"type":"Point","coordinates":[-34.835925,-7.020105]},"properties":{"kind":"FIXED","limit_kmh":null,"source":"DNIT","active":true,"direction_deg":null}},{"type":"Feature","geometry":{"type":"Point","coordinates":[-34.835548,-7.019112]},"properties":{"kind":"FIXED","limit_kmh":50,"source":"OSM","active":true,"direction_deg":null}},{"type":"Feature","geometry":{"type":"Point","coordinates":[-37.258654,-7.018318]},"properties":{"kind":"FIXED","limit_kmh":50,"source":"DNIT+OSM","active":true,"direction_deg":281}},{"type":"Feature","geometry":{"type":"Point","coordinates":[-34.834689,-7.017954]},"properties":{"kind":"FIXED","limit_kmh":null,"source":"DNIT","active":true,"direction_deg":24}},{"type":"Feature","geometry":{"type":"Point","coordinates":[-37.260026,-7.017685]},"properties":{"kind":"FIXED","limit_kmh":null,"source":"DNIT","active":true,"direction_deg":137}},{"type":"Feature","geometry":{"type":"Point","coordinates":[-37.260389,-7.017023]},"properties":{"kind":"FIXED","limit_kmh":50,"source":"OSM","active":true,"direction_deg":null}},{"type":"Feature","geometry":{"type":"Point","coordinates":[-34.82783,-7.010243]},"properties":{"kind":"FIXED","limit_kmh":50,"source":"INMETRO","active":true,"direction_deg":null}},{"type":"Feature","geometry":{"type":"Point","coordinates":[-37.283543,-7.008144]},"properties":{"kind":"FIXED","limit_kmh":null,"source":"DNIT","active":true,"direction_deg":null}},{"type":"Feature","geometry":{"type":"Point","coordinates":[-37.28413,-7.008133]},"properties":{"kind":"FIXED","limit_kmh":50,"source":"OSM","active":true,"direction_deg":null}},{"type":"Feature","geometry":{"type":"Point","coordinates":[-37.293674,-7.00682]},"properties":{"kind":"FIXED","limit_kmh":50,"source":"DNIT+OSM","active":true,"direction_deg":null}},{"type":"Feature","geometry":{"type":"Point","coordinates":[-37.297192,-7.006701]},"properties":{"kind":"FIXED","limit_kmh":50,"source":"DNIT+OSM","active":true,"direction_deg":276}},{"type":"Feature","geometry":{"type":"Point","coordinates":[-37.299245,-7.006292]},"properties":{"kind":"FIXED","limit_kmh":null,"source":"DNIT","active":true,"direction_deg":120}},{"type":"Feature","geometry":{"type":"Point","coordinates":[-34.826266,-7.003535]},"properties":{"kind":"FIXED","limit_kmh":50,"source":"INMETRO","active":true,"direction_deg":null}},{"type":"Feature","geometry":{"type":"Point","coordinates":[-37.303289,-7.003518]},"properties":{"kind":"FIXED","limit_kmh":50,"source":"OSM","active":true,"direction_deg":null}},{"type":"Feature","geometry":{"type":"Point","coordinates":[-37.130083,-6.957134]},"properties":{"kind":"FIXED","limit_kmh":80,"source":"OSM","active":true,"direction_deg":null}},{"type":"Feature","geometry":{"type":"Point","coordinates":[-37.391271,-6.949892]},"properties":{"kind":"FIXED","limit_kmh":50,"source":"OSM","active":true,"direction_deg":null}},{"type":"Feature","geometry":{"type":"Point","coordinates":[-37.390895,-6.949888]},"properties":{"kind":"FIXED","limit_kmh":null,"source":"DNIT","active":true,"direction_deg":null}},{"type":"Feature","geometry":{"type":"Point","coordinates":[-37.396585,-6.948699]},"properties":{"kind":"FIXED","limit_kmh":50,"source":"DNIT+OSM","active":true,"direction_deg":null}},{"type":"Feature","geometry":{"type":"Point","coordinates":[-38.72161,-6.939555]},"properties":{"kind":"FIXED","limit_kmh":null,"source":"DNIT","active":true,"direction_deg":null}},{"type":"Feature","geometry":{"type":"Point","coordinates":[-37.094171,-6.93656]},"properties":{"kind":"FIXED","limit_kmh":50,"source":"DNIT+OSM","active":true,"direction_deg":null}},{"type":"Feature","geometry":{"type":"Point","coordinates":[-37.014564,-6.911464]},"properties":{"kind":"FIXED","limit_kmh":80,"source":"OSM","active":true,"direction_deg":null}},{"type":"Feature","geometry":{"type":"Point","coordinates":[-37.6051,-6.911252]},"properties":{"kind":"FIXED","limit_kmh":50,"source":"OSM","active":true,"direction_deg":null}},{"type":"Feature","geometry":{"type":"Point","coordinates":[-37.595202,-6.909555]},"properties":{"kind":"FIXED","limit_kmh":50,"source":"OSM","active":true,"direction_deg":null}},{"type":"Feature","geometry":{"type":"Point","coordinates":[-37.594918,-6.909444]},"properties":{"kind":"FIXED","limit_kmh":null,"source":"DNIT","active":true,"direction_deg":null}},{"type":"Feature","geometry":{"type":"Point","coordinates":[-37.584341,-6.907015]},"properties":{"kind":"FIXED","limit_kmh":50,"source":"OSM","active":true,"direction_deg":null}},{"type":"Feature","geometry":{"type":"Point","coordinates":[-37.530572,-6.905396]},"properties":{"kind":"FIXED","limit_kmh":50,"source":"DNIT+OSM","active":true,"direction_deg":null}},{"type":"Feature","geometry":{"type":"Point","coordinates":[-37.515927,-6.904993]},"properties":{"kind":"FIXED","limit_kmh":50,"source":"DNIT+OSM","active":true,"direction_deg":null}},{"type":"Feature","geometry":{"type":"Point","coordinates":[-38.565171,-6.90237]},"properties":{"kind":"FIXED","limit_kmh":null,"source":"DNIT","active":true,"direction_deg":null}},{"type":"Feature","geometry":{"type":"Point","coordinates":[-38.558674,-6.901211]},"properties":{"kind":"FIXED","limit_kmh":null,"source":"DNIT","active":true,"direction_deg":null}},{"type":"Feature","geometry":{"type":"Point","coordinates":[-38.548022,-6.899027]},"properties":{"kind":"FIXED","limit_kmh":null,"source":"DNIT","active":true,"direction_deg":null}},{"type":"Feature","geometry":{"type":"Point","coordinates":[-38.540369,-6.894217]},"properties":{"kind":"FIXED","limit_kmh":50,"source":"OSM","active":true,"direction_deg":null}},{"type":"Feature","geometry":{"type":"Point","coordinates":[-38.541111,-6.893963]},"properties":{"kind":"FIXED","limit_kmh":null,"source":"DNIT","active":true,"direction_deg":274}},{"type":"Feature","geometry":{"type":"Point","coordinates":[-37.722203,-6.892092]},"properties":{"kind":"FIXED","limit_kmh":50,"source":"OSM","active":true,"direction_deg":null}},{"type":"Feature","geometry":{"type":"Point","coordinates":[-37.722418,-6.891903]},"properties":{"kind":"FIXED","limit_kmh":null,"source":"DNIT","active":true,"direction_deg":null}},{"type":"Feature","geometry":{"type":"Point","coordinates":[-37.729338,-6.888942]},"properties":{"kind":"FIXED","limit_kmh":null,"source":"DNIT","active":true,"direction_deg":null}},{"type":"Feature","geometry":{"type":"Point","coordinates":[-37.729699,-6.888784]},"properties":{"kind":"FIXED","limit_kmh":50,"source":"OSM","active":true,"direction_deg":null}},{"type":"Feature","geometry":{"type":"Point","coordinates":[-36.929566,-6.874825]},"properties":{"kind":"FIXED","limit_kmh":50,"source":"OSM","active":true,"direction_deg":null}},{"type":"Feature","geometry":{"type":"Point","coordinates":[-36.929428,-6.874551]},"properties":{"kind":"FIXED","limit_kmh":null,"source":"DNIT","active":true,"direction_deg":null}},{"type":"Feature","geometry":{"type":"Point","coordinates":[-36.909718,-6.873093]},"properties":{"kind":"FIXED","limit_kmh":50,"source":"OSM","active":true,"direction_deg":null}},{"type":"Feature","geometry":{"type":"Point","coordinates":[-36.913068,-6.87004]},"properties":{"kind":"FIXED","limit_kmh":null,"source":"DNIT","active":true,"direction_deg":null}},{"type":"Feature","geometry":{"type":"Point","coordinates":[-36.913859,-6.869431]},"properties":{"kind":"FIXED","limit_kmh":50,"source":"OSM","active":true,"direction_deg":null}},{"type":"Feature","geometry":{"type":"Point","coordinates":[-37.404937,-6.851049]},"properties":{"kind":"FIXED","limit_kmh":50,"source":"DNIT+OSM","active":true,"direction_deg":null}},{"type":"Feature","geometry":{"type":"Point","coordinates":[-38.351925,-6.844595]},"properties":{"kind":"FIXED","limit_kmh":50,"source":"OSM","active":true,"direction_deg":null}},{"type":"Feature","geometry":{"type":"Point","coordinates":[-38.350853,-6.84449]},"properties":{"kind":"FIXED","limit_kmh":null,"source":"DNIT","active":true,"direction_deg":null}},{"type":"Feature","geometry":{"type":"Point","coordinates":[-38.344667,-6.843722]},"properties":{"kind":"FIXED","limit_kmh":50,"source":"OSM","active":true,"direction_deg":null}},{"type":"Feature","geometry":{"type":"Point","coordinates":[-38.315269,-6.835435]},"properties":{"kind":"FIXED","limit_kmh":50,"source":"OSM","active":true,"direction_deg":null}},{"type":"Feature","geometry":{"type":"Point","coordinates":[-38.315389,-6.835134]},"properties":{"kind":"FIXED","limit_kmh":null,"source":"DNIT","active":true,"direction_deg":null}},{"type":"Feature","geometry":{"type":"Point","coordinates":[-37.78382,-6.794196]},"properties":{"kind":"FIXED","limit_kmh":100,"source":"OSM","active":true,"direction_deg":null}},{"type":"Feature","geometry":{"type":"Point","coordinates":[-38.080793,-6.786966]},"properties":{"kind":"FIXED","limit_kmh":50,"source":"OSM","active":true,"direction_deg":null}},{"type":"Feature","geometry":{"type":"Point","coordinates":[-38.076578,-6.786907]},"properties":{"kind":"FIXED","limit_kmh":50,"source":"OSM","active":true,"direction_deg":null}},{"type":"Feature","geometry":{"type":"Point","coordinates":[-38.075907,-6.786793]},"properties":{"kind":"FIXED","limit_kmh":null,"source":"DNIT","active":true,"direction_deg":null}},{"type":"Feature","geometry":{"type":"Point","coordinates":[-37.796377,-6.786126]},"properties":{"kind":"FIXED","limit_kmh":50,"source":"OSM","active":true,"direction_deg":null}},{"type":"Feature","geometry":{"type":"Point","coordinates":[-38.085181,-6.785944]},"properties":{"kind":"FIXED","limit_kmh":50,"source":"OSM","active":true,"direction_deg":null}},{"type":"Feature","geometry":{"type":"Point","coordinates":[-38.259142,-6.78118]},"properties":{"kind":"FIXED","limit_kmh":50,"source":"DNIT+OSM","active":true,"direction_deg":null}},{"type":"Feature","geometry":{"type":"Point","coordinates":[-38.255213,-6.781089]},"properties":{"kind":"FIXED","limit_kmh":50,"source":"OSM","active":true,"direction_deg":null}},{"type":"Feature","geometry":{"type":"Point","coordinates":[-38.254344,-6.780982]},"properties":{"kind":"FIXED","limit_kmh":null,"source":"DNIT","active":true,"direction_deg":null}},{"type":"Feature","geometry":{"type":"Point","coordinates":[-38.243311,-6.778893]},"properties":{"kind":"FIXED","limit_kmh":50,"source":"DNIT+OSM","active":true,"direction_deg":null}},{"type":"Feature","geometry":{"type":"Point","coordinates":[-38.229319,-6.778385]},"properties":{"kind":"FIXED","limit_kmh":50,"source":"OSM","active":true,"direction_deg":null}},{"type":"Feature","geometry":{"type":"Point","coordinates":[-38.228792,-6.778307]},"properties":{"kind":"FIXED","limit_kmh":null,"source":"DNIT","active":true,"direction_deg":null}},{"type":"Feature","geometry":{"type":"Point","coordinates":[-38.201745,-6.774813]},"properties":{"kind":"FIXED","limit_kmh":50,"source":"OSM","active":true,"direction_deg":null}},{"type":"Feature","geometry":{"type":"Point","coordinates":[-38.201125,-6.774772]},"properties":{"kind":"FIXED","limit_kmh":null,"source":"DNIT","active":true,"direction_deg":null}},{"type":"Feature","geometry":{"type":"Point","coordinates":[-37.797858,-6.771667]},"properties":{"kind":"FIXED","limit_kmh":50,"source":"OSM","active":true,"direction_deg":null}},{"type":"Feature","geometry":{"type":"Point","coordinates":[-37.797316,-6.770804]},"properties":{"kind":"FIXED","limit_kmh":50,"source":"OSM","active":true,"direction_deg":null}},{"type":"Feature","geometry":{"type":"Point","coordinates":[-37.781605,-6.761607]},"properties":{"kind":"FIXED","limit_kmh":50,"source":"OSM","active":true,"direction_deg":null}},{"type":"Feature","geometry":{"type":"Point","coordinates":[-37.79117,-6.756712]},"properties":{"kind":"FIXED","limit_kmh":50,"source":"OSM","active":false,"direction_deg":null}},{"type":"Feature","geometry":{"type":"Point","coordinates":[-37.800517,-6.723955]},"properties":{"kind":"FIXED","limit_kmh":80,"source":"OSM","active":true,"direction_deg":null}},{"type":"Feature","geometry":{"type":"Point","coordinates":[-35.122131,-6.643979]},"properties":{"kind":"FIXED","limit_kmh":80,"source":"OSM","active":false,"direction_deg":null}},{"type":"Feature","geometry":{"type":"Point","coordinates":[-35.12247,-6.64322]},"properties":{"kind":"FIXED","limit_kmh":80,"source":"OSM","active":false,"direction_deg":null}}]}