<?xml version="1.0" encoding="UTF-8"?>
<kml xmlns="http://www.opengis.net/kml/2.2"><Document>
<name>Pardal — radares — PB</name>
<description>Pardal — © colaboradores do OpenStreetMap (ODbL 1.0) e fontes abertas listadas no README</description>
<Folder><name>Radares de velocidade</name>
<Placemark><name>Radar 50 km/h</name><description>Fonte: OSM</description><Point><coordinates>-35.991130,-7.523291,0</coordinates></Point></Placemark>
<Placemark><name>Radar 100 km/h</name><description>Fonte: OSM</description><Point><coordinates>-34.981056,-7.485109,0</coordinates></Point></Placemark>
<Placemark><name>Radar</name><description>Fonte: DNIT · sentido 191° (sul)</description><Point><coordinates>-34.981179,-7.455729,0</coordinates></Point></Placemark>
<Placemark><name>Radar</name><description>Fonte: DNIT · sentido 13° (norte)</description><Point><coordinates>-34.977218,-7.439334,0</coordinates></Point></Placemark>
<Placemark><name>Radar 100 km/h</name><description>Fonte: OSM</description><Point><coordinates>-34.977202,-7.438894,0</coordinates></Point></Placemark>
<Placemark><name>Radar 100 km/h</name><description>Fonte: OSM</description><Point><coordinates>-34.955521,-7.410996,0</coordinates></Point></Placemark>
<Placemark><name>Radar</name><description>Fonte: DNIT · sentido 29° (nordeste)</description><Point><coordinates>-34.955249,-7.410240,0</coordinates></Point></Placemark>
<Placemark><name>Radar</name><description>Fonte: DNIT · sentido 196° (sul)</description><Point><coordinates>-34.956631,-7.378420,0</coordinates></Point></Placemark>
<Placemark><name>Radar 100 km/h</name><description>Fonte: OSM</description><Point><coordinates>-34.956159,-7.376437,0</coordinates></Point></Placemark>
<Placemark><name>Radar 50 km/h</name><description>Fonte: OSM</description><Point><coordinates>-35.898229,-7.375100,0</coordinates></Point></Placemark>
<Placemark><name>Radar 50 km/h</name><description>Fonte: OSM</description><Point><coordinates>-35.902131,-7.364210,0</coordinates></Point></Placemark>
<Placemark><name>Radar 50 km/h</name><description>Fonte: OSM</description><Point><coordinates>-35.902518,-7.363347,0</coordinates></Point></Placemark>
<Placemark><name>Radar 80 km/h</name><description>Fonte: OSM</description><Point><coordinates>-34.951402,-7.360727,0</coordinates></Point></Placemark>
<Placemark><name>Radar</name><description>Fonte: DNIT · sentido 15° (norte)</description><Point><coordinates>-34.951233,-7.360249,0</coordinates></Point></Placemark>
<Placemark><name>Radar</name><description>Fonte: DNIT</description><Point><coordinates>-35.901700,-7.358266,0</coordinates></Point></Placemark>
<Placemark><name>Radar 80 km/h</name><description>Fonte: OSM</description><Point><coordinates>-34.949492,-7.352930,0</coordinates></Point></Placemark>
<Placemark><name>Radar</name><description>Fonte: DNIT · sentido 196° (sul)</description><Point><coordinates>-34.949345,-7.352533,0</coordinates></Point></Placemark>
<Placemark><name>Radar 80 km/h</name><description>Fonte: OSM</description><Point><coordinates>-35.896699,-7.326537,0</coordinates></Point></Placemark>
<Placemark><name>Radar 80 km/h</name><description>Fonte: OSM</description><Point><coordinates>-35.892007,-7.299750,0</coordinates></Point></Placemark>
<Placemark><name>Radar</name><description>Fonte: DNIT</description><Point><coordinates>-35.890755,-7.292514,0</coordinates></Point></Placemark>
<Placemark><name>Radar 80 km/h</name><description>Fonte: OSM</description><Point><coordinates>-35.767196,-7.281763,0</coordinates></Point></Placemark>
<Placemark><name>Radar</name><description>Fonte: DNIT · sentido 258° (oeste)</description><Point><coordinates>-35.767616,-7.281722,0</coordinates></Point></Placemark>
<Placemark><name>Radar 80 km/h</name><description>Fonte: DNIT+OSM · sentido 149° (sudeste)</description><Point><coordinates>-35.771188,-7.279490,0</coordinates></Point></Placemark>
<Placemark><name>Radar</name><description>Fonte: DNIT · sentido 276° (oeste)</description><Point><coordinates>-35.744783,-7.277118,0</coordinates></Point></Placemark>
<Placemark><name>Radar</name><description>Fonte: DNIT · sentido 127° (sudeste)</description><Point><coordinates>-35.746467,-7.276792,0</coordinates></Point></Placemark>
<Placemark><name>Radar 80 km/h</name><description>Fonte: DNIT+OSM · sentido 270° (oeste)</description><Point><coordinates>-35.780815,-7.275836,0</coordinates></Point></Placemark>
<Placemark><name>Radar 50 km/h</name><description>Fonte: OSM</description><Point><coordinates>-35.887011,-7.274461,0</coordinates></Point></Placemark>
<Placemark><name>Radar 80 km/h</name><description>Fonte: DNIT+OSM · sentido 144° (sudeste)</description><Point><coordinates>-35.783939,-7.274457,0</coordinates></Point></Placemark>
<Placemark><name>Radar</name><description>Fonte: DNIT · sentido 9° (norte)</description><Point><coordinates>-34.936004,-7.261558,0</coordinates></Point></Placemark>
<Placemark><name>Radar</name><description>Fonte: DNIT · sentido 202° (sul)</description><Point><coordinates>-34.935349,-7.257472,0</coordinates></Point></Placemark>
<Placemark><name>Radar 80 km/h</name><description>Fonte: OSM</description><Point><coordinates>-36.228153,-7.252793,0</coordinates></Point></Placemark>
<Placemark><name>Radar</name><description>Fonte: DNIT · sentido 81° (leste)</description><Point><coordinates>-35.622655,-7.240980,0</coordinates></Point></Placemark>
<Placemark><name>Radar</name><description>Fonte: DNIT · sentido 260° (oeste)</description><Point><coordinates>-35.622333,-7.240873,0</coordinates></Point></Placemark>
<Placemark><name>Radar 80 km/h</name><description>Fonte: OSM</description><Point><coordinates>-35.860302,-7.240824,0</coordinates></Point></Placemark>
<Placemark><name>Radar 50 km/h</name><description>Fonte: DNIT+OSM · sentido 117° (sudeste)</description><Point><coordinates>-35.862435,-7.239839,0</coordinates></Point></Placemark>
<Placemark><name>Radar 80 km/h</name><description>Fonte: OSM</description><Point><coordinates>-35.606061,-7.238292,0</coordinates></Point></Placemark>
<Placemark><name>Radar 80 km/h</name><description>Fonte: OSM</description><Point><coordinates>-35.604166,-7.237058,0</coordinates></Point></Placemark>
<Placemark><name>Radar 50 km/h</name><description>Fonte: OSM</description><Point><coordinates>-35.913205,-7.232889,0</coordinates></Point></Placemark>
<Placemark><name>Radar</name><description>Fonte: DNIT · sentido 42° (nordeste)</description><Point><coordinates>-34.915778,-7.225427,0</coordinates></Point></Placemark>
<Placemark><name>Radar 50 km/h</name><description>Fonte: OSM</description><Point><coordinates>-35.892854,-7.221326,0</coordinates></Point></Placemark>
<Placemark><name>Radar 50 km/h</name><description>Fonte: OSM</description><Point><coordinates>-35.892514,-7.221193,0</coordinates></Point></Placemark>
<Placemark><name>Radar 50 km/h</name><description>Fonte: OSM</description><Point><coordinates>-37.950969,-7.208719,0</coordinates></Point></Placemark>
<Placemark><name>Radar 50 km/h</name><description>Fonte: PMJP</description><Point><coordinates>-34.846916,-7.207838,0</coordinates></Point></Placemark>
<Placemark><name>Radar 50 km/h</name><description>Fonte: PMJP</description><Point><coordinates>-34.846913,-7.207765,0</coordinates></Point></Placemark>
<Placemark><name>Radar 80 km/h</name><description>Fonte: OSM</description><Point><coordinates>-35.538790,-7.204306,0</coordinates></Point></Placemark>
<Placemark><name>Radar 80 km/h</name><description>Fonte: OSM</description><Point><coordinates>-35.537777,-7.204198,0</coordinates></Point></Placemark>
<Placemark><name>Radar</name><description>Fonte: DNIT · sentido 13° (norte)</description><Point><coordinates>-34.907956,-7.203526,0</coordinates></Point></Placemark>
<Placemark><name>Radar</name><description>Fonte: DNIT</description><Point><coordinates>-35.156438,-7.202492,0</coordinates></Point></Placemark>
<Placemark><name>Radar</name><description>Fonte: DNIT · sentido 201° (sul)</description><Point><coordinates>-34.907082,-7.200568,0</coordinates></Point></Placemark>
<Placemark><name>Radar 50 km/h</name><description>Fonte: PMJP</description><Point><coordinates>-34.853960,-7.193187,0</coordinates></Point></Placemark>
<Placemark><name>Radar 50 km/h</name><description>Fonte: PMJP</description><Point><coordinates>-34.839457,-7.192563,0</coordinates></Point></Placemark>
<Placemark><name>Radar 50 km/h</name><description>Fonte: PMJP</description><Point><coordinates>-34.839584,-7.192536,0</coordinates></Point></Placemark>
<Placemark><name>Radar</name><description>Fonte: DNIT · sentido 89° (leste)</description><Point><coordinates>-35.231431,-7.191711,0</coordinates></Point></Placemark>
<Placemark><name>Radar 50 km/h</name><description>Fonte: PMJP</description><Point><coordinates>-34.856135,-7.191687,0</coordinates></Point></Placemark>
<Placemark><name>Radar</name><description>Fonte: DNIT · sentido 281° (oeste)</description><Point><coordinates>-35.230290,-7.191515,0</coordinates></Point></Placemark>
<Placemark><name>Radar 50 km/h</name><description>Fonte: PMJP</description><Point><coordinates>-34.855235,-7.188269,0</coordinates></Point></Placemark>
<Placemark><name>Radar 50 km/h</name><description>Fonte: PMJP</description><Point><coordinates>-34.856180,-7.186778,0</coordinates></Point></Placemark>
<Placemark><name>Radar</name><description>Fonte: DNIT</description><Point><coordinates>-35.866287,-7.185694,0</coordinates></Point></Placemark>
<Placemark><name>Radar 80 km/h</name><description>Fonte: DNIT+OSM · sentido 56° (nordeste)</description><Point><coordinates>-35.198731,-7.185606,0</coordinates></Point></Placemark>
<Placemark><name>Radar</name><description>Fonte: DNIT · sentido 289° (oeste)</description><Point><coordinates>-35.195904,-7.184878,0</coordinates></Point></Placemark>
<Placemark><name>Radar 50 km/h</name><description>Fonte: DNIT+OSM · sentido 15° (norte)</description><Point><coordinates>-34.900881,-7.181826,0</coordinates></Point></Placemark>
<Placemark><name>Radar 50 km/h</name><description>Fonte: OSM</description><Point><coordinates>-34.899723,-7.177568,0</coordinates></Point></Placemark>
<Placemark><name>Radar</name><description>Fonte: DNIT · sentido 199° (sul)</description><Point><coordinates>-34.899594,-7.177282,0</coordinates></Point></Placemark>
<Placemark><name>Radar 50 km/h</name><description>Fonte: DNIT+OSM</description><Point><coordinates>-35.339049,-7.171213,0</coordinates></Point></Placemark>
<Placemark><name>Radar</name><description>Fonte: DNIT · sentido 288° (oeste)</description><Point><coordinates>-34.871678,-7.170138,0</coordinates></Point></Placemark>
<Placemark><name>Radar</name><description>Fonte: DNIT · sentido 99° (leste)</description><Point><coordinates>-34.877872,-7.169525,0</coordinates></Point></Placemark>
<Placemark><name>Radar 50 km/h</name><description>Fonte: DNIT+OSM</description><Point><coordinates>-35.344197,-7.168914,0</coordinates></Point></Placemark>
<Placemark><name>Radar 40 km/h</name><description>Fonte: PMJP</description><Point><coordinates>-34.842256,-7.168269,0</coordinates></Point></Placemark>
<Placemark><name>Radar 40 km/h</name><description>Fonte: PMJP</description><Point><coordinates>-34.842198,-7.168268,0</coordinates></Point></Placemark>
<Placemark><name>Radar</name><description>Fonte: DNIT</description><Point><coordinates>-35.352287,-7.167883,0</coordinates></Point></Placemark>
<Placemark><name>Radar 50 km/h</name><description>Fonte: PMJP</description><Point><coordinates>-34.827192,-7.163931,0</coordinates></Point></Placemark>
<Placemark><name>Radar 50 km/h</name><description>Fonte: PMJP</description><Point><coordinates>-34.827183,-7.163697,0</coordinates></Point></Placemark>
<Placemark><name>Radar</name><description>Fonte: DNIT · sentido 271° (oeste)</description><Point><coordinates>-35.346886,-7.162935,0</coordinates></Point></Placemark>
<Placemark><name>Radar 50 km/h</name><description>Fonte: PMJP</description><Point><coordinates>-34.843304,-7.162083,0</coordinates></Point></Placemark>
<Placemark><name>Radar 50 km/h</name><description>Fonte: PMJP</description><Point><coordinates>-34.896353,-7.161852,0</coordinates></Point></Placemark>
<Placemark><name>Radar 50 km/h</name><description>Fonte: PMJP</description><Point><coordinates>-34.842981,-7.161772,0</coordinates></Point></Placemark>
<Placemark><name>Radar 50 km/h</name><description>Fonte: PMJP</description><Point><coordinates>-34.896363,-7.161254,0</coordinates></Point></Placemark>
<Placemark><name>Radar 50 km/h</name><description>Fonte: PMJP</description><Point><coordinates>-34.838585,-7.156189,0</coordinates></Point></Placemark>
<Placemark><name>Radar 50 km/h</name><description>Fonte: PMJP</description><Point><coordinates>-34.838490,-7.156183,0</coordinates></Point></Placemark>
<Placemark><name>Radar 80 km/h</name><description>Fonte: OSM</description><Point><coordinates>-34.853961,-7.152071,0</coordinates></Point></Placemark>
<Placemark><name>Radar 80 km/h</name><description>Fonte: OSM</description><Point><coordinates>-34.853504,-7.151694,0</coordinates></Point></Placemark>
<Placemark><name>Radar 50 km/h</name><description>Fonte: PMJP</description><Point><coordinates>-34.839652,-7.151088,0</coordinates></Point></Placemark>
<Placemark><name>Radar 50 km/h</name><description>Fonte: PMJP</description><Point><coordinates>-34.839872,-7.151009,0</coordinates></Point></Placemark>
<Placemark><name>Radar</name><description>Fonte: DNIT · sentido 62° (nordeste)</description><Point><coordinates>-35.000311,-7.146425,0</coordinates></Point></Placemark>
<Placemark><name>Radar</name><description>Fonte: DNIT · sentido 242° (sudoeste)</description><Point><coordinates>-35.000403,-7.146249,0</coordinates></Point></Placemark>
<Placemark><name>Radar 40 km/h</name><description>Fonte: PMJP</description><Point><coordinates>-34.892296,-7.146170,0</coordinates></Point></Placemark>
<Placemark><name>Radar 40 km/h</name><description>Fonte: PMJP</description><Point><coordinates>-34.892165,-7.146034,0</coordinates></Point></Placemark>
<Placemark><name>Radar 50 km/h</name><description>Fonte: PMJP</description><Point><coordinates>-34.875079,-7.145167,0</coordinates></Point></Placemark>
<Placemark><name>Radar 50 km/h</name><description>Fonte: PMJP</description><Point><coordinates>-34.874340,-7.145044,0</coordinates></Point></Placemark>
<Placemark><name>Radar 50 km/h</name><description>Fonte: PMJP</description><Point><coordinates>-34.830299,-7.144153,0</coordinates></Point></Placemark>
<Placemark><name>Radar 50 km/h</name><description>Fonte: PMJP</description><Point><coordinates>-34.830337,-7.144116,0</coordinates></Point></Placemark>
<Placemark><name>Radar 100 km/h</name><description>Fonte: OSM</description><Point><coordinates>-34.980378,-7.142137,0</coordinates></Point></Placemark>
<Placemark><name>Radar</name><description>Fonte: DNIT · sentido 78° (leste)</description><Point><coordinates>-34.979386,-7.141995,0</coordinates></Point></Placemark>
<Placemark><name>Radar 30 km/h</name><description>Fonte: PMJP</description><Point><coordinates>-34.814894,-7.141879,0</coordinates></Point></Placemark>
<Placemark><name>Radar 80 km/h</name><description>Fonte: DNIT+OSM · sentido 347° (norte)</description><Point><coordinates>-34.851953,-7.140639,0</coordinates></Point></Placemark>
<Placemark><name>Radar 100 km/h</name><description>Fonte: OSM</description><Point><coordinates>-34.975704,-7.140455,0</coordinates></Point></Placemark>
<Placemark><name>Radar</name><description>Fonte: DNIT · sentido 245° (sudoeste)</description><Point><coordinates>-34.974763,-7.140093,0</coordinates></Point></Placemark>
<Placemark><name>Radar 50 km/h</name><description>Fonte: PMJP</description><Point><coordinates>-34.878993,-7.139474,0</coordinates></Point></Placemark>
<Placemark><name>Radar 50 km/h</name><description>Fonte: PMJP</description><Point><coordinates>-34.875795,-7.137649,0</coordinates></Point></Placemark>
<Placemark><name>Radar</name><description>Fonte: DNIT · sentido 154° (sudeste)</description><Point><coordinates>-34.854326,-7.136606,0</coordinates></Point></Placemark>
<Placemark><name>Radar 30 km/h</name><description>Fonte: PMJP</description><Point><coordinates>-34.819944,-7.135476,0</coordinates></Point></Placemark>
<Placemark><name>Radar 50 km/h</name><description>Fonte: PMJP</description><Point><coordinates>-34.882427,-7.135205,0</coordinates></Point></Placemark>
<Placemark><name>Radar 50 km/h</name><description>Fonte: PMJP</description><Point><coordinates>-34.860353,-7.133933,0</coordinates></Point></Placemark>
<Placemark><name>Radar 30 km/h</name><description>Fonte: PMJP+OSM</description><Point><coordinates>-34.822396,-7.130126,0</coordinates></Point></Placemark>
<Placemark><name>Radar 40 km/h</name><description>Fonte: OSM</description><Point><coordinates>-34.844089,-7.129505,0</coordinates></Point></Placemark>
<Placemark><name>Radar 50 km/h</name><description>Fonte: PMJP</description><Point><coordinates>-34.843023,-7.129298,0</coordinates></Point></Placemark>
<Placemark><name>Radar 40 km/h</name><description>Fonte: PMJP</description><Point><coordinates>-34.883686,-7.128989,0</coordinates></Point></Placemark>
<Placemark><name>Radar 80 km/h</name><description>Fonte: OSM</description><Point><coordinates>-34.939020,-7.128164,0</coordinates></Point></Placemark>
<Placemark><name>Radar 80 km/h</name><description>Fonte: OSM</description><Point><coordinates>-34.938992,-7.128092,0</coordinates></Point></Placemark>
<Placemark><name>Radar 50 km/h</name><description>Fonte: PMJP</description><Point><coordinates>-34.836658,-7.127086,0</coordinates></Point></Placemark>
<Placemark><name>Radar 50 km/h</name><description>Fonte: PMJP</description><Point><coordinates>-34.836752,-7.127080,0</coordinates></Point></Placemark>
<Placemark><name>Radar</name><description>Fonte: DNIT · sentido 295° (noroeste)</description><Point><coordinates>-34.940964,-7.127044,0</coordinates></Point></Placemark>
<Placemark><name>Radar 50 km/h</name><description>Fonte: OSM</description><Point><coordinates>-34.850244,-7.126736,0</coordinates></Point></Placemark>
<Placemark><name>Radar 50 km/h</name><description>Fonte: PMJP</description><Point><coordinates>-34.849687,-7.126389,0</coordinates></Point></Placemark>
<Placemark><name>Radar</name><description>Fonte: DNIT · sentido 117° (sudeste)</description><Point><coordinates>-34.942940,-7.126183,0</coordinates></Point></Placemark>
<Placemark><name>Radar</name><description>Fonte: DNIT · sentido 56° (nordeste)</description><Point><coordinates>-34.948963,-7.126112,0</coordinates></Point></Placemark>
<Placemark><name>Radar 50 km/h</name><description>Fonte: PMJP</description><Point><coordinates>-34.838735,-7.125803,0</coordinates></Point></Placemark>
<Placemark><name>Radar 50 km/h</name><description>Fonte: PMJP+OSM</description><Point><coordinates>-34.839089,-7.125669,0</coordinates></Point></Placemark>
<Placemark><name>Radar 50 km/h</name><description>Fonte: OSM</description><Point><coordinates>-34.823751,-7.125455,0</coordinates></Point></Placemark>
<Placemark><name>Radar 50 km/h</name><description>Fonte: PMJP+OSM</description><Point><coordinates>-34.846045,-7.124802,0</coordinates></Point></Placemark>
<Placemark><name>Radar 50 km/h</name><description>Fonte: PMJP</description><Point><coordinates>-34.876697,-7.120900,0</coordinates></Point></Placemark>
<Placemark><name>Radar 50 km/h</name><description>Fonte: PMJP</description><Point><coordinates>-34.876530,-7.120600,0</coordinates></Point></Placemark>
<Placemark><name>Radar 50 km/h</name><description>Fonte: PMJP</description><Point><coordinates>-34.855237,-7.119827,0</coordinates></Point></Placemark>
<Placemark><name>Radar 50 km/h</name><description>Fonte: PMJP</description><Point><coordinates>-34.839004,-7.119699,0</coordinates></Point></Placemark>
<Placemark><name>Radar 50 km/h</name><description>Fonte: PMJP</description><Point><coordinates>-34.855228,-7.119600,0</coordinates></Point></Placemark>
<Placemark><name>Radar 50 km/h</name><description>Fonte: PMJP</description><Point><coordinates>-34.839010,-7.119487,0</coordinates></Point></Placemark>
<Placemark><name>Radar 60 km/h</name><description>Fonte: DNIT+OSM · sentido 52° (nordeste)</description><Point><coordinates>-34.844612,-7.118673,0</coordinates></Point></Placemark>
<Placemark><name>Radar 50 km/h</name><description>Fonte: PMJP+OSM</description><Point><coordinates>-34.886680,-7.117431,0</coordinates></Point></Placemark>
<Placemark><name>Radar 50 km/h</name><description>Fonte: PMJP</description><Point><coordinates>-34.855181,-7.115586,0</coordinates></Point></Placemark>
<Placemark><name>Radar 60 km/h</name><description>Fonte: DNIT+OSM · sentido 182° (sul)</description><Point><coordinates>-34.841946,-7.115532,0</coordinates></Point></Placemark>
<Placemark><name>Radar 50 km/h</name><description>Fonte: PMJP</description><Point><coordinates>-34.855285,-7.115476,0</coordinates></Point></Placemark>
<Placemark><name>Radar 50 km/h</name><description>Fonte: PMJP</description><Point><coordinates>-34.833999,-7.115115,0</coordinates></Point></Placemark>
<Placemark><name>Radar 50 km/h</name><description>Fonte: PMJP</description><Point><coordinates>-34.847588,-7.114588,0</coordinates></Point></Placemark>
<Placemark><name>Radar 50 km/h</name><description>Fonte: PMJP</description><Point><coordinates>-34.847690,-7.114514,0</coordinates></Point></Placemark>
<Placemark><name>Radar 50 km/h</name><description>Fonte: PMJP</description><Point><coordinates>-34.825420,-7.114132,0</coordinates></Point></Placemark>
<Placemark><name>Radar 50 km/h</name><description>Fonte: PMJP</description><Point><coordinates>-34.825411,-7.114054,0</coordinates></Point></Placemark>
<Placemark><name>Radar 50 km/h</name><description>Fonte: PMJP</description><Point><coordinates>-34.870591,-7.110286,0</coordinates></Point></Placemark>
<Placemark><name>Radar 50 km/h</name><description>Fonte: PMJP</description><Point><coordinates>-34.870606,-7.110154,0</coordinates></Point></Placemark>
<Placemark><name>Radar 50 km/h</name><description>Fonte: PMJP</description><Point><coordinates>-34.832219,-7.109525,0</coordinates></Point></Placemark>
<Placemark><name>Radar 80 km/h</name><description>Fonte: OSM</description><Point><coordinates>-34.843490,-7.108507,0</coordinates></Point></Placemark>
<Placemark><name>Radar 50 km/h</name><description>Fonte: PMJP</description><Point><coordinates>-34.827947,-7.108158,0</coordinates></Point></Placemark>
<Placemark><name>Radar 50 km/h</name><description>Fonte: PMJP</description><Point><coordinates>-34.872583,-7.107058,0</coordinates></Point></Placemark>
<Placemark><name>Radar 50 km/h</name><description>Fonte: PMJP</description><Point><coordinates>-34.872266,-7.107047,0</coordinates></Point></Placemark>
<Placemark><name>Radar 50 km/h</name><description>Fonte: OSM</description><Point><coordinates>-35.867517,-7.106863,0</coordinates></Point></Placemark>
<Placemark><name>Radar 50 km/h</name><description>Fonte: PMJP</description><Point><coordinates>-34.835451,-7.105675,0</coordinates></Point></Placemark>
<Placemark><name>Radar 50 km/h</name><description>Fonte: PMJP</description><Point><coordinates>-34.834247,-7.105060,0</coordinates></Point></Placemark>
<Placemark><name>Radar 40 km/h</name><description>Fonte: PMJP</description><Point><coordinates>-34.861455,-7.101246,0</coordinates></Point></Placemark>
<Placemark><name>Radar 50 km/h</name><description>Fonte: PMJP</description><Point><coordinates>-34.833892,-7.100677,0</coordinates></Point></Placemark>
<Placemark><name>Radar 50 km/h</name><description>Fonte: PMJP</description><Point><coordinates>-34.837758,-7.099556,0</coordinates></Point></Placemark>
<Placemark><name>Radar 50 km/h</name><description>Fonte: PMJP</description><Point><coordinates>-34.839344,-7.097518,0</coordinates></Point></Placemark>
<Placemark><name>Radar 50 km/h</name><description>Fonte: PMJP</description><Point><coordinates>-34.835549,-7.097359,0</coordinates></Point></Placemark>
<Placemark><name>Radar 50 km/h</name><description>Fonte: PMJP</description><Point><coordinates>-34.835570,-7.097244,0</coordinates></Point></Placemark>
<Placemark><name>Radar 50 km/h</name><description>Fonte: PMJP</description><Point><coordinates>-34.856528,-7.097044,0</coordinates></Point></Placemark>
<Placemark><name>Radar</name><description>Fonte: DNIT · sentido 356° (norte)</description><Point><coordinates>-34.848369,-7.090599,0</coordinates></Point></Placemark>
<Placemark><name>Radar 50 km/h</name><description>Fonte: OSM</description><Point><coordinates>-34.848308,-7.090102,0</coordinates></Point></Placemark>
<Placemark><name>Radar 50 km/h</name><description>Fonte: PMJP</description><Point><coordinates>-34.835269,-7.088907,0</coordinates></Point></Placemark>
<Placemark><name>Radar 50 km/h</name><description>Fonte: PMJP</description><Point><coordinates>-34.834201,-7.088462,0</coordinates></Point></Placemark>
<Placemark><name>Radar 60 km/h</name><description>Fonte: DNIT+OSM · sentido 175° (sul)</description><Point><coordinates>-34.848602,-7.087730,0</coordinates></Point></Placemark>
<Placemark><name>Radar 50 km/h</name><description>Fonte: PMJP</description><Point><coordinates>-34.832886,-7.083922,0</coordinates></Point></Placemark>
<Placemark><name>Radar</name><description>Fonte: DNIT · sentido 119° (sudeste)</description><Point><coordinates>-34.980403,-7.083779,0</coordinates></Point></Placemark>
<Placemark><name>Radar 50 km/h</name><description>Fonte: PMJP</description><Point><coordinates>-34.833676,-7.083282,0</coordinates></Point></Placemark>
<Placemark><name>Radar 50 km/h</name><description>Fonte: PMJP</description><Point><coordinates>-34.831190,-7.080001,0</coordinates></Point></Placemark>
<Placemark><name>Radar 50 km/h</name><description>Fonte: PMJP</description><Point><coordinates>-34.831608,-7.077210,0</coordinates></Point></Placemark>
<Placemark><name>Radar 60 km/h</name><description>Fonte: OSM</description><Point><coordinates>-34.849365,-7.074631,0</coordinates></Point></Placemark>
<Placemark><name>Radar 60 km/h</name><description>Fonte: OSM</description><Point><coordinates>-34.849763,-7.072457,0</coordinates></Point></Placemark>
<Placemark><name>Radar 80 km/h</name><description>Fonte: OSM</description><Point><coordinates>-35.854998,-7.068906,0</coordinates></Point></Placemark>
<Placemark><name>Radar 60 km/h</name><description>Fonte: OSM</description><Point><coordinates>-34.850047,-7.065867,0</coordinates></Point></Placemark>
<Placemark><name>Radar 60 km/h</name><description>Fonte: OSM</description><Point><coordinates>-34.850350,-7.063369,0</coordinates></Point></Placemark>
<Placemark><name>Radar 40 km/h</name><description>Fonte: OSM</description><Point><coordinates>-37.275377,-7.051646,0</coordinates></Point></Placemark>
<Placemark><name>Radar 40 km/h</name><description>Fonte: OSM</description><Point><coordinates>-37.275162,-7.046698,0</coordinates></Point></Placemark>
<Placemark><name>Radar</name><description>Fonte: DNIT · sentido 24° (nordeste)</description><Point><coordinates>-34.846841,-7.044659,0</coordinates></Point></Placemark>
<Placemark><name>Radar</name><description>Fonte: DNIT · sentido 204° (sudoeste)</description><Point><coordinates>-34.847058,-7.044540,0</coordinates></Point></Placemark>
<Placemark><name>Radar</name><description>Fonte: DNIT</description><Point><coordinates>-34.846333,-7.043622,0</coordinates></Point></Placemark>
<Placemark><name>Radar 50 km/h</name><description>Fonte: DNIT+OSM</description><Point><coordinates>-37.314641,-7.036519,0</coordinates></Point></Placemark>
<Placemark><name>Radar</name><description>Fonte: DNIT · sentido 24° (nordeste)</description><Point><coordinates>-34.842293,-7.034664,0</coordinates></Point></Placemark>
<Placemark><name>Radar</name><description>Fonte: DNIT · sentido 205° (sudoeste)</description><Point><coordinates>-34.837616,-7.023759,0</coordinates></Point></Placemark>
<Placemark><name>Radar 50 km/h</name><description>Fonte: OSM</description><Point><coordinates>-34.836452,-7.022031,0</coordinates></Point></Placemark>
<Placemark><name>Radar</name><description>Fonte: DNIT</description><Point><coordinates>-34.836021,-7.021047,0</coordinates></Point></Placemark>
<Placemark><name>Radar</name><description>Fonte: DNIT</description><Point><coordinates>-34.835925,-7.020105,0</coordinates></Point></Placemark>
<Placemark><name>Radar 50 km/h</name><description>Fonte: OSM</description><Point><coordinates>-34.835548,-7.019112,0</coordinates></Point></Placemark>
<Placemark><name>Radar 50 km/h</name><description>Fonte: DNIT+OSM · sentido 281° (oeste)</description><Point><coordinates>-37.258654,-7.018318,0</coordinates></Point></Placemark>
<Placemark><name>Radar</name><description>Fonte: DNIT · sentido 24° (nordeste)</description><Point><coordinates>-34.834689,-7.017954,0</coordinates></Point></Placemark>
<Placemark><name>Radar</name><description>Fonte: DNIT · sentido 137° (sudeste)</description><Point><coordinates>-37.260026,-7.017685,0</coordinates></Point></Placemark>
<Placemark><name>Radar 50 km/h</name><description>Fonte: OSM</description><Point><coordinates>-37.260389,-7.017023,0</coordinates></Point></Placemark>
<Placemark><name>Radar</name><description>Fonte: DNIT</description><Point><coordinates>-37.283543,-7.008144,0</coordinates></Point></Placemark>
<Placemark><name>Radar 50 km/h</name><description>Fonte: OSM</description><Point><coordinates>-37.284130,-7.008133,0</coordinates></Point></Placemark>
<Placemark><name>Radar 50 km/h</name><description>Fonte: DNIT+OSM</description><Point><coordinates>-37.293674,-7.006820,0</coordinates></Point></Placemark>
<Placemark><name>Radar 50 km/h</name><description>Fonte: DNIT+OSM · sentido 276° (oeste)</description><Point><coordinates>-37.297192,-7.006701,0</coordinates></Point></Placemark>
<Placemark><name>Radar</name><description>Fonte: DNIT · sentido 120° (sudeste)</description><Point><coordinates>-37.299245,-7.006292,0</coordinates></Point></Placemark>
<Placemark><name>Radar 50 km/h</name><description>Fonte: OSM</description><Point><coordinates>-37.303289,-7.003518,0</coordinates></Point></Placemark>
<Placemark><name>Radar 80 km/h</name><description>Fonte: OSM</description><Point><coordinates>-37.130083,-6.957134,0</coordinates></Point></Placemark>
<Placemark><name>Radar 50 km/h</name><description>Fonte: OSM</description><Point><coordinates>-37.391271,-6.949892,0</coordinates></Point></Placemark>
<Placemark><name>Radar</name><description>Fonte: DNIT</description><Point><coordinates>-37.390895,-6.949888,0</coordinates></Point></Placemark>
<Placemark><name>Radar 50 km/h</name><description>Fonte: DNIT+OSM</description><Point><coordinates>-37.396585,-6.948699,0</coordinates></Point></Placemark>
<Placemark><name>Radar</name><description>Fonte: DNIT</description><Point><coordinates>-38.721610,-6.939555,0</coordinates></Point></Placemark>
<Placemark><name>Radar 50 km/h</name><description>Fonte: DNIT+OSM</description><Point><coordinates>-37.094171,-6.936560,0</coordinates></Point></Placemark>
<Placemark><name>Radar 80 km/h</name><description>Fonte: OSM</description><Point><coordinates>-37.014564,-6.911464,0</coordinates></Point></Placemark>
<Placemark><name>Radar 50 km/h</name><description>Fonte: OSM</description><Point><coordinates>-37.605100,-6.911252,0</coordinates></Point></Placemark>
<Placemark><name>Radar 50 km/h</name><description>Fonte: OSM</description><Point><coordinates>-37.595202,-6.909555,0</coordinates></Point></Placemark>
<Placemark><name>Radar</name><description>Fonte: DNIT</description><Point><coordinates>-37.594918,-6.909444,0</coordinates></Point></Placemark>
<Placemark><name>Radar 50 km/h</name><description>Fonte: OSM</description><Point><coordinates>-37.584341,-6.907015,0</coordinates></Point></Placemark>
<Placemark><name>Radar 50 km/h</name><description>Fonte: DNIT+OSM</description><Point><coordinates>-37.530572,-6.905396,0</coordinates></Point></Placemark>
<Placemark><name>Radar 50 km/h</name><description>Fonte: DNIT+OSM</description><Point><coordinates>-37.515927,-6.904993,0</coordinates></Point></Placemark>
<Placemark><name>Radar</name><description>Fonte: DNIT</description><Point><coordinates>-38.565171,-6.902370,0</coordinates></Point></Placemark>
<Placemark><name>Radar</name><description>Fonte: DNIT</description><Point><coordinates>-38.558674,-6.901211,0</coordinates></Point></Placemark>
<Placemark><name>Radar</name><description>Fonte: DNIT</description><Point><coordinates>-38.548022,-6.899027,0</coordinates></Point></Placemark>
<Placemark><name>Radar 50 km/h</name><description>Fonte: OSM</description><Point><coordinates>-38.540369,-6.894217,0</coordinates></Point></Placemark>
<Placemark><name>Radar</name><description>Fonte: DNIT · sentido 274° (oeste)</description><Point><coordinates>-38.541111,-6.893963,0</coordinates></Point></Placemark>
<Placemark><name>Radar 50 km/h</name><description>Fonte: OSM</description><Point><coordinates>-37.722203,-6.892092,0</coordinates></Point></Placemark>
<Placemark><name>Radar</name><description>Fonte: DNIT</description><Point><coordinates>-37.722418,-6.891903,0</coordinates></Point></Placemark>
<Placemark><name>Radar</name><description>Fonte: DNIT</description><Point><coordinates>-37.729338,-6.888942,0</coordinates></Point></Placemark>
<Placemark><name>Radar 50 km/h</name><description>Fonte: OSM</description><Point><coordinates>-37.729699,-6.888784,0</coordinates></Point></Placemark>
<Placemark><name>Radar 50 km/h</name><description>Fonte: OSM</description><Point><coordinates>-36.929566,-6.874825,0</coordinates></Point></Placemark>
<Placemark><name>Radar</name><description>Fonte: DNIT</description><Point><coordinates>-36.929428,-6.874551,0</coordinates></Point></Placemark>
<Placemark><name>Radar 50 km/h</name><description>Fonte: OSM</description><Point><coordinates>-36.909718,-6.873093,0</coordinates></Point></Placemark>
<Placemark><name>Radar</name><description>Fonte: DNIT</description><Point><coordinates>-36.913068,-6.870040,0</coordinates></Point></Placemark>
<Placemark><name>Radar 50 km/h</name><description>Fonte: OSM</description><Point><coordinates>-36.913859,-6.869431,0</coordinates></Point></Placemark>
<Placemark><name>Radar 50 km/h</name><description>Fonte: DNIT+OSM</description><Point><coordinates>-37.404937,-6.851049,0</coordinates></Point></Placemark>
<Placemark><name>Radar 50 km/h</name><description>Fonte: OSM</description><Point><coordinates>-38.351925,-6.844595,0</coordinates></Point></Placemark>
<Placemark><name>Radar</name><description>Fonte: DNIT</description><Point><coordinates>-38.350853,-6.844490,0</coordinates></Point></Placemark>
<Placemark><name>Radar 50 km/h</name><description>Fonte: OSM</description><Point><coordinates>-38.344667,-6.843722,0</coordinates></Point></Placemark>
<Placemark><name>Radar 50 km/h</name><description>Fonte: OSM</description><Point><coordinates>-38.315269,-6.835435,0</coordinates></Point></Placemark>
<Placemark><name>Radar</name><description>Fonte: DNIT</description><Point><coordinates>-38.315389,-6.835134,0</coordinates></Point></Placemark>
<Placemark><name>Radar 100 km/h</name><description>Fonte: OSM</description><Point><coordinates>-37.783820,-6.794196,0</coordinates></Point></Placemark>
<Placemark><name>Radar 50 km/h</name><description>Fonte: OSM</description><Point><coordinates>-38.080793,-6.786966,0</coordinates></Point></Placemark>
<Placemark><name>Radar 50 km/h</name><description>Fonte: OSM</description><Point><coordinates>-38.076578,-6.786907,0</coordinates></Point></Placemark>
<Placemark><name>Radar</name><description>Fonte: DNIT</description><Point><coordinates>-38.075907,-6.786793,0</coordinates></Point></Placemark>
<Placemark><name>Radar 50 km/h</name><description>Fonte: OSM</description><Point><coordinates>-37.796377,-6.786126,0</coordinates></Point></Placemark>
<Placemark><name>Radar 50 km/h</name><description>Fonte: OSM</description><Point><coordinates>-38.085181,-6.785944,0</coordinates></Point></Placemark>
<Placemark><name>Radar 50 km/h</name><description>Fonte: DNIT+OSM</description><Point><coordinates>-38.259142,-6.781180,0</coordinates></Point></Placemark>
<Placemark><name>Radar 50 km/h</name><description>Fonte: OSM</description><Point><coordinates>-38.255213,-6.781089,0</coordinates></Point></Placemark>
<Placemark><name>Radar</name><description>Fonte: DNIT</description><Point><coordinates>-38.254344,-6.780982,0</coordinates></Point></Placemark>
<Placemark><name>Radar 50 km/h</name><description>Fonte: DNIT+OSM</description><Point><coordinates>-38.243311,-6.778893,0</coordinates></Point></Placemark>
<Placemark><name>Radar 50 km/h</name><description>Fonte: OSM</description><Point><coordinates>-38.229319,-6.778385,0</coordinates></Point></Placemark>
<Placemark><name>Radar</name><description>Fonte: DNIT</description><Point><coordinates>-38.228792,-6.778307,0</coordinates></Point></Placemark>
<Placemark><name>Radar 50 km/h</name><description>Fonte: OSM</description><Point><coordinates>-38.201745,-6.774813,0</coordinates></Point></Placemark>
<Placemark><name>Radar</name><description>Fonte: DNIT</description><Point><coordinates>-38.201125,-6.774772,0</coordinates></Point></Placemark>
<Placemark><name>Radar 50 km/h</name><description>Fonte: OSM</description><Point><coordinates>-37.797858,-6.771667,0</coordinates></Point></Placemark>
<Placemark><name>Radar 50 km/h</name><description>Fonte: OSM</description><Point><coordinates>-37.797316,-6.770804,0</coordinates></Point></Placemark>
<Placemark><name>Radar 50 km/h</name><description>Fonte: OSM</description><Point><coordinates>-37.781605,-6.761607,0</coordinates></Point></Placemark>
<Placemark><name>Radar 80 km/h</name><description>Fonte: OSM</description><Point><coordinates>-37.800517,-6.723955,0</coordinates></Point></Placemark>
</Folder>
</Document></kml>