{"type":"FeatureCollection","attribution":"Pardal — © colaboradores do OpenStreetMap (ODbL 1.0) e fontes abertas listadas no README","features":[{"type":"Feature","geometry":{"type":"Point","coordinates":[-49.082581,-12.74498]},"properties":{"kind":"FIXED","limit_kmh":100,"source":"ANTT","active":true}},{"type":"Feature","geometry":{"type":"Point","coordinates":[-49.082541,-12.744832]},"properties":{"kind":"FIXED","limit_kmh":80,"source":"OSM","active":true}},{"type":"Feature","geometry":{"type":"Point","coordinates":[-49.106343,-12.521229]},"properties":{"kind":"FIXED","limit_kmh":80,"source":"ANTT","active":true}},{"type":"Feature","geometry":{"type":"Point","coordinates":[-49.106631,-12.520441]},"properties":{"kind":"FIXED","limit_kmh":80,"source":"OSM","active":true}},{"type":"Feature","geometry":{"type":"Point","coordinates":[-49.18631,-12.10332]},"properties":{"kind":"FIXED","limit_kmh":100,"source":"ANTT","active":true}},{"type":"Feature","geometry":{"type":"Point","coordinates":[-49.186418,-12.103144]},"properties":{"kind":"FIXED","limit_kmh":80,"source":"OSM","active":true}},{"type":"Feature","geometry":{"type":"Point","coordinates":[-49.164734,-11.88802]},"properties":{"kind":"FIXED","limit_kmh":50,"source":"ANTT","active":true}},{"type":"Feature","geometry":{"type":"Point","coordinates":[-49.164448,-11.88731]},"properties":{"kind":"FIXED","limit_kmh":80,"source":"OSM","active":true}},{"type":"Feature","geometry":{"type":"Point","coordinates":[-49.149791,-11.8567]},"properties":{"kind":"FIXED","limit_kmh":80,"source":"ANTT","active":true}},{"type":"Feature","geometry":{"type":"Point","coordinates":[-49.149367,-11.855784]},"properties":{"kind":"FIXED","limit_kmh":80,"source":"OSM","active":true}},{"type":"Feature","geometry":{"type":"Point","coordinates":[-49.133432,-11.822468]},"properties":{"kind":"FIXED","limit_kmh":100,"source":"ANTT","active":true}},{"type":"Feature","geometry":{"type":"Point","coordinates":[-49.133145,-11.821857]},"properties":{"kind":"FIXED","limit_kmh":80,"source":"OSM","active":true}},{"type":"Feature","geometry":{"type":"Point","coordinates":[-49.10821,-11.775574]},"properties":{"kind":"FIXED","limit_kmh":80,"source":"ANTT","active":true}},{"type":"Feature","geometry":{"type":"Point","coordinates":[-49.108168,-11.775462]},"properties":{"kind":"FIXED","limit_kmh":80,"source":"OSM","active":true}},{"type":"Feature","geometry":{"type":"Point","coordinates":[-49.070079,-11.689545]},"properties":{"kind":"FIXED","limit_kmh":80,"source":"ANTT","active":true}},{"type":"Feature","geometry":{"type":"Point","coordinates":[-49.068921,-11.685878]},"properties":{"kind":"FIXED","limit_kmh":80,"source":"ANTT","active":true}},{"type":"Feature","geometry":{"type":"Point","coordinates":[-49.048193,-11.62414]},"properties":{"kind":"FIXED","limit_kmh":80,"source":"ANTT","active":true}},{"type":"Feature","geometry":{"type":"Point","coordinates":[-49.047965,-11.623464]},"properties":{"kind":"FIXED","limit_kmh":80,"source":"OSM","active":true}},{"type":"Feature","geometry":{"type":"Point","coordinates":[-49.041423,-11.603886]},"properties":{"kind":"FIXED","limit_kmh":80,"source":"OSM","active":true}},{"type":"Feature","geometry":{"type":"Point","coordinates":[-49.026721,-11.559894]},"properties":{"kind":"FIXED","limit_kmh":80,"source":"ANTT","active":true}},{"type":"Feature","geometry":{"type":"Point","coordinates":[-49.026413,-11.558964]},"properties":{"kind":"FIXED","limit_kmh":80,"source":"OSM","active":true}},{"type":"Feature","geometry":{"type":"Point","coordinates":[-48.991019,-11.44902]},"properties":{"kind":"FIXED","limit_kmh":80,"source":"OSM","active":true}},{"type":"Feature","geometry":{"type":"Point","coordinates":[-48.974805,-11.396493]},"properties":{"kind":"FIXED","limit_kmh":80,"source":"ANTT","active":true}},{"type":"Feature","geometry":{"type":"Point","coordinates":[-48.940643,-11.305727]},"properties":{"kind":"FIXED","limit_kmh":40,"source":"OSM","active":true}},{"type":"Feature","geometry":{"type":"Point","coordinates":[-48.921028,-11.107178]},"properties":{"kind":"FIXED","limit_kmh":null,"source":"DNIT","active":true}},{"type":"Feature","geometry":{"type":"Point","coordinates":[-48.905533,-10.863104]},"properties":{"kind":"FIXED","limit_kmh":null,"source":"DNIT","active":true}},{"type":"Feature","geometry":{"type":"Point","coordinates":[-48.905434,-10.70878]},"properties":{"kind":"FIXED","limit_kmh":60,"source":"OSM","active":true}},{"type":"Feature","geometry":{"type":"Point","coordinates":[-48.898152,-10.425379]},"properties":{"kind":"FIXED","limit_kmh":40,"source":"OSM","active":true}},{"type":"Feature","geometry":{"type":"Point","coordinates":[-48.304428,-10.380715]},"properties":{"kind":"FIXED","limit_kmh":80,"source":"OSM","active":true}},{"type":"Feature","geometry":{"type":"Point","coordinates":[-48.297567,-10.296581]},"properties":{"kind":"FIXED","limit_kmh":null,"source":"DNIT","active":true}},{"type":"Feature","geometry":{"type":"Point","coordinates":[-48.297421,-10.28754]},"properties":{"kind":"FIXED","limit_kmh":null,"source":"DNIT","active":true}},{"type":"Feature","geometry":{"type":"Point","coordinates":[-48.311694,-10.235704]},"properties":{"kind":"FIXED","limit_kmh":null,"source":"DNIT","active":true}},{"type":"Feature","geometry":{"type":"Point","coordinates":[-48.446085,-10.193187]},"properties":{"kind":"FIXED","limit_kmh":80,"source":"OSM","active":true}},{"type":"Feature","geometry":{"type":"Point","coordinates":[-48.880168,-10.183797]},"properties":{"kind":"FIXED","limit_kmh":null,"source":"DNIT","active":true}},{"type":"Feature","geometry":{"type":"Point","coordinates":[-48.881016,-10.166107]},"properties":{"kind":"FIXED","limit_kmh":null,"source":"DNIT","active":true}},{"type":"Feature","geometry":{"type":"Point","coordinates":[-48.883646,-10.153714]},"properties":{"kind":"FIXED","limit_kmh":null,"source":"DNIT","active":true}},{"type":"Feature","geometry":{"type":"Point","coordinates":[-48.593619,-9.533482]},"properties":{"kind":"FIXED","limit_kmh":null,"source":"DNIT","active":true}},{"type":"Feature","geometry":{"type":"Point","coordinates":[-48.589865,-9.515612]},"properties":{"kind":"FIXED","limit_kmh":40,"source":"OSM","active":true}},{"type":"Feature","geometry":{"type":"Point","coordinates":[-48.518684,-9.056913]},"properties":{"kind":"FIXED","limit_kmh":40,"source":"OSM","active":false}},{"type":"Feature","geometry":{"type":"Point","coordinates":[-48.509941,-8.848327]},"properties":{"kind":"FIXED","limit_kmh":null,"source":"DNIT","active":true}},{"type":"Feature","geometry":{"type":"Point","coordinates":[-48.512075,-8.83566]},"properties":{"kind":"FIXED","limit_kmh":null,"source":"DNIT","active":true}},{"type":"Feature","geometry":{"type":"Point","coordinates":[-48.512128,-8.835456]},"properties":{"kind":"FIXED","limit_kmh":40,"source":"OSM","active":true}},{"type":"Feature","geometry":{"type":"Point","coordinates":[-48.512269,-8.829097]},"properties":{"kind":"FIXED","limit_kmh":null,"source":"DNIT","active":true}},{"type":"Feature","geometry":{"type":"Point","coordinates":[-48.512235,-8.82816]},"properties":{"kind":"FIXED","limit_kmh":40,"source":"OSM","active":true}},{"type":"Feature","geometry":{"type":"Point","coordinates":[-48.512159,-8.82816]},"properties":{"kind":"FIXED","limit_kmh":40,"source":"OSM","active":true}},{"type":"Feature","geometry":{"type":"Point","coordinates":[-48.483487,-8.527886]},"properties":{"kind":"FIXED","limit_kmh":40,"source":"OSM","active":false}},{"type":"Feature","geometry":{"type":"Point","coordinates":[-48.486833,-8.390214]},"properties":{"kind":"FIXED","limit_kmh":null,"source":"DNIT","active":true}},{"type":"Feature","geometry":{"type":"Point","coordinates":[-48.466784,-8.06652]},"properties":{"kind":"FIXED","limit_kmh":40,"source":"OSM","active":true}},{"type":"Feature","geometry":{"type":"Point","coordinates":[-48.46683,-8.06633]},"properties":{"kind":"FIXED","limit_kmh":null,"source":"DNIT","active":true}},{"type":"Feature","geometry":{"type":"Point","coordinates":[-48.466953,-8.063436]},"properties":{"kind":"FIXED","limit_kmh":60,"source":"OSM","active":true}},{"type":"Feature","geometry":{"type":"Point","coordinates":[-48.466937,-8.063163]},"properties":{"kind":"FIXED","limit_kmh":null,"source":"DNIT","active":true}},{"type":"Feature","geometry":{"type":"Point","coordinates":[-48.46647,-8.059406]},"properties":{"kind":"FIXED","limit_kmh":60,"source":"OSM","active":true}},{"type":"Feature","geometry":{"type":"Point","coordinates":[-48.466599,-8.055238]},"properties":{"kind":"FIXED","limit_kmh":null,"source":"DNIT","active":true}},{"type":"Feature","geometry":{"type":"Point","coordinates":[-48.42734,-7.633908]},"properties":{"kind":"FIXED","limit_kmh":40,"source":"OSM","active":true}},{"type":"Feature","geometry":{"type":"Point","coordinates":[-48.427371,-7.633507]},"properties":{"kind":"FIXED","limit_kmh":null,"source":"DNIT","active":true}},{"type":"Feature","geometry":{"type":"Point","coordinates":[-48.262653,-7.264531]},"properties":{"kind":"FIXED","limit_kmh":null,"source":"DNIT","active":true}},{"type":"Feature","geometry":{"type":"Point","coordinates":[-48.252769,-7.232804]},"properties":{"kind":"FIXED","limit_kmh":null,"source":"DNIT","active":true}},{"type":"Feature","geometry":{"type":"Point","coordinates":[-48.248218,-7.221574]},"properties":{"kind":"FIXED","limit_kmh":null,"source":"DNIT","active":true}},{"type":"Feature","geometry":{"type":"Point","coordinates":[-48.247407,-7.219456]},"properties":{"kind":"FIXED","limit_kmh":null,"source":"DNIT","active":true}},{"type":"Feature","geometry":{"type":"Point","coordinates":[-48.242,-7.2085]},"properties":{"kind":"FIXED","limit_kmh":null,"source":"DNIT","active":true}},{"type":"Feature","geometry":{"type":"Point","coordinates":[-48.241837,-7.20841]},"properties":{"kind":"FIXED","limit_kmh":30,"source":"OSM","active":true}},{"type":"Feature","geometry":{"type":"Point","coordinates":[-48.240676,-7.205315]},"properties":{"kind":"FIXED","limit_kmh":60,"source":"OSM","active":true}},{"type":"Feature","geometry":{"type":"Point","coordinates":[-48.24073,-7.20526]},"properties":{"kind":"FIXED","limit_kmh":null,"source":"DNIT","active":true}},{"type":"Feature","geometry":{"type":"Point","coordinates":[-48.222795,-7.179463]},"properties":{"kind":"FIXED","limit_kmh":30,"source":"OSM","active":true}},{"type":"Feature","geometry":{"type":"Point","coordinates":[-48.221299,-7.177523]},"properties":{"kind":"FIXED","limit_kmh":40,"source":"OSM","active":true}},{"type":"Feature","geometry":{"type":"Point","coordinates":[-48.221209,-7.177353]},"properties":{"kind":"FIXED","limit_kmh":null,"source":"DNIT","active":true}},{"type":"Feature","geometry":{"type":"Point","coordinates":[-48.188882,-7.1166]},"properties":{"kind":"FIXED","limit_kmh":null,"source":"DNIT","active":true}},{"type":"Feature","geometry":{"type":"Point","coordinates":[-48.188104,-7.115249]},"properties":{"kind":"FIXED","limit_kmh":null,"source":"DNIT","active":true}},{"type":"Feature","geometry":{"type":"Point","coordinates":[-47.964416,-6.849344]},"properties":{"kind":"FIXED","limit_kmh":40,"source":"OSM","active":false}},{"type":"Feature","geometry":{"type":"Point","coordinates":[-47.756247,-6.710662]},"properties":{"kind":"FIXED","limit_kmh":null,"source":"DNIT","active":true}},{"type":"Feature","geometry":{"type":"Point","coordinates":[-47.75621,-6.710396]},"properties":{"kind":"FIXED","limit_kmh":40,"source":"OSM","active":true}},{"type":"Feature","geometry":{"type":"Point","coordinates":[-47.472506,-6.563049]},"properties":{"kind":"FIXED","limit_kmh":null,"source":"DNIT","active":false}},{"type":"Feature","geometry":{"type":"Point","coordinates":[-48.543734,-6.412822]},"properties":{"kind":"FIXED","limit_kmh":null,"source":"DNIT","active":true}},{"type":"Feature","geometry":{"type":"Point","coordinates":[-48.543951,-6.412813]},"properties":{"kind":"FIXED","limit_kmh":null,"source":"OSM","active":true}}]}