<?xml version="1.0" encoding="UTF-8"?>
<kml xmlns="http://www.opengis.net/kml/2.2"><Document>
<name>Pardal — radares — ES</name>
<description>Pardal — © colaboradores do OpenStreetMap (ODbL 1.0) e fontes abertas listadas no README</description>
<Folder><name>Radares de velocidade</name>
<Placemark><name>Radar 60 km/h</name><description>Fonte: ANTT</description><Point><coordinates>-41.300829,-21.201799,0</coordinates></Point></Placemark>
<Placemark><name>Radar 60 km/h</name><description>Fonte: ANTT</description><Point><coordinates>-41.300109,-21.196490,0</coordinates></Point></Placemark>
<Placemark><name>Radar 60 km/h</name><description>Fonte: ANTT</description><Point><coordinates>-41.271500,-21.148129,0</coordinates></Point></Placemark>
<Placemark><name>Radar 60 km/h</name><description>Fonte: ANTT</description><Point><coordinates>-41.280000,-21.132000,0</coordinates></Point></Placemark>
<Placemark><name>Radar 60 km/h</name><description>Fonte: ANTT</description><Point><coordinates>-41.279200,-21.128200,0</coordinates></Point></Placemark>
<Placemark><name>Radar 60 km/h</name><description>Fonte: OSM</description><Point><coordinates>-40.856160,-21.112420,0</coordinates></Point></Placemark>
<Placemark><name>Radar 60 km/h</name><description>Fonte: ANTT</description><Point><coordinates>-41.164360,-21.028580,0</coordinates></Point></Placemark>
<Placemark><name>Radar 40 km/h</name><description>Fonte: OSM</description><Point><coordinates>-41.078232,-20.924071,0</coordinates></Point></Placemark>
<Placemark><name>Radar 60 km/h</name><description>Fonte: ANTT</description><Point><coordinates>-40.999300,-20.891400,0</coordinates></Point></Placemark>
<Placemark><name>Radar 60 km/h</name><description>Fonte: OSM</description><Point><coordinates>-40.997975,-20.890690,0</coordinates></Point></Placemark>
<Placemark><name>Radar 60 km/h</name><description>Fonte: OSM</description><Point><coordinates>-40.993112,-20.889888,0</coordinates></Point></Placemark>
<Placemark><name>Radar 60 km/h</name><description>Fonte: ANTT</description><Point><coordinates>-40.991200,-20.889600,0</coordinates></Point></Placemark>
<Placemark><name>Radar 60 km/h</name><description>Fonte: ANTT</description><Point><coordinates>-40.933200,-20.865900,0</coordinates></Point></Placemark>
<Placemark><name>Radar 60 km/h</name><description>Fonte: OSM</description><Point><coordinates>-40.933165,-20.865794,0</coordinates></Point></Placemark>
<Placemark><name>Radar 60 km/h</name><description>Fonte: OSM</description><Point><coordinates>-40.930501,-20.865738,0</coordinates></Point></Placemark>
<Placemark><name>Radar 60 km/h</name><description>Fonte: ANTT</description><Point><coordinates>-40.930400,-20.865700,0</coordinates></Point></Placemark>
<Placemark><name>Radar 60 km/h</name><description>Fonte: ANTT</description><Point><coordinates>-40.914057,-20.865632,0</coordinates></Point></Placemark>
<Placemark><name>Radar 60 km/h</name><description>Fonte: OSM</description><Point><coordinates>-40.876259,-20.858771,0</coordinates></Point></Placemark>
<Placemark><name>Radar 60 km/h</name><description>Fonte: OSM</description><Point><coordinates>-40.876114,-20.846981,0</coordinates></Point></Placemark>
<Placemark><name>Radar 60 km/h</name><description>Fonte: ANTT</description><Point><coordinates>-40.874700,-20.843100,0</coordinates></Point></Placemark>
<Placemark><name>Radar</name><description>Fonte: DNIT</description><Point><coordinates>-41.228943,-20.837493,0</coordinates></Point></Placemark>
<Placemark><name>Radar 60 km/h</name><description>Fonte: OSM</description><Point><coordinates>-40.857706,-20.829184,0</coordinates></Point></Placemark>
<Placemark><name>Radar</name><description>Fonte: OSM</description><Point><coordinates>-40.808718,-20.792895,0</coordinates></Point></Placemark>
<Placemark><name>Radar</name><description>Fonte: OSM</description><Point><coordinates>-40.808737,-20.792841,0</coordinates></Point></Placemark>
<Placemark><name>Radar 50 km/h</name><description>Fonte: OSM</description><Point><coordinates>-40.808161,-20.792609,0</coordinates></Point></Placemark>
<Placemark><name>Radar 50 km/h</name><description>Fonte: OSM</description><Point><coordinates>-40.808182,-20.792568,0</coordinates></Point></Placemark>
<Placemark><name>Radar 40 km/h</name><description>Fonte: OSM</description><Point><coordinates>-41.692008,-20.791483,0</coordinates></Point></Placemark>
<Placemark><name>Radar 40 km/h</name><description>Fonte: OSM</description><Point><coordinates>-41.684261,-20.783448,0</coordinates></Point></Placemark>
<Placemark><name>Radar 60 km/h</name><description>Fonte: OSM</description><Point><coordinates>-41.068001,-20.778784,0</coordinates></Point></Placemark>
<Placemark><name>Radar 60 km/h</name><description>Fonte: OSM</description><Point><coordinates>-41.066950,-20.778004,0</coordinates></Point></Placemark>
<Placemark><name>Radar</name><description>Fonte: DNIT</description><Point><coordinates>-41.666936,-20.777816,0</coordinates></Point></Placemark>
<Placemark><name>Radar 40 km/h</name><description>Fonte: OSM</description><Point><coordinates>-41.678466,-20.777428,0</coordinates></Point></Placemark>
<Placemark><name>Radar 40 km/h</name><description>Fonte: OSM</description><Point><coordinates>-41.673131,-20.774593,0</coordinates></Point></Placemark>
<Placemark><name>Radar 60 km/h</name><description>Fonte: ANTT</description><Point><coordinates>-40.765549,-20.770859,0</coordinates></Point></Placemark>
<Placemark><name>Radar</name><description>Fonte: DNIT</description><Point><coordinates>-41.560135,-20.763413,0</coordinates></Point></Placemark>
<Placemark><name>Radar</name><description>Fonte: DNIT</description><Point><coordinates>-41.558979,-20.763009,0</coordinates></Point></Placemark>
<Placemark><name>Radar</name><description>Fonte: DNIT</description><Point><coordinates>-41.542700,-20.761700,0</coordinates></Point></Placemark>
<Placemark><name>Radar</name><description>Fonte: DNIT</description><Point><coordinates>-41.558900,-20.754400,0</coordinates></Point></Placemark>
<Placemark><name>Radar</name><description>Fonte: DNIT</description><Point><coordinates>-41.485651,-20.748159,0</coordinates></Point></Placemark>
<Placemark><name>Radar</name><description>Fonte: DNIT</description><Point><coordinates>-41.483983,-20.746425,0</coordinates></Point></Placemark>
<Placemark><name>Radar 60 km/h</name><description>Fonte: OSM</description><Point><coordinates>-40.533436,-20.733049,0</coordinates></Point></Placemark>
<Placemark><name>Radar 60 km/h</name><description>Fonte: OSM</description><Point><coordinates>-40.533324,-20.732701,0</coordinates></Point></Placemark>
<Placemark><name>Radar 60 km/h</name><description>Fonte: OSM</description><Point><coordinates>-40.523909,-20.721051,0</coordinates></Point></Placemark>
<Placemark><name>Radar 60 km/h</name><description>Fonte: OSM</description><Point><coordinates>-40.512817,-20.694471,0</coordinates></Point></Placemark>
<Placemark><name>Radar 60 km/h</name><description>Fonte: ANTT</description><Point><coordinates>-40.704270,-20.691939,0</coordinates></Point></Placemark>
<Placemark><name>Radar 60 km/h</name><description>Fonte: OSM</description><Point><coordinates>-40.529944,-20.638759,0</coordinates></Point></Placemark>
<Placemark><name>Radar 60 km/h</name><description>Fonte: OSM</description><Point><coordinates>-40.529757,-20.638399,0</coordinates></Point></Placemark>
<Placemark><name>Radar 60 km/h</name><description>Fonte: OSM</description><Point><coordinates>-40.475540,-20.627803,0</coordinates></Point></Placemark>
<Placemark><name>Radar</name><description>Fonte: OSM</description><Point><coordinates>-40.442814,-20.625229,0</coordinates></Point></Placemark>
<Placemark><name>Radar</name><description>Fonte: OSM</description><Point><coordinates>-40.442243,-20.625216,0</coordinates></Point></Placemark>
<Placemark><name>Radar</name><description>Fonte: OSM</description><Point><coordinates>-40.361336,-20.517067,0</coordinates></Point></Placemark>
<Placemark><name>Radar 60 km/h</name><description>Fonte: OSM</description><Point><coordinates>-40.363805,-20.514509,0</coordinates></Point></Placemark>
<Placemark><name>Radar 60 km/h</name><description>Fonte: OSM</description><Point><coordinates>-40.363720,-20.514133,0</coordinates></Point></Placemark>
<Placemark><name>Radar 60 km/h</name><description>Fonte: OSM</description><Point><coordinates>-40.363841,-20.513653,0</coordinates></Point></Placemark>
<Placemark><name>Radar 80 km/h</name><description>Fonte: OSM</description><Point><coordinates>-40.363271,-20.500513,0</coordinates></Point></Placemark>
<Placemark><name>Radar 80 km/h</name><description>Fonte: OSM</description><Point><coordinates>-40.363292,-20.500412,0</coordinates></Point></Placemark>
<Placemark><name>Radar 80 km/h</name><description>Fonte: OSM</description><Point><coordinates>-40.353027,-20.479048,0</coordinates></Point></Placemark>
<Placemark><name>Radar 80 km/h</name><description>Fonte: OSM</description><Point><coordinates>-40.352888,-20.478550,0</coordinates></Point></Placemark>
<Placemark><name>Radar 80 km/h</name><description>Fonte: OSM</description><Point><coordinates>-40.353012,-20.478193,0</coordinates></Point></Placemark>
<Placemark><name>Radar</name><description>Fonte: DNIT</description><Point><coordinates>-40.814543,-20.417027,0</coordinates></Point></Placemark>
<Placemark><name>Radar</name><description>Fonte: DNIT</description><Point><coordinates>-40.903497,-20.415362,0</coordinates></Point></Placemark>
<Placemark><name>Radar</name><description>Fonte: DNIT</description><Point><coordinates>-40.705822,-20.413902,0</coordinates></Point></Placemark>
<Placemark><name>Radar</name><description>Fonte: DNIT</description><Point><coordinates>-40.729413,-20.413876,0</coordinates></Point></Placemark>
<Placemark><name>Radar</name><description>Fonte: DNIT</description><Point><coordinates>-40.908402,-20.412875,0</coordinates></Point></Placemark>
<Placemark><name>Radar</name><description>Fonte: DNIT</description><Point><coordinates>-40.885763,-20.409863,0</coordinates></Point></Placemark>
<Placemark><name>Radar</name><description>Fonte: DNIT</description><Point><coordinates>-40.887065,-20.409749,0</coordinates></Point></Placemark>
<Placemark><name>Radar</name><description>Fonte: DNIT</description><Point><coordinates>-40.556895,-20.385097,0</coordinates></Point></Placemark>
<Placemark><name>Radar 60 km/h</name><description>Fonte: ANTT</description><Point><coordinates>-40.460100,-20.383200,0</coordinates></Point></Placemark>
<Placemark><name>Radar 60 km/h</name><description>Fonte: ANTT</description><Point><coordinates>-40.458000,-20.381800,0</coordinates></Point></Placemark>
<Placemark><name>Radar</name><description>Fonte: DNIT</description><Point><coordinates>-41.049793,-20.379942,0</coordinates></Point></Placemark>
<Placemark><name>Radar 60 km/h</name><description>Fonte: OSM</description><Point><coordinates>-41.047555,-20.379776,0</coordinates></Point></Placemark>
<Placemark><name>Radar</name><description>Fonte: DNIT</description><Point><coordinates>-41.047188,-20.379500,0</coordinates></Point></Placemark>
<Placemark><name>Radar</name><description>Fonte: DNIT</description><Point><coordinates>-40.559974,-20.376901,0</coordinates></Point></Placemark>
<Placemark><name>Radar 60 km/h</name><description>Fonte: OSM</description><Point><coordinates>-40.329915,-20.376773,0</coordinates></Point></Placemark>
<Placemark><name>Radar</name><description>Fonte: DNIT</description><Point><coordinates>-40.560000,-20.374834,0</coordinates></Point></Placemark>
<Placemark><name>Radar 60 km/h</name><description>Fonte: OSM</description><Point><coordinates>-40.306046,-20.374772,0</coordinates></Point></Placemark>
<Placemark><name>Radar</name><description>Fonte: DNIT</description><Point><coordinates>-41.057183,-20.374757,0</coordinates></Point></Placemark>
<Placemark><name>Radar 60 km/h</name><description>Fonte: OSM</description><Point><coordinates>-40.327998,-20.374587,0</coordinates></Point></Placemark>
<Placemark><name>Radar 40 km/h</name><description>Fonte: OSM</description><Point><coordinates>-41.060861,-20.365686,0</coordinates></Point></Placemark>
<Placemark><name>Radar</name><description>Fonte: DNIT</description><Point><coordinates>-41.060888,-20.365634,0</coordinates></Point></Placemark>
<Placemark><name>Radar</name><description>Fonte: DNIT</description><Point><coordinates>-41.063690,-20.364402,0</coordinates></Point></Placemark>
<Placemark><name>Radar 60 km/h</name><description>Fonte: OSM</description><Point><coordinates>-41.063903,-20.364281,0</coordinates></Point></Placemark>
<Placemark><name>Radar 60 km/h</name><description>Fonte: OSM</description><Point><coordinates>-40.430294,-20.357605,0</coordinates></Point></Placemark>
<Placemark><name>Radar 60 km/h</name><description>Fonte: OSM</description><Point><coordinates>-40.427813,-20.357394,0</coordinates></Point></Placemark>
<Placemark><name>Radar 60 km/h</name><description>Fonte: ANTT</description><Point><coordinates>-40.428100,-20.357300,0</coordinates></Point></Placemark>
<Placemark><name>Radar 60 km/h</name><description>Fonte: ANTT</description><Point><coordinates>-40.428088,-20.357298,0</coordinates></Point></Placemark>
<Placemark><name>Radar 60 km/h</name><description>Fonte: OSM</description><Point><coordinates>-40.333744,-20.355943,0</coordinates></Point></Placemark>
<Placemark><name>Radar 60 km/h</name><description>Fonte: OSM</description><Point><coordinates>-40.334379,-20.353139,0</coordinates></Point></Placemark>
<Placemark><name>Radar</name><description>Fonte: DNIT</description><Point><coordinates>-40.333244,-20.350079,0</coordinates></Point></Placemark>
<Placemark><name>Radar</name><description>Fonte: DNIT</description><Point><coordinates>-40.331300,-20.347100,0</coordinates></Point></Placemark>
<Placemark><name>Radar</name><description>Fonte: DNIT</description><Point><coordinates>-41.104653,-20.347018,0</coordinates></Point></Placemark>
<Placemark><name>Radar</name><description>Fonte: DNIT</description><Point><coordinates>-40.329713,-20.344477,0</coordinates></Point></Placemark>
<Placemark><name>Radar 60 km/h</name><description>Fonte: ANTT</description><Point><coordinates>-40.405300,-20.342100,0</coordinates></Point></Placemark>
<Placemark><name>Radar 60 km/h</name><description>Fonte: ANTT</description><Point><coordinates>-40.405270,-20.342079,0</coordinates></Point></Placemark>
<Placemark><name>Radar</name><description>Fonte: DNIT</description><Point><coordinates>-41.185281,-20.336732,0</coordinates></Point></Placemark>
<Placemark><name>Radar 60 km/h</name><description>Fonte: OSM</description><Point><coordinates>-41.185145,-20.336706,0</coordinates></Point></Placemark>
<Placemark><name>Radar 60 km/h</name><description>Fonte: OSM</description><Point><coordinates>-41.124794,-20.336290,0</coordinates></Point></Placemark>
<Placemark><name>Radar 60 km/h</name><description>Fonte: OSM</description><Point><coordinates>-41.172856,-20.335969,0</coordinates></Point></Placemark>
<Placemark><name>Radar</name><description>Fonte: DNIT</description><Point><coordinates>-41.172542,-20.335894,0</coordinates></Point></Placemark>
<Placemark><name>Radar 60 km/h</name><description>Fonte: OSM</description><Point><coordinates>-41.165987,-20.335122,0</coordinates></Point></Placemark>
<Placemark><name>Radar</name><description>Fonte: DNIT</description><Point><coordinates>-41.156399,-20.331195,0</coordinates></Point></Placemark>
<Placemark><name>Radar</name><description>Fonte: DNIT</description><Point><coordinates>-41.153313,-20.329927,0</coordinates></Point></Placemark>
<Placemark><name>Radar</name><description>Fonte: DNIT</description><Point><coordinates>-41.144323,-20.326245,0</coordinates></Point></Placemark>
<Placemark><name>Radar 60 km/h</name><description>Fonte: OSM</description><Point><coordinates>-41.143806,-20.326033,0</coordinates></Point></Placemark>
<Placemark><name>Radar</name><description>Fonte: DNIT</description><Point><coordinates>-41.143154,-20.325719,0</coordinates></Point></Placemark>
<Placemark><name>Radar 60 km/h</name><description>Fonte: OSM</description><Point><coordinates>-41.210523,-20.325572,0</coordinates></Point></Placemark>
<Placemark><name>Radar</name><description>Fonte: DNIT</description><Point><coordinates>-41.210431,-20.325538,0</coordinates></Point></Placemark>
<Placemark><name>Radar</name><description>Fonte: DNIT</description><Point><coordinates>-41.221630,-20.320507,0</coordinates></Point></Placemark>
<Placemark><name>Radar</name><description>Fonte: DNIT</description><Point><coordinates>-41.225628,-20.318440,0</coordinates></Point></Placemark>
<Placemark><name>Radar 60 km/h</name><description>Fonte: ANTT</description><Point><coordinates>-40.394900,-20.305700,0</coordinates></Point></Placemark>
<Placemark><name>Radar 60 km/h</name><description>Fonte: ANTT</description><Point><coordinates>-40.394938,-20.305688,0</coordinates></Point></Placemark>
<Placemark><name>Radar</name><description>Fonte: DNIT</description><Point><coordinates>-41.229420,-20.293485,0</coordinates></Point></Placemark>
<Placemark><name>Radar 60 km/h</name><description>Fonte: OSM</description><Point><coordinates>-40.392519,-20.286141,0</coordinates></Point></Placemark>
<Placemark><name>Radar 60 km/h</name><description>Fonte: OSM</description><Point><coordinates>-40.392520,-20.285687,0</coordinates></Point></Placemark>
<Placemark><name>Radar</name><description>Fonte: DNIT</description><Point><coordinates>-41.652366,-20.285319,0</coordinates></Point></Placemark>
<Placemark><name>Radar</name><description>Fonte: DNIT</description><Point><coordinates>-41.651229,-20.283786,0</coordinates></Point></Placemark>
<Placemark><name>Radar 50 km/h</name><description>Fonte: OSM</description><Point><coordinates>-41.776448,-20.281564,0</coordinates></Point></Placemark>
<Placemark><name>Radar 50 km/h</name><description>Fonte: OSM</description><Point><coordinates>-41.778366,-20.279703,0</coordinates></Point></Placemark>
<Placemark><name>Radar</name><description>Fonte: DNIT</description><Point><coordinates>-41.579890,-20.264623,0</coordinates></Point></Placemark>
<Placemark><name>Radar</name><description>Fonte: DNIT</description><Point><coordinates>-41.581763,-20.264063,0</coordinates></Point></Placemark>
<Placemark><name>Radar 60 km/h</name><description>Fonte: OSM</description><Point><coordinates>-40.377313,-20.257727,0</coordinates></Point></Placemark>
<Placemark><name>Radar 60 km/h</name><description>Fonte: OSM</description><Point><coordinates>-40.377229,-20.257709,0</coordinates></Point></Placemark>
<Placemark><name>Radar</name><description>Fonte: DNIT</description><Point><coordinates>-41.564524,-20.252214,0</coordinates></Point></Placemark>
<Placemark><name>Radar</name><description>Fonte: DNIT</description><Point><coordinates>-41.563072,-20.250752,0</coordinates></Point></Placemark>
<Placemark><name>Radar</name><description>Fonte: DNIT</description><Point><coordinates>-41.550303,-20.248832,0</coordinates></Point></Placemark>
<Placemark><name>Radar</name><description>Fonte: DNIT</description><Point><coordinates>-41.548809,-20.246476,0</coordinates></Point></Placemark>
<Placemark><name>Radar 60 km/h</name><description>Fonte: OSM</description><Point><coordinates>-41.536838,-20.238489,0</coordinates></Point></Placemark>
<Placemark><name>Radar 60 km/h</name><description>Fonte: OSM</description><Point><coordinates>-41.404762,-20.238146,0</coordinates></Point></Placemark>
<Placemark><name>Radar 60 km/h</name><description>Fonte: OSM</description><Point><coordinates>-40.277448,-20.236875,0</coordinates></Point></Placemark>
<Placemark><name>Radar 60 km/h</name><description>Fonte: OSM</description><Point><coordinates>-40.276902,-20.236195,0</coordinates></Point></Placemark>
<Placemark><name>Radar</name><description>Fonte: OSM</description><Point><coordinates>-41.362454,-20.232491,0</coordinates></Point></Placemark>
<Placemark><name>Radar 60 km/h</name><description>Fonte: OSM</description><Point><coordinates>-40.273163,-20.230851,0</coordinates></Point></Placemark>
<Placemark><name>Radar 60 km/h</name><description>Fonte: OSM</description><Point><coordinates>-40.273316,-20.230755,0</coordinates></Point></Placemark>
<Placemark><name>Radar 60 km/h</name><description>Fonte: OSM</description><Point><coordinates>-40.272683,-20.229680,0</coordinates></Point></Placemark>
<Placemark><name>Radar 60 km/h</name><description>Fonte: OSM</description><Point><coordinates>-40.272879,-20.229600,0</coordinates></Point></Placemark>
<Placemark><name>Radar 60 km/h</name><description>Fonte: OSM</description><Point><coordinates>-41.464356,-20.224904,0</coordinates></Point></Placemark>
<Placemark><name>Radar 60 km/h</name><description>Fonte: OSM</description><Point><coordinates>-40.270089,-20.223257,0</coordinates></Point></Placemark>
<Placemark><name>Radar 60 km/h</name><description>Fonte: OSM</description><Point><coordinates>-40.270342,-20.223250,0</coordinates></Point></Placemark>
<Placemark><name>Radar 60 km/h</name><description>Fonte: OSM</description><Point><coordinates>-40.270341,-20.221696,0</coordinates></Point></Placemark>
<Placemark><name>Radar 60 km/h</name><description>Fonte: OSM</description><Point><coordinates>-40.270536,-20.221695,0</coordinates></Point></Placemark>
<Placemark><name>Radar</name><description>Fonte: DNIT</description><Point><coordinates>-41.450647,-20.218912,0</coordinates></Point></Placemark>
<Placemark><name>Radar 60 km/h</name><description>Fonte: OSM</description><Point><coordinates>-41.447730,-20.215915,0</coordinates></Point></Placemark>
<Placemark><name>Radar</name><description>Fonte: DNIT</description><Point><coordinates>-41.447895,-20.215458,0</coordinates></Point></Placemark>
<Placemark><name>Radar 60 km/h</name><description>Fonte: OSM</description><Point><coordinates>-40.251585,-20.208854,0</coordinates></Point></Placemark>
<Placemark><name>Radar 60 km/h</name><description>Fonte: OSM</description><Point><coordinates>-40.251108,-20.208639,0</coordinates></Point></Placemark>
<Placemark><name>Radar 60 km/h</name><description>Fonte: OSM</description><Point><coordinates>-40.245431,-20.207148,0</coordinates></Point></Placemark>
<Placemark><name>Radar 60 km/h</name><description>Fonte: OSM</description><Point><coordinates>-40.269367,-20.207137,0</coordinates></Point></Placemark>
<Placemark><name>Radar 60 km/h</name><description>Fonte: OSM</description><Point><coordinates>-40.269186,-20.207131,0</coordinates></Point></Placemark>
<Placemark><name>Radar 60 km/h</name><description>Fonte: OSM</description><Point><coordinates>-40.244665,-20.206849,0</coordinates></Point></Placemark>
<Placemark><name>Radar 60 km/h</name><description>Fonte: OSM</description><Point><coordinates>-40.269556,-20.205841,0</coordinates></Point></Placemark>
<Placemark><name>Radar 60 km/h</name><description>Fonte: OSM</description><Point><coordinates>-40.269380,-20.205840,0</coordinates></Point></Placemark>
<Placemark><name>Radar 60 km/h</name><description>Fonte: OSM</description><Point><coordinates>-40.268662,-20.195694,0</coordinates></Point></Placemark>
<Placemark><name>Radar 60 km/h</name><description>Fonte: OSM</description><Point><coordinates>-40.268489,-20.195683,0</coordinates></Point></Placemark>
<Placemark><name>Radar 60 km/h</name><description>Fonte: OSM</description><Point><coordinates>-40.268562,-20.192720,0</coordinates></Point></Placemark>
<Placemark><name>Radar 60 km/h</name><description>Fonte: OSM</description><Point><coordinates>-40.268758,-20.192708,0</coordinates></Point></Placemark>
<Placemark><name>Radar 60 km/h</name><description>Fonte: OSM</description><Point><coordinates>-40.186348,-20.172012,0</coordinates></Point></Placemark>
<Placemark><name>Radar 60 km/h</name><description>Fonte: ANTT</description><Point><coordinates>-40.285608,-20.146528,0</coordinates></Point></Placemark>
<Placemark><name>Radar</name><description>Fonte: OSM</description><Point><coordinates>-40.181118,-20.127505,0</coordinates></Point></Placemark>
<Placemark><name>Radar 60 km/h</name><description>Fonte: ANTT</description><Point><coordinates>-40.323000,-20.113100,0</coordinates></Point></Placemark>
<Placemark><name>Radar 50 km/h</name><description>Fonte: OSM</description><Point><coordinates>-40.323518,-20.112844,0</coordinates></Point></Placemark>
<Placemark><name>Radar 50 km/h</name><description>Fonte: OSM</description><Point><coordinates>-40.323785,-20.112711,0</coordinates></Point></Placemark>
<Placemark><name>Radar 60 km/h</name><description>Fonte: ANTT</description><Point><coordinates>-40.324600,-20.112400,0</coordinates></Point></Placemark>
<Placemark><name>Radar 60 km/h</name><description>Fonte: ANTT</description><Point><coordinates>-40.332100,-20.105100,0</coordinates></Point></Placemark>
<Placemark><name>Radar 60 km/h</name><description>Fonte: ANTT</description><Point><coordinates>-40.364600,-20.068500,0</coordinates></Point></Placemark>
<Placemark><name>Radar 60 km/h</name><description>Fonte: ANTT</description><Point><coordinates>-40.384300,-20.052500,0</coordinates></Point></Placemark>
<Placemark><name>Radar</name><description>Fonte: OSM</description><Point><coordinates>-40.384527,-20.052356,0</coordinates></Point></Placemark>
<Placemark><name>Radar 60 km/h</name><description>Fonte: OSM</description><Point><coordinates>-40.384424,-20.052316,0</coordinates></Point></Placemark>
<Placemark><name>Radar 60 km/h</name><description>Fonte: ANTT</description><Point><coordinates>-40.385200,-20.051100,0</coordinates></Point></Placemark>
<Placemark><name>Radar 60 km/h</name><description>Fonte: OSM</description><Point><coordinates>-40.403505,-20.018014,0</coordinates></Point></Placemark>
<Placemark><name>Radar 60 km/h</name><description>Fonte: OSM</description><Point><coordinates>-40.413209,-20.002073,0</coordinates></Point></Placemark>
<Placemark><name>Radar 60 km/h</name><description>Fonte: ANTT</description><Point><coordinates>-40.413200,-20.001300,0</coordinates></Point></Placemark>
<Placemark><name>Radar 60 km/h</name><description>Fonte: ANTT</description><Point><coordinates>-40.414100,-19.997300,0</coordinates></Point></Placemark>
<Placemark><name>Radar 60 km/h</name><description>Fonte: OSM</description><Point><coordinates>-40.414262,-19.996627,0</coordinates></Point></Placemark>
<Placemark><name>Radar 60 km/h</name><description>Fonte: OSM</description><Point><coordinates>-40.406602,-19.938636,0</coordinates></Point></Placemark>
<Placemark><name>Radar 60 km/h</name><description>Fonte: OSM</description><Point><coordinates>-40.406230,-19.930143,0</coordinates></Point></Placemark>
<Placemark><name>Radar 60 km/h</name><description>Fonte: ANTT</description><Point><coordinates>-40.379800,-19.756700,0</coordinates></Point></Placemark>
<Placemark><name>Radar 50 km/h</name><description>Fonte: OSM</description><Point><coordinates>-40.379984,-19.755835,0</coordinates></Point></Placemark>
<Placemark><name>Radar 60 km/h</name><description>Fonte: ANTT</description><Point><coordinates>-40.380100,-19.755100,0</coordinates></Point></Placemark>
<Placemark><name>Radar 60 km/h</name><description>Fonte: OSM</description><Point><coordinates>-40.359576,-19.730879,0</coordinates></Point></Placemark>
<Placemark><name>Radar 60 km/h</name><description>Fonte: OSM</description><Point><coordinates>-40.359256,-19.730337,0</coordinates></Point></Placemark>
<Placemark><name>Radar</name><description>Fonte: DNIT</description><Point><coordinates>-40.388254,-19.692172,0</coordinates></Point></Placemark>
<Placemark><name>Radar</name><description>Fonte: DNIT</description><Point><coordinates>-40.388592,-19.688923,0</coordinates></Point></Placemark>
<Placemark><name>Radar 60 km/h</name><description>Fonte: ANTT</description><Point><coordinates>-40.285000,-19.687500,0</coordinates></Point></Placemark>
<Placemark><name>Radar 60 km/h</name><description>Fonte: ANTT</description><Point><coordinates>-40.281700,-19.685700,0</coordinates></Point></Placemark>
<Placemark><name>Radar</name><description>Fonte: DNIT</description><Point><coordinates>-40.389932,-19.682568,0</coordinates></Point></Placemark>
<Placemark><name>Radar 60 km/h</name><description>Fonte: ANTT</description><Point><coordinates>-40.271800,-19.682500,0</coordinates></Point></Placemark>
<Placemark><name>Radar 60 km/h</name><description>Fonte: OSM</description><Point><coordinates>-40.270659,-19.681432,0</coordinates></Point></Placemark>
<Placemark><name>Radar</name><description>Fonte: DNIT</description><Point><coordinates>-40.391200,-19.680800,0</coordinates></Point></Placemark>
<Placemark><name>Radar 60 km/h</name><description>Fonte: ANTT</description><Point><coordinates>-40.269800,-19.680700,0</coordinates></Point></Placemark>
<Placemark><name>Radar</name><description>Fonte: DNIT</description><Point><coordinates>-40.399875,-19.676945,0</coordinates></Point></Placemark>
<Placemark><name>Radar 80 km/h</name><description>Fonte: ANTT</description><Point><coordinates>-40.235600,-19.657400,0</coordinates></Point></Placemark>
<Placemark><name>Radar</name><description>Fonte: DNIT</description><Point><coordinates>-40.462723,-19.649859,0</coordinates></Point></Placemark>
<Placemark><name>Radar</name><description>Fonte: DNIT</description><Point><coordinates>-40.462493,-19.648048,0</coordinates></Point></Placemark>
<Placemark><name>Radar 80 km/h</name><description>Fonte: ANTT</description><Point><coordinates>-40.233300,-19.646300,0</coordinates></Point></Placemark>
<Placemark><name>Radar 80 km/h</name><description>Fonte: ANTT</description><Point><coordinates>-40.227000,-19.632400,0</coordinates></Point></Placemark>
<Placemark><name>Radar 80 km/h</name><description>Fonte: ANTT</description><Point><coordinates>-40.225900,-19.630700,0</coordinates></Point></Placemark>
<Placemark><name>Radar 60 km/h</name><description>Fonte: ANTT</description><Point><coordinates>-40.200700,-19.597900,0</coordinates></Point></Placemark>
<Placemark><name>Radar 60 km/h</name><description>Fonte: ANTT</description><Point><coordinates>-40.199300,-19.596100,0</coordinates></Point></Placemark>
<Placemark><name>Radar 60 km/h</name><description>Fonte: ANTT</description><Point><coordinates>-40.190400,-19.586200,0</coordinates></Point></Placemark>
<Placemark><name>Radar 60 km/h</name><description>Fonte: OSM</description><Point><coordinates>-40.189996,-19.585134,0</coordinates></Point></Placemark>
<Placemark><name>Radar 60 km/h</name><description>Fonte: ANTT</description><Point><coordinates>-40.189600,-19.584000,0</coordinates></Point></Placemark>
<Placemark><name>Radar</name><description>Fonte: DNIT</description><Point><coordinates>-40.507298,-19.574488,0</coordinates></Point></Placemark>
<Placemark><name>Radar</name><description>Fonte: DNIT</description><Point><coordinates>-40.507126,-19.573730,0</coordinates></Point></Placemark>
<Placemark><name>Radar</name><description>Fonte: DNIT</description><Point><coordinates>-40.496689,-19.555580,0</coordinates></Point></Placemark>
<Placemark><name>Radar</name><description>Fonte: DNIT</description><Point><coordinates>-40.498100,-19.553100,0</coordinates></Point></Placemark>
<Placemark><name>Radar</name><description>Fonte: DNIT</description><Point><coordinates>-40.688030,-19.532471,0</coordinates></Point></Placemark>
<Placemark><name>Radar</name><description>Fonte: DNIT</description><Point><coordinates>-40.682400,-19.531200,0</coordinates></Point></Placemark>
<Placemark><name>Radar</name><description>Fonte: DNIT</description><Point><coordinates>-40.691153,-19.530519,0</coordinates></Point></Placemark>
<Placemark><name>Radar 60 km/h</name><description>Fonte: OSM</description><Point><coordinates>-40.697199,-19.528013,0</coordinates></Point></Placemark>
<Placemark><name>Radar 60 km/h</name><description>Fonte: OSM</description><Point><coordinates>-40.697573,-19.527909,0</coordinates></Point></Placemark>
<Placemark><name>Radar 60 km/h</name><description>Fonte: ANTT</description><Point><coordinates>-40.150300,-19.525400,0</coordinates></Point></Placemark>
<Placemark><name>Radar 60 km/h</name><description>Fonte: OSM</description><Point><coordinates>-40.673791,-19.524939,0</coordinates></Point></Placemark>
<Placemark><name>Radar</name><description>Fonte: DNIT</description><Point><coordinates>-40.672584,-19.524336,0</coordinates></Point></Placemark>
<Placemark><name>Radar 60 km/h</name><description>Fonte: OSM</description><Point><coordinates>-40.672444,-19.524310,0</coordinates></Point></Placemark>
<Placemark><name>Radar 50 km/h</name><description>Fonte: OSM</description><Point><coordinates>-40.705667,-19.523305,0</coordinates></Point></Placemark>
<Placemark><name>Radar 50 km/h</name><description>Fonte: OSM</description><Point><coordinates>-40.706534,-19.522990,0</coordinates></Point></Placemark>
<Placemark><name>Radar 60 km/h</name><description>Fonte: ANTT</description><Point><coordinates>-40.147500,-19.522400,0</coordinates></Point></Placemark>
<Placemark><name>Radar 40 km/h</name><description>Fonte: OSM</description><Point><coordinates>-40.665475,-19.521110,0</coordinates></Point></Placemark>
<Placemark><name>Radar</name><description>Fonte: DNIT</description><Point><coordinates>-40.665116,-19.520987,0</coordinates></Point></Placemark>
<Placemark><name>Radar</name><description>Fonte: DNIT</description><Point><coordinates>-40.656000,-19.510700,0</coordinates></Point></Placemark>
<Placemark><name>Radar 60 km/h</name><description>Fonte: ANTT</description><Point><coordinates>-40.136700,-19.509000,0</coordinates></Point></Placemark>
<Placemark><name>Radar 60 km/h</name><description>Fonte: ANTT</description><Point><coordinates>-40.135174,-19.506561,0</coordinates></Point></Placemark>
<Placemark><name>Radar</name><description>Fonte: DNIT</description><Point><coordinates>-40.618833,-19.501498,0</coordinates></Point></Placemark>
<Placemark><name>Radar 60 km/h</name><description>Fonte: ANTT</description><Point><coordinates>-40.128400,-19.493300,0</coordinates></Point></Placemark>
<Placemark><name>Radar 60 km/h</name><description>Fonte: ANTT</description><Point><coordinates>-40.126100,-19.489800,0</coordinates></Point></Placemark>
<Placemark><name>Radar 60 km/h</name><description>Fonte: OSM</description><Point><coordinates>-40.111208,-19.470015,0</coordinates></Point></Placemark>
<Placemark><name>Radar 60 km/h</name><description>Fonte: ANTT</description><Point><coordinates>-40.110608,-19.468745,0</coordinates></Point></Placemark>
<Placemark><name>Radar 40 km/h</name><description>Fonte: OSM</description><Point><coordinates>-40.685902,-19.424643,0</coordinates></Point></Placemark>
<Placemark><name>Radar 40 km/h</name><description>Fonte: OSM</description><Point><coordinates>-40.686173,-19.424182,0</coordinates></Point></Placemark>
<Placemark><name>Radar 60 km/h</name><description>Fonte: ANTT</description><Point><coordinates>-40.066800,-19.413750,0</coordinates></Point></Placemark>
<Placemark><name>Radar 60 km/h</name><description>Fonte: ANTT</description><Point><coordinates>-40.060801,-19.404521,0</coordinates></Point></Placemark>
<Placemark><name>Radar 60 km/h</name><description>Fonte: ANTT</description><Point><coordinates>-40.060800,-19.404500,0</coordinates></Point></Placemark>
<Placemark><name>Radar 60 km/h</name><description>Fonte: ANTT</description><Point><coordinates>-40.066800,-19.381100,0</coordinates></Point></Placemark>
<Placemark><name>Radar 60 km/h</name><description>Fonte: ANTT</description><Point><coordinates>-40.066600,-19.380300,0</coordinates></Point></Placemark>
<Placemark><name>Radar 60 km/h</name><description>Fonte: ANTT</description><Point><coordinates>-40.066800,-19.379500,0</coordinates></Point></Placemark>
<Placemark><name>Radar 60 km/h</name><description>Fonte: ANTT</description><Point><coordinates>-40.066700,-19.379400,0</coordinates></Point></Placemark>
<Placemark><name>Radar 60 km/h</name><description>Fonte: ANTT</description><Point><coordinates>-40.065600,-19.371000,0</coordinates></Point></Placemark>
<Placemark><name>Radar 60 km/h</name><description>Fonte: ANTT</description><Point><coordinates>-40.065600,-19.370500,0</coordinates></Point></Placemark>
<Placemark><name>Radar 60 km/h</name><description>Fonte: ANTT</description><Point><coordinates>-40.065700,-19.368900,0</coordinates></Point></Placemark>
<Placemark><name>Radar 60 km/h</name><description>Fonte: ANTT</description><Point><coordinates>-40.065620,-19.368887,0</coordinates></Point></Placemark>
<Placemark><name>Radar 80 km/h</name><description>Fonte: ANTT</description><Point><coordinates>-40.087400,-19.280100,0</coordinates></Point></Placemark>
<Placemark><name>Radar 80 km/h</name><description>Fonte: ANTT</description><Point><coordinates>-40.087500,-19.279300,0</coordinates></Point></Placemark>
<Placemark><name>Radar 60 km/h</name><description>Fonte: ANTT</description><Point><coordinates>-40.092600,-19.230300,0</coordinates></Point></Placemark>
<Placemark><name>Radar 60 km/h</name><description>Fonte: OSM</description><Point><coordinates>-40.095091,-19.193531,0</coordinates></Point></Placemark>
<Placemark><name>Radar 60 km/h</name><description>Fonte: ANTT</description><Point><coordinates>-40.095080,-19.193130,0</coordinates></Point></Placemark>
<Placemark><name>Radar 60 km/h</name><description>Fonte: ANTT</description><Point><coordinates>-40.094720,-19.189859,0</coordinates></Point></Placemark>
<Placemark><name>Radar 60 km/h</name><description>Fonte: OSM</description><Point><coordinates>-40.094777,-19.189839,0</coordinates></Point></Placemark>
<Placemark><name>Radar 60 km/h</name><description>Fonte: ANTT</description><Point><coordinates>-40.069400,-19.132100,0</coordinates></Point></Placemark>
<Placemark><name>Radar 60 km/h</name><description>Fonte: ANTT</description><Point><coordinates>-40.023300,-19.038400,0</coordinates></Point></Placemark>
<Placemark><name>Radar 80 km/h</name><description>Fonte: OSM</description><Point><coordinates>-40.023218,-19.038363,0</coordinates></Point></Placemark>
<Placemark><name>Radar 60 km/h</name><description>Fonte: ANTT</description><Point><coordinates>-40.006100,-19.002600,0</coordinates></Point></Placemark>
<Placemark><name>Radar 60 km/h</name><description>Fonte: ANTT</description><Point><coordinates>-39.997200,-18.983900,0</coordinates></Point></Placemark>
<Placemark><name>Radar 60 km/h</name><description>Fonte: ANTT</description><Point><coordinates>-39.995700,-18.980500,0</coordinates></Point></Placemark>
<Placemark><name>Radar 60 km/h</name><description>Fonte: OSM</description><Point><coordinates>-39.973492,-18.934334,0</coordinates></Point></Placemark>
<Placemark><name>Radar 60 km/h</name><description>Fonte: ANTT</description><Point><coordinates>-39.973400,-18.934200,0</coordinates></Point></Placemark>
<Placemark><name>Radar 60 km/h</name><description>Fonte: ANTT</description><Point><coordinates>-39.972400,-18.931800,0</coordinates></Point></Placemark>
<Placemark><name>Radar 60 km/h</name><description>Fonte: OSM</description><Point><coordinates>-39.972257,-18.931666,0</coordinates></Point></Placemark>
<Placemark><name>Radar 60 km/h</name><description>Fonte: ANTT</description><Point><coordinates>-39.935300,-18.859600,0</coordinates></Point></Placemark>
<Placemark><name>Radar 60 km/h</name><description>Fonte: ANTT</description><Point><coordinates>-39.934200,-18.858000,0</coordinates></Point></Placemark>
<Placemark><name>Radar 60 km/h</name><description>Fonte: ANTT</description><Point><coordinates>-39.901700,-18.814700,0</coordinates></Point></Placemark>
<Placemark><name>Radar 60 km/h</name><description>Fonte: OSM</description><Point><coordinates>-39.861995,-18.747775,0</coordinates></Point></Placemark>
<Placemark><name>Radar 60 km/h</name><description>Fonte: OSM</description><Point><coordinates>-39.861934,-18.747189,0</coordinates></Point></Placemark>
<Placemark><name>Radar 60 km/h</name><description>Fonte: ANTT</description><Point><coordinates>-39.859970,-18.729160,0</coordinates></Point></Placemark>
<Placemark><name>Radar 60 km/h</name><description>Fonte: OSM</description><Point><coordinates>-39.860931,-18.723609,0</coordinates></Point></Placemark>
<Placemark><name>Radar 60 km/h</name><description>Fonte: ANTT</description><Point><coordinates>-39.860939,-18.723530,0</coordinates></Point></Placemark>
<Placemark><name>Radar 60 km/h</name><description>Fonte: OSM</description><Point><coordinates>-39.861049,-18.723463,0</coordinates></Point></Placemark>
<Placemark><name>Radar 60 km/h</name><description>Fonte: ANTT</description><Point><coordinates>-39.873500,-18.717000,0</coordinates></Point></Placemark>
<Placemark><name>Radar 60 km/h</name><description>Fonte: ANTT</description><Point><coordinates>-39.873400,-18.716800,0</coordinates></Point></Placemark>
<Placemark><name>Radar 60 km/h</name><description>Fonte: ANTT</description><Point><coordinates>-39.876010,-18.715966,0</coordinates></Point></Placemark>
<Placemark><name>Radar 60 km/h</name><description>Fonte: ANTT</description><Point><coordinates>-39.876000,-18.715800,0</coordinates></Point></Placemark>
<Placemark><name>Radar 60 km/h</name><description>Fonte: ANTT</description><Point><coordinates>-39.862299,-18.686299,0</coordinates></Point></Placemark>
<Placemark><name>Radar 60 km/h</name><description>Fonte: OSM</description><Point><coordinates>-39.862300,-18.686113,0</coordinates></Point></Placemark>
<Placemark><name>Radar 60 km/h</name><description>Fonte: ANTT</description><Point><coordinates>-39.865079,-18.676970,0</coordinates></Point></Placemark>
<Placemark><name>Radar</name><description>Fonte: DNIT</description><Point><coordinates>-40.417011,-18.672182,0</coordinates></Point></Placemark>
<Placemark><name>Radar</name><description>Fonte: DNIT</description><Point><coordinates>-40.419800,-18.670900,0</coordinates></Point></Placemark>
<Placemark><name>Radar</name><description>Fonte: DNIT</description><Point><coordinates>-40.529272,-18.611593,0</coordinates></Point></Placemark>
<Placemark><name>Radar</name><description>Fonte: DNIT</description><Point><coordinates>-40.530133,-18.611586,0</coordinates></Point></Placemark>
<Placemark><name>Radar 60 km/h</name><description>Fonte: OSM</description><Point><coordinates>-39.893184,-18.583129,0</coordinates></Point></Placemark>
<Placemark><name>Radar 60 km/h</name><description>Fonte: ANTT</description><Point><coordinates>-39.893160,-18.582989,0</coordinates></Point></Placemark>
<Placemark><name>Radar 60 km/h</name><description>Fonte: ANTT</description><Point><coordinates>-39.924860,-18.478940,0</coordinates></Point></Placemark>
<Placemark><name>Radar 60 km/h</name><description>Fonte: ANTT</description><Point><coordinates>-39.932800,-18.439400,0</coordinates></Point></Placemark>
<Placemark><name>Radar 60 km/h</name><description>Fonte: OSM</description><Point><coordinates>-39.933685,-18.433719,0</coordinates></Point></Placemark>
<Placemark><name>Radar 60 km/h</name><description>Fonte: OSM</description><Point><coordinates>-39.933905,-18.432097,0</coordinates></Point></Placemark>
<Placemark><name>Radar 60 km/h</name><description>Fonte: ANTT</description><Point><coordinates>-39.935600,-18.420900,0</coordinates></Point></Placemark>
<Placemark><name>Radar 60 km/h</name><description>Fonte: ANTT</description><Point><coordinates>-39.935610,-18.420860,0</coordinates></Point></Placemark>
<Placemark><name>Radar 60 km/h</name><description>Fonte: OSM</description><Point><coordinates>-39.935525,-18.420810,0</coordinates></Point></Placemark>
<Placemark><name>Radar</name><description>Fonte: DNIT</description><Point><coordinates>-40.684432,-18.407558,0</coordinates></Point></Placemark>
<Placemark><name>Radar</name><description>Fonte: OSM</description><Point><coordinates>-39.954724,-18.313028,0</coordinates></Point></Placemark>
<Placemark><name>Radar 60 km/h</name><description>Fonte: ANTT</description><Point><coordinates>-39.954610,-18.313020,0</coordinates></Point></Placemark>
<Placemark><name>Radar 60 km/h</name><description>Fonte: ANTT</description><Point><coordinates>-39.956470,-18.294219,0</coordinates></Point></Placemark>
<Placemark><name>Radar 60 km/h</name><description>Fonte: OSM</description><Point><coordinates>-39.956527,-18.294116,0</coordinates></Point></Placemark>
<Placemark><name>Radar 60 km/h</name><description>Fonte: ANTT</description><Point><coordinates>-39.956879,-18.282360,0</coordinates></Point></Placemark>
<Placemark><name>Radar 60 km/h</name><description>Fonte: ANTT</description><Point><coordinates>-40.094720,-18.189859,0</coordinates></Point></Placemark>
</Folder>
<Folder><name>Radares de trecho</name>
<Placemark><name>Radar de trecho 60 km/h</name><description>Fonte: OSM</description><Point><coordinates>-40.533396,-20.732933,0</coordinates></Point></Placemark>
<Placemark><name>Radar de trecho 60 km/h</name><description>Fonte: OSM</description><Point><coordinates>-40.533323,-20.732764,0</coordinates></Point></Placemark>
<Placemark><name>Radar de trecho 60 km/h</name><description>Fonte: OSM</description><Point><coordinates>-40.442398,-20.625236,0</coordinates></Point></Placemark>
<Placemark><name>Radar de trecho 60 km/h</name><description>Fonte: OSM</description><Point><coordinates>-40.442578,-20.625211,0</coordinates></Point></Placemark>
<Placemark><name>Radar de trecho 60 km/h</name><description>Fonte: OSM</description><Point><coordinates>-40.328783,-20.418494,0</coordinates></Point></Placemark>
</Folder>
<Folder><name>Avanço de sinal vermelho</name>
<Placemark><name>Avanço de sinal</name><description>Fonte: OSM</description><Point><coordinates>-40.518464,-20.633118,0</coordinates></Point></Placemark>
<Placemark><name>Avanço de sinal</name><description>Fonte: OSM</description><Point><coordinates>-40.519893,-20.631850,0</coordinates></Point></Placemark>
<Placemark><name>Avanço de sinal</name><description>Fonte: OSM</description><Point><coordinates>-40.519827,-20.631784,0</coordinates></Point></Placemark>
<Placemark><name>Avanço de sinal</name><description>Fonte: OSM</description><Point><coordinates>-40.522674,-20.630450,0</coordinates></Point></Placemark>
</Folder>
</Document></kml>