{"type":"FeatureCollection","attribution":"Pardal — © colaboradores do OpenStreetMap (ODbL 1.0) e fontes abertas listadas no README","features":[{"type":"Feature","geometry":{"type":"Point","coordinates":[-41.300829,-21.201799]},"properties":{"kind":"FIXED","limit_kmh":60,"source":"ANTT","active":true,"direction_deg":346}},{"type":"Feature","geometry":{"type":"Point","coordinates":[-41.300109,-21.19649]},"properties":{"kind":"FIXED","limit_kmh":60,"source":"ANTT","active":true,"direction_deg":220}},{"type":"Feature","geometry":{"type":"Point","coordinates":[-41.2715,-21.148129]},"properties":{"kind":"FIXED","limit_kmh":60,"source":"ANTT","active":true,"direction_deg":353}},{"type":"Feature","geometry":{"type":"Point","coordinates":[-41.28,-21.132]},"properties":{"kind":"FIXED","limit_kmh":60,"source":"ANTT","active":true,"direction_deg":337}},{"type":"Feature","geometry":{"type":"Point","coordinates":[-41.2792,-21.1282]},"properties":{"kind":"FIXED","limit_kmh":60,"source":"ANTT","active":true,"direction_deg":256}},{"type":"Feature","geometry":{"type":"Point","coordinates":[-40.85616,-21.11242]},"properties":{"kind":"FIXED","limit_kmh":60,"source":"OSM","active":true,"direction_deg":null}},{"type":"Feature","geometry":{"type":"Point","coordinates":[-41.16436,-21.02858]},"properties":{"kind":"FIXED","limit_kmh":60,"source":"ANTT","active":true,"direction_deg":105}},{"type":"Feature","geometry":{"type":"Point","coordinates":[-41.078232,-20.924071]},"properties":{"kind":"FIXED","limit_kmh":40,"source":"OSM","active":true,"direction_deg":null}},{"type":"Feature","geometry":{"type":"Point","coordinates":[-40.9993,-20.8914]},"properties":{"kind":"FIXED","limit_kmh":60,"source":"ANTT","active":true,"direction_deg":61}},{"type":"Feature","geometry":{"type":"Point","coordinates":[-40.997975,-20.89069]},"properties":{"kind":"FIXED","limit_kmh":60,"source":"OSM","active":true,"direction_deg":null}},{"type":"Feature","geometry":{"type":"Point","coordinates":[-40.993112,-20.889888]},"properties":{"kind":"FIXED","limit_kmh":60,"source":"OSM","active":true,"direction_deg":null}},{"type":"Feature","geometry":{"type":"Point","coordinates":[-40.9912,-20.8896]},"properties":{"kind":"FIXED","limit_kmh":60,"source":"ANTT","active":true,"direction_deg":246}},{"type":"Feature","geometry":{"type":"Point","coordinates":[-40.9332,-20.8659]},"properties":{"kind":"FIXED","limit_kmh":60,"source":"ANTT+OSM","active":true,"direction_deg":110}},{"type":"Feature","geometry":{"type":"Point","coordinates":[-40.9304,-20.8657]},"properties":{"kind":"FIXED","limit_kmh":60,"source":"ANTT+OSM","active":true,"direction_deg":258}},{"type":"Feature","geometry":{"type":"Point","coordinates":[-40.914057,-20.865632]},"properties":{"kind":"FIXED","limit_kmh":60,"source":"ANTT","active":true,"direction_deg":null}},{"type":"Feature","geometry":{"type":"Point","coordinates":[-40.876259,-20.858771]},"properties":{"kind":"FIXED","limit_kmh":60,"source":"OSM","active":true,"direction_deg":null}},{"type":"Feature","geometry":{"type":"Point","coordinates":[-40.876114,-20.846981]},"properties":{"kind":"FIXED","limit_kmh":60,"source":"OSM","active":true,"direction_deg":null}},{"type":"Feature","geometry":{"type":"Point","coordinates":[-40.8747,-20.8431]},"properties":{"kind":"FIXED","limit_kmh":60,"source":"ANTT","active":true,"direction_deg":243}},{"type":"Feature","geometry":{"type":"Point","coordinates":[-41.228943,-20.837493]},"properties":{"kind":"FIXED","limit_kmh":null,"source":"DNIT","active":true,"direction_deg":null}},{"type":"Feature","geometry":{"type":"Point","coordinates":[-40.857706,-20.829184]},"properties":{"kind":"FIXED","limit_kmh":60,"source":"OSM","active":true,"direction_deg":null}},{"type":"Feature","geometry":{"type":"Point","coordinates":[-40.808737,-20.792841]},"properties":{"kind":"FIXED","limit_kmh":null,"source":"OSM","active":true,"direction_deg":null}},{"type":"Feature","geometry":{"type":"Point","coordinates":[-40.808182,-20.792568]},"properties":{"kind":"FIXED","limit_kmh":50,"source":"OSM","active":true,"direction_deg":null}},{"type":"Feature","geometry":{"type":"Point","coordinates":[-41.692008,-20.791483]},"properties":{"kind":"FIXED","limit_kmh":40,"source":"OSM","active":true,"direction_deg":null}},{"type":"Feature","geometry":{"type":"Point","coordinates":[-41.684261,-20.783448]},"properties":{"kind":"FIXED","limit_kmh":40,"source":"OSM","active":true,"direction_deg":null}},{"type":"Feature","geometry":{"type":"Point","coordinates":[-41.068001,-20.778784]},"properties":{"kind":"FIXED","limit_kmh":60,"source":"OSM","active":true,"direction_deg":null}},{"type":"Feature","geometry":{"type":"Point","coordinates":[-41.06695,-20.778004]},"properties":{"kind":"FIXED","limit_kmh":60,"source":"OSM","active":true,"direction_deg":null}},{"type":"Feature","geometry":{"type":"Point","coordinates":[-41.666936,-20.777816]},"properties":{"kind":"FIXED","limit_kmh":null,"source":"DNIT","active":true,"direction_deg":null}},{"type":"Feature","geometry":{"type":"Point","coordinates":[-41.678466,-20.777428]},"properties":{"kind":"FIXED","limit_kmh":40,"source":"OSM","active":true,"direction_deg":null}},{"type":"Feature","geometry":{"type":"Point","coordinates":[-41.673131,-20.774593]},"properties":{"kind":"FIXED","limit_kmh":40,"source":"OSM","active":true,"direction_deg":null}},{"type":"Feature","geometry":{"type":"Point","coordinates":[-40.765549,-20.770859]},"properties":{"kind":"FIXED","limit_kmh":60,"source":"ANTT","active":true,"direction_deg":94}},{"type":"Feature","geometry":{"type":"Point","coordinates":[-41.560135,-20.763413]},"properties":{"kind":"FIXED","limit_kmh":null,"source":"DNIT","active":true,"direction_deg":150}},{"type":"Feature","geometry":{"type":"Point","coordinates":[-41.558979,-20.763009]},"properties":{"kind":"FIXED","limit_kmh":null,"source":"DNIT","active":true,"direction_deg":182}},{"type":"Feature","geometry":{"type":"Point","coordinates":[-41.5427,-20.7617]},"properties":{"kind":"FIXED","limit_kmh":null,"source":"DNIT","active":true,"direction_deg":80}},{"type":"Feature","geometry":{"type":"Point","coordinates":[-41.5589,-20.7544]},"properties":{"kind":"FIXED","limit_kmh":null,"source":"DNIT","active":true,"direction_deg":60}},{"type":"Feature","geometry":{"type":"Point","coordinates":[-41.485651,-20.748159]},"properties":{"kind":"FIXED","limit_kmh":null,"source":"DNIT","active":true,"direction_deg":42}},{"type":"Feature","geometry":{"type":"Point","coordinates":[-41.483983,-20.746425]},"properties":{"kind":"FIXED","limit_kmh":null,"source":"DNIT","active":true,"direction_deg":224}},{"type":"Feature","geometry":{"type":"Point","coordinates":[-40.533436,-20.733049]},"properties":{"kind":"FIXED","limit_kmh":60,"source":"OSM","active":true,"direction_deg":null}},{"type":"Feature","geometry":{"type":"Point","coordinates":[-40.533396,-20.732933]},"properties":{"kind":"SECTION","limit_kmh":60,"source":"OSM","active":true,"end":[-40.533285,-20.732794],"direction_deg":null}},{"type":"Feature","geometry":{"type":"Point","coordinates":[-40.533323,-20.732764]},"properties":{"kind":"SECTION","limit_kmh":60,"source":"OSM","active":true,"end":[-40.533374,-20.732834],"direction_deg":null}},{"type":"Feature","geometry":{"type":"Point","coordinates":[-40.523909,-20.721051]},"properties":{"kind":"FIXED","limit_kmh":60,"source":"OSM","active":true,"direction_deg":null}},{"type":"Feature","geometry":{"type":"Point","coordinates":[-40.512817,-20.694471]},"properties":{"kind":"FIXED","limit_kmh":60,"source":"OSM","active":true,"direction_deg":null}},{"type":"Feature","geometry":{"type":"Point","coordinates":[-40.70427,-20.691939]},"properties":{"kind":"FIXED","limit_kmh":60,"source":"ANTT","active":true,"direction_deg":46}},{"type":"Feature","geometry":{"type":"Point","coordinates":[-40.529944,-20.638759]},"properties":{"kind":"FIXED","limit_kmh":60,"source":"OSM","active":true,"direction_deg":null}},{"type":"Feature","geometry":{"type":"Point","coordinates":[-40.529757,-20.638399]},"properties":{"kind":"FIXED","limit_kmh":60,"source":"OSM","active":true,"direction_deg":null}},{"type":"Feature","geometry":{"type":"Point","coordinates":[-40.518464,-20.633118]},"properties":{"kind":"RED_LIGHT","limit_kmh":null,"source":"OSM","active":true,"direction_deg":null}},{"type":"Feature","geometry":{"type":"Point","coordinates":[-40.519893,-20.63185]},"properties":{"kind":"RED_LIGHT","limit_kmh":null,"source":"OSM","active":true,"direction_deg":null}},{"type":"Feature","geometry":{"type":"Point","coordinates":[-40.519827,-20.631784]},"properties":{"kind":"RED_LIGHT","limit_kmh":null,"source":"OSM","active":true,"direction_deg":null}},{"type":"Feature","geometry":{"type":"Point","coordinates":[-40.522674,-20.63045]},"properties":{"kind":"RED_LIGHT","limit_kmh":null,"source":"OSM","active":true,"direction_deg":null}},{"type":"Feature","geometry":{"type":"Point","coordinates":[-40.47554,-20.627803]},"properties":{"kind":"FIXED","limit_kmh":60,"source":"OSM","active":true,"direction_deg":null}},{"type":"Feature","geometry":{"type":"Point","coordinates":[-40.442398,-20.625236]},"properties":{"kind":"SECTION","limit_kmh":60,"source":"OSM","active":true,"end":[-40.442663,-20.625198],"direction_deg":null}},{"type":"Feature","geometry":{"type":"Point","coordinates":[-40.442814,-20.625229]},"properties":{"kind":"FIXED","limit_kmh":null,"source":"OSM","active":true,"direction_deg":null}},{"type":"Feature","geometry":{"type":"Point","coordinates":[-40.442243,-20.625216]},"properties":{"kind":"FIXED","limit_kmh":null,"source":"OSM","active":true,"direction_deg":null}},{"type":"Feature","geometry":{"type":"Point","coordinates":[-40.442578,-20.625211]},"properties":{"kind":"SECTION","limit_kmh":60,"source":"OSM","active":true,"end":[-40.442398,-20.625236],"direction_deg":null}},{"type":"Feature","geometry":{"type":"Point","coordinates":[-40.361336,-20.517067]},"properties":{"kind":"FIXED","limit_kmh":null,"source":"OSM","active":true,"direction_deg":null}},{"type":"Feature","geometry":{"type":"Point","coordinates":[-40.363805,-20.514509]},"properties":{"kind":"FIXED","limit_kmh":60,"source":"OSM","active":true,"direction_deg":null}},{"type":"Feature","geometry":{"type":"Point","coordinates":[-40.36372,-20.514133]},"properties":{"kind":"FIXED","limit_kmh":60,"source":"OSM","active":true,"direction_deg":null}},{"type":"Feature","geometry":{"type":"Point","coordinates":[-40.363841,-20.513653]},"properties":{"kind":"FIXED","limit_kmh":60,"source":"OSM","active":true,"direction_deg":null}},{"type":"Feature","geometry":{"type":"Point","coordinates":[-40.363271,-20.500513]},"properties":{"kind":"FIXED","limit_kmh":80,"source":"OSM","active":true,"direction_deg":null}},{"type":"Feature","geometry":{"type":"Point","coordinates":[-40.363292,-20.500412]},"properties":{"kind":"FIXED","limit_kmh":80,"source":"OSM","active":true,"direction_deg":null}},{"type":"Feature","geometry":{"type":"Point","coordinates":[-40.353027,-20.479048]},"properties":{"kind":"FIXED","limit_kmh":80,"source":"OSM","active":true,"direction_deg":null}},{"type":"Feature","geometry":{"type":"Point","coordinates":[-40.352888,-20.47855]},"properties":{"kind":"FIXED","limit_kmh":80,"source":"OSM","active":true,"direction_deg":null}},{"type":"Feature","geometry":{"type":"Point","coordinates":[-40.353012,-20.478193]},"properties":{"kind":"FIXED","limit_kmh":80,"source":"OSM","active":true,"direction_deg":null}},{"type":"Feature","geometry":{"type":"Point","coordinates":[-40.788775,-20.427494]},"properties":{"kind":"FIXED","limit_kmh":null,"source":"DNIT","active":false,"direction_deg":73}},{"type":"Feature","geometry":{"type":"Point","coordinates":[-40.787634,-20.425108]},"properties":{"kind":"FIXED","limit_kmh":null,"source":"DNIT","active":false,"direction_deg":181}},{"type":"Feature","geometry":{"type":"Point","coordinates":[-40.328783,-20.418494]},"properties":{"kind":"SECTION","limit_kmh":60,"source":"OSM","active":true,"end":[-40.328868,-20.418892],"direction_deg":null}},{"type":"Feature","geometry":{"type":"Point","coordinates":[-40.814543,-20.417027]},"properties":{"kind":"FIXED","limit_kmh":null,"source":"DNIT","active":true,"direction_deg":265}},{"type":"Feature","geometry":{"type":"Point","coordinates":[-40.903497,-20.415362]},"properties":{"kind":"FIXED","limit_kmh":null,"source":"DNIT","active":true,"direction_deg":253}},{"type":"Feature","geometry":{"type":"Point","coordinates":[-40.705822,-20.413902]},"properties":{"kind":"FIXED","limit_kmh":null,"source":"DNIT","active":true,"direction_deg":11}},{"type":"Feature","geometry":{"type":"Point","coordinates":[-40.729413,-20.413876]},"properties":{"kind":"FIXED","limit_kmh":null,"source":"DNIT","active":true,"direction_deg":null}},{"type":"Feature","geometry":{"type":"Point","coordinates":[-40.908402,-20.412875]},"properties":{"kind":"FIXED","limit_kmh":null,"source":"DNIT","active":true,"direction_deg":106}},{"type":"Feature","geometry":{"type":"Point","coordinates":[-40.702744,-20.412198]},"properties":{"kind":"FIXED","limit_kmh":null,"source":"DNIT","active":false,"direction_deg":277}},{"type":"Feature","geometry":{"type":"Point","coordinates":[-40.676702,-20.410582]},"properties":{"kind":"FIXED","limit_kmh":null,"source":"DNIT","active":false,"direction_deg":null}},{"type":"Feature","geometry":{"type":"Point","coordinates":[-40.885763,-20.409863]},"properties":{"kind":"FIXED","limit_kmh":null,"source":"DNIT","active":true,"direction_deg":313}},{"type":"Feature","geometry":{"type":"Point","coordinates":[-40.887065,-20.409749]},"properties":{"kind":"FIXED","limit_kmh":null,"source":"DNIT","active":true,"direction_deg":66}},{"type":"Feature","geometry":{"type":"Point","coordinates":[-40.939622,-20.408939]},"properties":{"kind":"FIXED","limit_kmh":null,"source":"DNIT","active":false,"direction_deg":236}},{"type":"Feature","geometry":{"type":"Point","coordinates":[-40.942835,-20.407119]},"properties":{"kind":"FIXED","limit_kmh":null,"source":"DNIT","active":false,"direction_deg":90}},{"type":"Feature","geometry":{"type":"Point","coordinates":[-40.672159,-20.39954]},"properties":{"kind":"FIXED","limit_kmh":null,"source":"DNIT","active":false,"direction_deg":null}},{"type":"Feature","geometry":{"type":"Point","coordinates":[-40.489276,-20.392299]},"properties":{"kind":"FIXED","limit_kmh":null,"source":"DNIT","active":false,"direction_deg":null}},{"type":"Feature","geometry":{"type":"Point","coordinates":[-40.474078,-20.386918]},"properties":{"kind":"FIXED","limit_kmh":null,"source":"DNIT","active":false,"direction_deg":null}},{"type":"Feature","geometry":{"type":"Point","coordinates":[-40.556895,-20.385097]},"properties":{"kind":"FIXED","limit_kmh":null,"source":"DNIT","active":true,"direction_deg":231}},{"type":"Feature","geometry":{"type":"Point","coordinates":[-40.642083,-20.384058]},"properties":{"kind":"FIXED","limit_kmh":60,"source":"OSM","active":false,"direction_deg":null}},{"type":"Feature","geometry":{"type":"Point","coordinates":[-40.641326,-20.383949]},"properties":{"kind":"FIXED","limit_kmh":null,"source":"DNIT","active":false,"direction_deg":72}},{"type":"Feature","geometry":{"type":"Point","coordinates":[-40.4601,-20.3832]},"properties":{"kind":"FIXED","limit_kmh":60,"source":"ANTT","active":true,"direction_deg":60}},{"type":"Feature","geometry":{"type":"Point","coordinates":[-40.63839,-20.383039]},"properties":{"kind":"FIXED","limit_kmh":60,"source":"OSM","active":false,"direction_deg":null}},{"type":"Feature","geometry":{"type":"Point","coordinates":[-40.635335,-20.382788]},"properties":{"kind":"FIXED","limit_kmh":null,"source":"DNIT","active":false,"direction_deg":null}},{"type":"Feature","geometry":{"type":"Point","coordinates":[-40.639513,-20.38271]},"properties":{"kind":"FIXED","limit_kmh":null,"source":"DNIT","active":false,"direction_deg":267}},{"type":"Feature","geometry":{"type":"Point","coordinates":[-40.458,-20.3818]},"properties":{"kind":"FIXED","limit_kmh":60,"source":"ANTT","active":true,"direction_deg":238}},{"type":"Feature","geometry":{"type":"Point","coordinates":[-41.026758,-20.380512]},"properties":{"kind":"FIXED","limit_kmh":40,"source":"DNIT+OSM","active":false,"direction_deg":null}},{"type":"Feature","geometry":{"type":"Point","coordinates":[-41.049793,-20.379942]},"properties":{"kind":"FIXED","limit_kmh":null,"source":"DNIT","active":true,"direction_deg":137}},{"type":"Feature","geometry":{"type":"Point","coordinates":[-41.047555,-20.379776]},"properties":{"kind":"FIXED","limit_kmh":60,"source":"OSM","active":true,"direction_deg":null}},{"type":"Feature","geometry":{"type":"Point","coordinates":[-41.047188,-20.3795]},"properties":{"kind":"FIXED","limit_kmh":null,"source":"DNIT","active":true,"direction_deg":237}},{"type":"Feature","geometry":{"type":"Point","coordinates":[-40.559974,-20.376901]},"properties":{"kind":"FIXED","limit_kmh":null,"source":"DNIT","active":true,"direction_deg":3}},{"type":"Feature","geometry":{"type":"Point","coordinates":[-40.329915,-20.376773]},"properties":{"kind":"FIXED","limit_kmh":60,"source":"OSM","active":true,"direction_deg":null}},{"type":"Feature","geometry":{"type":"Point","coordinates":[-40.56,-20.374834]},"properties":{"kind":"FIXED","limit_kmh":null,"source":"DNIT","active":true,"direction_deg":218}},{"type":"Feature","geometry":{"type":"Point","coordinates":[-40.306046,-20.374772]},"properties":{"kind":"FIXED","limit_kmh":60,"source":"OSM","active":true,"direction_deg":null}},{"type":"Feature","geometry":{"type":"Point","coordinates":[-41.057183,-20.374757]},"properties":{"kind":"FIXED","limit_kmh":null,"source":"DNIT","active":true,"direction_deg":303}},{"type":"Feature","geometry":{"type":"Point","coordinates":[-40.327998,-20.374587]},"properties":{"kind":"FIXED","limit_kmh":60,"source":"OSM","active":true,"direction_deg":null}},{"type":"Feature","geometry":{"type":"Point","coordinates":[-40.592982,-20.374565]},"properties":{"kind":"FIXED","limit_kmh":null,"source":"DNIT","active":false,"direction_deg":335}},{"type":"Feature","geometry":{"type":"Point","coordinates":[-41.060888,-20.365634]},"properties":{"kind":"FIXED","limit_kmh":40,"source":"DNIT+OSM","active":true,"direction_deg":300}},{"type":"Feature","geometry":{"type":"Point","coordinates":[-41.06369,-20.364402]},"properties":{"kind":"FIXED","limit_kmh":60,"source":"DNIT+OSM","active":true,"direction_deg":108}},{"type":"Feature","geometry":{"type":"Point","coordinates":[-40.430294,-20.357605]},"properties":{"kind":"FIXED","limit_kmh":60,"source":"OSM","active":true,"direction_deg":null}},{"type":"Feature","geometry":{"type":"Point","coordinates":[-40.427813,-20.357394]},"properties":{"kind":"FIXED","limit_kmh":60,"source":"OSM","active":true,"direction_deg":null}},{"type":"Feature","geometry":{"type":"Point","coordinates":[-40.4281,-20.3573]},"properties":{"kind":"FIXED","limit_kmh":60,"source":"ANTT","active":true,"direction_deg":277}},{"type":"Feature","geometry":{"type":"Point","coordinates":[-40.428088,-20.357298]},"properties":{"kind":"FIXED","limit_kmh":60,"source":"ANTT","active":true,"direction_deg":277}},{"type":"Feature","geometry":{"type":"Point","coordinates":[-40.333744,-20.355943]},"properties":{"kind":"FIXED","limit_kmh":60,"source":"OSM","active":true,"direction_deg":null}},{"type":"Feature","geometry":{"type":"Point","coordinates":[-40.334379,-20.353139]},"properties":{"kind":"FIXED","limit_kmh":60,"source":"OSM","active":true,"direction_deg":null}},{"type":"Feature","geometry":{"type":"Point","coordinates":[-40.333244,-20.350079]},"properties":{"kind":"FIXED","limit_kmh":null,"source":"DNIT","active":true,"direction_deg":null}},{"type":"Feature","geometry":{"type":"Point","coordinates":[-40.3313,-20.3471]},"properties":{"kind":"FIXED","limit_kmh":null,"source":"DNIT","active":true,"direction_deg":null}},{"type":"Feature","geometry":{"type":"Point","coordinates":[-41.104653,-20.347018]},"properties":{"kind":"FIXED","limit_kmh":null,"source":"DNIT","active":true,"direction_deg":321}},{"type":"Feature","geometry":{"type":"Point","coordinates":[-40.329713,-20.344477]},"properties":{"kind":"FIXED","limit_kmh":null,"source":"DNIT","active":true,"direction_deg":null}},{"type":"Feature","geometry":{"type":"Point","coordinates":[-40.4053,-20.3421]},"properties":{"kind":"FIXED","limit_kmh":60,"source":"ANTT","active":true,"direction_deg":185}},{"type":"Feature","geometry":{"type":"Point","coordinates":[-40.40527,-20.342079]},"properties":{"kind":"FIXED","limit_kmh":60,"source":"ANTT","active":true,"direction_deg":185}},{"type":"Feature","geometry":{"type":"Point","coordinates":[-41.185281,-20.336732]},"properties":{"kind":"FIXED","limit_kmh":60,"source":"DNIT+OSM","active":true,"direction_deg":null}},{"type":"Feature","geometry":{"type":"Point","coordinates":[-41.124794,-20.33629]},"properties":{"kind":"FIXED","limit_kmh":60,"source":"OSM","active":true,"direction_deg":null}},{"type":"Feature","geometry":{"type":"Point","coordinates":[-41.172856,-20.335969]},"properties":{"kind":"FIXED","limit_kmh":60,"source":"OSM","active":true,"direction_deg":null}},{"type":"Feature","geometry":{"type":"Point","coordinates":[-41.172542,-20.335894]},"properties":{"kind":"FIXED","limit_kmh":null,"source":"DNIT","active":true,"direction_deg":null}},{"type":"Feature","geometry":{"type":"Point","coordinates":[-41.165987,-20.335122]},"properties":{"kind":"FIXED","limit_kmh":60,"source":"OSM","active":true,"direction_deg":null}},{"type":"Feature","geometry":{"type":"Point","coordinates":[-41.156399,-20.331195]},"properties":{"kind":"FIXED","limit_kmh":null,"source":"DNIT","active":true,"direction_deg":66}},{"type":"Feature","geometry":{"type":"Point","coordinates":[-41.153313,-20.329927]},"properties":{"kind":"FIXED","limit_kmh":null,"source":"DNIT","active":true,"direction_deg":245}},{"type":"Feature","geometry":{"type":"Point","coordinates":[-41.144323,-20.326245]},"properties":{"kind":"FIXED","limit_kmh":null,"source":"DNIT","active":true,"direction_deg":67}},{"type":"Feature","geometry":{"type":"Point","coordinates":[-41.143806,-20.326033]},"properties":{"kind":"FIXED","limit_kmh":60,"source":"OSM","active":true,"direction_deg":null}},{"type":"Feature","geometry":{"type":"Point","coordinates":[-41.143154,-20.325719]},"properties":{"kind":"FIXED","limit_kmh":null,"source":"DNIT","active":true,"direction_deg":247}},{"type":"Feature","geometry":{"type":"Point","coordinates":[-41.210431,-20.325538]},"properties":{"kind":"FIXED","limit_kmh":60,"source":"DNIT+OSM","active":true,"direction_deg":null}},{"type":"Feature","geometry":{"type":"Point","coordinates":[-41.22163,-20.320507]},"properties":{"kind":"FIXED","limit_kmh":null,"source":"DNIT","active":true,"direction_deg":null}},{"type":"Feature","geometry":{"type":"Point","coordinates":[-41.225628,-20.31844]},"properties":{"kind":"FIXED","limit_kmh":null,"source":"DNIT","active":true,"direction_deg":114}},{"type":"Feature","geometry":{"type":"Point","coordinates":[-40.3949,-20.3057]},"properties":{"kind":"FIXED","limit_kmh":60,"source":"ANTT","active":true,"direction_deg":174}},{"type":"Feature","geometry":{"type":"Point","coordinates":[-40.394938,-20.305688]},"properties":{"kind":"FIXED","limit_kmh":60,"source":"ANTT","active":true,"direction_deg":174}},{"type":"Feature","geometry":{"type":"Point","coordinates":[-41.22942,-20.293485]},"properties":{"kind":"FIXED","limit_kmh":null,"source":"DNIT","active":true,"direction_deg":76}},{"type":"Feature","geometry":{"type":"Point","coordinates":[-40.392519,-20.286141]},"properties":{"kind":"FIXED","limit_kmh":60,"source":"OSM","active":true,"direction_deg":null}},{"type":"Feature","geometry":{"type":"Point","coordinates":[-40.39252,-20.285687]},"properties":{"kind":"FIXED","limit_kmh":60,"source":"OSM","active":true,"direction_deg":null}},{"type":"Feature","geometry":{"type":"Point","coordinates":[-41.652366,-20.285319]},"properties":{"kind":"FIXED","limit_kmh":null,"source":"DNIT","active":true,"direction_deg":54}},{"type":"Feature","geometry":{"type":"Point","coordinates":[-41.651229,-20.283786]},"properties":{"kind":"FIXED","limit_kmh":null,"source":"DNIT","active":true,"direction_deg":190}},{"type":"Feature","geometry":{"type":"Point","coordinates":[-41.776448,-20.281564]},"properties":{"kind":"FIXED","limit_kmh":50,"source":"OSM","active":true,"direction_deg":null}},{"type":"Feature","geometry":{"type":"Point","coordinates":[-41.778366,-20.279703]},"properties":{"kind":"FIXED","limit_kmh":50,"source":"OSM","active":true,"direction_deg":null}},{"type":"Feature","geometry":{"type":"Point","coordinates":[-41.57989,-20.264623]},"properties":{"kind":"FIXED","limit_kmh":null,"source":"DNIT","active":true,"direction_deg":303}},{"type":"Feature","geometry":{"type":"Point","coordinates":[-41.581763,-20.264063]},"properties":{"kind":"FIXED","limit_kmh":null,"source":"DNIT","active":true,"direction_deg":80}},{"type":"Feature","geometry":{"type":"Point","coordinates":[-40.377313,-20.257727]},"properties":{"kind":"FIXED","limit_kmh":60,"source":"OSM","active":true,"direction_deg":null}},{"type":"Feature","geometry":{"type":"Point","coordinates":[-40.377229,-20.257709]},"properties":{"kind":"FIXED","limit_kmh":60,"source":"OSM","active":true,"direction_deg":null}},{"type":"Feature","geometry":{"type":"Point","coordinates":[-41.564524,-20.252214]},"properties":{"kind":"FIXED","limit_kmh":null,"source":"DNIT","active":true,"direction_deg":74}},{"type":"Feature","geometry":{"type":"Point","coordinates":[-41.563072,-20.250752]},"properties":{"kind":"FIXED","limit_kmh":null,"source":"DNIT","active":true,"direction_deg":208}},{"type":"Feature","geometry":{"type":"Point","coordinates":[-41.550303,-20.248832]},"properties":{"kind":"FIXED","limit_kmh":null,"source":"DNIT","active":true,"direction_deg":72}},{"type":"Feature","geometry":{"type":"Point","coordinates":[-41.548809,-20.246476]},"properties":{"kind":"FIXED","limit_kmh":null,"source":"DNIT","active":true,"direction_deg":185}},{"type":"Feature","geometry":{"type":"Point","coordinates":[-41.536838,-20.238489]},"properties":{"kind":"FIXED","limit_kmh":60,"source":"OSM","active":true,"direction_deg":null}},{"type":"Feature","geometry":{"type":"Point","coordinates":[-41.404762,-20.238146]},"properties":{"kind":"FIXED","limit_kmh":60,"source":"OSM","active":true,"direction_deg":null}},{"type":"Feature","geometry":{"type":"Point","coordinates":[-41.512535,-20.237429]},"properties":{"kind":"FIXED","limit_kmh":null,"source":"DNIT","active":false,"direction_deg":264}},{"type":"Feature","geometry":{"type":"Point","coordinates":[-41.514605,-20.237314]},"properties":{"kind":"FIXED","limit_kmh":null,"source":"DNIT","active":false,"direction_deg":103}},{"type":"Feature","geometry":{"type":"Point","coordinates":[-40.277448,-20.236875]},"properties":{"kind":"FIXED","limit_kmh":60,"source":"OSM","active":true,"direction_deg":null}},{"type":"Feature","geometry":{"type":"Point","coordinates":[-40.276902,-20.236195]},"properties":{"kind":"FIXED","limit_kmh":60,"source":"OSM","active":true,"direction_deg":null}},{"type":"Feature","geometry":{"type":"Point","coordinates":[-41.508861,-20.236025]},"properties":{"kind":"FIXED","limit_kmh":null,"source":"DNIT","active":false,"direction_deg":null}},{"type":"Feature","geometry":{"type":"Point","coordinates":[-41.506586,-20.234548]},"properties":{"kind":"FIXED","limit_kmh":null,"source":"DNIT","active":false,"direction_deg":null}},{"type":"Feature","geometry":{"type":"Point","coordinates":[-41.362454,-20.232491]},"properties":{"kind":"FIXED","limit_kmh":null,"source":"OSM","active":true,"direction_deg":null}},{"type":"Feature","geometry":{"type":"Point","coordinates":[-41.503335,-20.232457]},"properties":{"kind":"FIXED","limit_kmh":null,"source":"DNIT","active":false,"direction_deg":55}},{"type":"Feature","geometry":{"type":"Point","coordinates":[-41.492817,-20.231667]},"properties":{"kind":"FIXED","limit_kmh":60,"source":"DNIT+OSM","active":false,"direction_deg":null}},{"type":"Feature","geometry":{"type":"Point","coordinates":[-41.501726,-20.231215]},"properties":{"kind":"FIXED","limit_kmh":null,"source":"DNIT","active":false,"direction_deg":234}},{"type":"Feature","geometry":{"type":"Point","coordinates":[-40.273163,-20.230851]},"properties":{"kind":"FIXED","limit_kmh":60,"source":"OSM","active":true,"direction_deg":null}},{"type":"Feature","geometry":{"type":"Point","coordinates":[-40.273316,-20.230755]},"properties":{"kind":"FIXED","limit_kmh":60,"source":"OSM","active":true,"direction_deg":null}},{"type":"Feature","geometry":{"type":"Point","coordinates":[-40.272683,-20.22968]},"properties":{"kind":"FIXED","limit_kmh":60,"source":"OSM","active":true,"direction_deg":null}},{"type":"Feature","geometry":{"type":"Point","coordinates":[-40.272879,-20.2296]},"properties":{"kind":"FIXED","limit_kmh":60,"source":"OSM","active":true,"direction_deg":null}},{"type":"Feature","geometry":{"type":"Point","coordinates":[-41.464356,-20.224904]},"properties":{"kind":"FIXED","limit_kmh":60,"source":"OSM","active":true,"direction_deg":null}},{"type":"Feature","geometry":{"type":"Point","coordinates":[-40.270089,-20.223257]},"properties":{"kind":"FIXED","limit_kmh":60,"source":"OSM","active":true,"direction_deg":null}},{"type":"Feature","geometry":{"type":"Point","coordinates":[-40.270342,-20.22325]},"properties":{"kind":"FIXED","limit_kmh":60,"source":"OSM","active":true,"direction_deg":null}},{"type":"Feature","geometry":{"type":"Point","coordinates":[-40.270341,-20.221696]},"properties":{"kind":"FIXED","limit_kmh":60,"source":"OSM","active":true,"direction_deg":null}},{"type":"Feature","geometry":{"type":"Point","coordinates":[-40.270536,-20.221695]},"properties":{"kind":"FIXED","limit_kmh":60,"source":"OSM","active":true,"direction_deg":null}},{"type":"Feature","geometry":{"type":"Point","coordinates":[-41.450647,-20.218912]},"properties":{"kind":"FIXED","limit_kmh":null,"source":"DNIT","active":true,"direction_deg":152}},{"type":"Feature","geometry":{"type":"Point","coordinates":[-41.44773,-20.215915]},"properties":{"kind":"FIXED","limit_kmh":60,"source":"OSM","active":true,"direction_deg":null}},{"type":"Feature","geometry":{"type":"Point","coordinates":[-41.447895,-20.215458]},"properties":{"kind":"FIXED","limit_kmh":null,"source":"DNIT","active":true,"direction_deg":321}},{"type":"Feature","geometry":{"type":"Point","coordinates":[-40.251585,-20.208854]},"properties":{"kind":"FIXED","limit_kmh":60,"source":"OSM","active":true,"direction_deg":null}},{"type":"Feature","geometry":{"type":"Point","coordinates":[-40.251108,-20.208639]},"properties":{"kind":"FIXED","limit_kmh":60,"source":"OSM","active":true,"direction_deg":null}},{"type":"Feature","geometry":{"type":"Point","coordinates":[-40.245431,-20.207148]},"properties":{"kind":"FIXED","limit_kmh":60,"source":"OSM","active":true,"direction_deg":null}},{"type":"Feature","geometry":{"type":"Point","coordinates":[-40.269367,-20.207137]},"properties":{"kind":"FIXED","limit_kmh":60,"source":"OSM","active":true,"direction_deg":null}},{"type":"Feature","geometry":{"type":"Point","coordinates":[-40.269186,-20.207131]},"properties":{"kind":"FIXED","limit_kmh":60,"source":"OSM","active":true,"direction_deg":null}},{"type":"Feature","geometry":{"type":"Point","coordinates":[-40.244665,-20.206849]},"properties":{"kind":"FIXED","limit_kmh":60,"source":"OSM","active":true,"direction_deg":null}},{"type":"Feature","geometry":{"type":"Point","coordinates":[-40.269556,-20.205841]},"properties":{"kind":"FIXED","limit_kmh":60,"source":"OSM","active":true,"direction_deg":null}},{"type":"Feature","geometry":{"type":"Point","coordinates":[-40.26938,-20.20584]},"properties":{"kind":"FIXED","limit_kmh":60,"source":"OSM","active":true,"direction_deg":null}},{"type":"Feature","geometry":{"type":"Point","coordinates":[-40.268662,-20.195694]},"properties":{"kind":"FIXED","limit_kmh":60,"source":"OSM","active":true,"direction_deg":null}},{"type":"Feature","geometry":{"type":"Point","coordinates":[-40.268489,-20.195683]},"properties":{"kind":"FIXED","limit_kmh":60,"source":"OSM","active":true,"direction_deg":null}},{"type":"Feature","geometry":{"type":"Point","coordinates":[-40.268562,-20.19272]},"properties":{"kind":"FIXED","limit_kmh":60,"source":"OSM","active":true,"direction_deg":null}},{"type":"Feature","geometry":{"type":"Point","coordinates":[-40.268758,-20.192708]},"properties":{"kind":"FIXED","limit_kmh":60,"source":"OSM","active":true,"direction_deg":null}},{"type":"Feature","geometry":{"type":"Point","coordinates":[-40.186348,-20.172012]},"properties":{"kind":"FIXED","limit_kmh":60,"source":"OSM","active":true,"direction_deg":null}},{"type":"Feature","geometry":{"type":"Point","coordinates":[-40.285608,-20.146528]},"properties":{"kind":"FIXED","limit_kmh":60,"source":"ANTT","active":true,"direction_deg":null}},{"type":"Feature","geometry":{"type":"Point","coordinates":[-40.181118,-20.127505]},"properties":{"kind":"FIXED","limit_kmh":null,"source":"OSM","active":true,"direction_deg":null}},{"type":"Feature","geometry":{"type":"Point","coordinates":[-40.323,-20.1131]},"properties":{"kind":"FIXED","limit_kmh":60,"source":"ANTT","active":true,"direction_deg":null}},{"type":"Feature","geometry":{"type":"Point","coordinates":[-40.323518,-20.112844]},"properties":{"kind":"FIXED","limit_kmh":50,"source":"OSM","active":true,"direction_deg":null}},{"type":"Feature","geometry":{"type":"Point","coordinates":[-40.323785,-20.112711]},"properties":{"kind":"FIXED","limit_kmh":50,"source":"OSM","active":true,"direction_deg":null}},{"type":"Feature","geometry":{"type":"Point","coordinates":[-40.3246,-20.1124]},"properties":{"kind":"FIXED","limit_kmh":60,"source":"ANTT","active":true,"direction_deg":null}},{"type":"Feature","geometry":{"type":"Point","coordinates":[-40.3321,-20.1051]},"properties":{"kind":"FIXED","limit_kmh":60,"source":"ANTT","active":true,"direction_deg":null}},{"type":"Feature","geometry":{"type":"Point","coordinates":[-40.3646,-20.0685]},"properties":{"kind":"FIXED","limit_kmh":60,"source":"ANTT","active":true,"direction_deg":312}},{"type":"Feature","geometry":{"type":"Point","coordinates":[-40.3843,-20.0525]},"properties":{"kind":"FIXED","limit_kmh":60,"source":"ANTT+OSM","active":true,"direction_deg":328}},{"type":"Feature","geometry":{"type":"Point","coordinates":[-40.3852,-20.0511]},"properties":{"kind":"FIXED","limit_kmh":60,"source":"ANTT","active":true,"direction_deg":151}},{"type":"Feature","geometry":{"type":"Point","coordinates":[-40.403505,-20.018014]},"properties":{"kind":"FIXED","limit_kmh":60,"source":"OSM","active":true,"direction_deg":null}},{"type":"Feature","geometry":{"type":"Point","coordinates":[-40.413209,-20.002073]},"properties":{"kind":"FIXED","limit_kmh":60,"source":"OSM","active":true,"direction_deg":null}},{"type":"Feature","geometry":{"type":"Point","coordinates":[-40.4132,-20.0013]},"properties":{"kind":"FIXED","limit_kmh":60,"source":"ANTT","active":true,"direction_deg":353}},{"type":"Feature","geometry":{"type":"Point","coordinates":[-40.4141,-19.9973]},"properties":{"kind":"FIXED","limit_kmh":60,"source":"ANTT","active":true,"direction_deg":164}},{"type":"Feature","geometry":{"type":"Point","coordinates":[-40.414262,-19.996627]},"properties":{"kind":"FIXED","limit_kmh":60,"source":"OSM","active":true,"direction_deg":null}},{"type":"Feature","geometry":{"type":"Point","coordinates":[-40.406602,-19.938636]},"properties":{"kind":"FIXED","limit_kmh":60,"source":"OSM","active":true,"direction_deg":null}},{"type":"Feature","geometry":{"type":"Point","coordinates":[-40.40623,-19.930143]},"properties":{"kind":"FIXED","limit_kmh":60,"source":"OSM","active":true,"direction_deg":null}},{"type":"Feature","geometry":{"type":"Point","coordinates":[-40.3798,-19.7567]},"properties":{"kind":"FIXED","limit_kmh":60,"source":"ANTT","active":true,"direction_deg":354}},{"type":"Feature","geometry":{"type":"Point","coordinates":[-40.379984,-19.755835]},"properties":{"kind":"FIXED","limit_kmh":50,"source":"OSM","active":true,"direction_deg":null}},{"type":"Feature","geometry":{"type":"Point","coordinates":[-40.3801,-19.7551]},"properties":{"kind":"FIXED","limit_kmh":60,"source":"ANTT","active":true,"direction_deg":174}},{"type":"Feature","geometry":{"type":"Point","coordinates":[-40.359576,-19.730879]},"properties":{"kind":"FIXED","limit_kmh":60,"source":"OSM","active":true,"direction_deg":null}},{"type":"Feature","geometry":{"type":"Point","coordinates":[-40.359256,-19.730337]},"properties":{"kind":"FIXED","limit_kmh":60,"source":"OSM","active":true,"direction_deg":null}},{"type":"Feature","geometry":{"type":"Point","coordinates":[-40.388254,-19.692172]},"properties":{"kind":"FIXED","limit_kmh":null,"source":"DNIT","active":true,"direction_deg":334}},{"type":"Feature","geometry":{"type":"Point","coordinates":[-40.388592,-19.688923]},"properties":{"kind":"FIXED","limit_kmh":null,"source":"DNIT","active":true,"direction_deg":153}},{"type":"Feature","geometry":{"type":"Point","coordinates":[-40.285,-19.6875]},"properties":{"kind":"FIXED","limit_kmh":60,"source":"ANTT","active":true,"direction_deg":49}},{"type":"Feature","geometry":{"type":"Point","coordinates":[-40.2817,-19.6857]},"properties":{"kind":"FIXED","limit_kmh":60,"source":"ANTT","active":true,"direction_deg":259}},{"type":"Feature","geometry":{"type":"Point","coordinates":[-40.389932,-19.682568]},"properties":{"kind":"FIXED","limit_kmh":null,"source":"DNIT","active":true,"direction_deg":359}},{"type":"Feature","geometry":{"type":"Point","coordinates":[-40.2718,-19.6825]},"properties":{"kind":"FIXED","limit_kmh":60,"source":"ANTT","active":true,"direction_deg":47}},{"type":"Feature","geometry":{"type":"Point","coordinates":[-40.270659,-19.681432]},"properties":{"kind":"FIXED","limit_kmh":60,"source":"OSM","active":true,"direction_deg":null}},{"type":"Feature","geometry":{"type":"Point","coordinates":[-40.3912,-19.6808]},"properties":{"kind":"FIXED","limit_kmh":null,"source":"DNIT","active":true,"direction_deg":111}},{"type":"Feature","geometry":{"type":"Point","coordinates":[-40.2698,-19.6807]},"properties":{"kind":"FIXED","limit_kmh":60,"source":"ANTT","active":true,"direction_deg":228}},{"type":"Feature","geometry":{"type":"Point","coordinates":[-40.399875,-19.676945]},"properties":{"kind":"FIXED","limit_kmh":null,"source":"DNIT","active":true,"direction_deg":149}},{"type":"Feature","geometry":{"type":"Point","coordinates":[-40.2356,-19.6574]},"properties":{"kind":"FIXED","limit_kmh":80,"source":"ANTT","active":true,"direction_deg":62}},{"type":"Feature","geometry":{"type":"Point","coordinates":[-40.462723,-19.649859]},"properties":{"kind":"FIXED","limit_kmh":null,"source":"DNIT","active":true,"direction_deg":1}},{"type":"Feature","geometry":{"type":"Point","coordinates":[-40.462493,-19.648048]},"properties":{"kind":"FIXED","limit_kmh":null,"source":"DNIT","active":true,"direction_deg":193}},{"type":"Feature","geometry":{"type":"Point","coordinates":[-40.405742,-19.646586]},"properties":{"kind":"FIXED","limit_kmh":null,"source":"DNIT","active":false,"direction_deg":8}},{"type":"Feature","geometry":{"type":"Point","coordinates":[-40.2333,-19.6463]},"properties":{"kind":"FIXED","limit_kmh":80,"source":"ANTT","active":true,"direction_deg":159}},{"type":"Feature","geometry":{"type":"Point","coordinates":[-40.407528,-19.645345]},"properties":{"kind":"FIXED","limit_kmh":null,"source":"DNIT","active":false,"direction_deg":65}},{"type":"Feature","geometry":{"type":"Point","coordinates":[-40.227,-19.6324]},"properties":{"kind":"FIXED","limit_kmh":80,"source":"ANTT","active":true,"direction_deg":34}},{"type":"Feature","geometry":{"type":"Point","coordinates":[-40.2259,-19.6307]},"properties":{"kind":"FIXED","limit_kmh":80,"source":"ANTT","active":true,"direction_deg":214}},{"type":"Feature","geometry":{"type":"Point","coordinates":[-40.2007,-19.5979]},"properties":{"kind":"FIXED","limit_kmh":60,"source":"ANTT","active":true,"direction_deg":31}},{"type":"Feature","geometry":{"type":"Point","coordinates":[-40.1993,-19.5961]},"properties":{"kind":"FIXED","limit_kmh":60,"source":"ANTT","active":true,"direction_deg":222}},{"type":"Feature","geometry":{"type":"Point","coordinates":[-40.1904,-19.5862]},"properties":{"kind":"FIXED","limit_kmh":60,"source":"ANTT","active":true,"direction_deg":23}},{"type":"Feature","geometry":{"type":"Point","coordinates":[-40.189996,-19.585134]},"properties":{"kind":"FIXED","limit_kmh":60,"source":"OSM","active":true,"direction_deg":null}},{"type":"Feature","geometry":{"type":"Point","coordinates":[-40.1896,-19.584]},"properties":{"kind":"FIXED","limit_kmh":60,"source":"ANTT","active":true,"direction_deg":203}},{"type":"Feature","geometry":{"type":"Point","coordinates":[-40.507298,-19.574488]},"properties":{"kind":"FIXED","limit_kmh":null,"source":"DNIT","active":true,"direction_deg":7}},{"type":"Feature","geometry":{"type":"Point","coordinates":[-40.507126,-19.57373]},"properties":{"kind":"FIXED","limit_kmh":null,"source":"DNIT","active":true,"direction_deg":203}},{"type":"Feature","geometry":{"type":"Point","coordinates":[-40.496689,-19.55558]},"properties":{"kind":"FIXED","limit_kmh":null,"source":"DNIT","active":true,"direction_deg":null}},{"type":"Feature","geometry":{"type":"Point","coordinates":[-40.4981,-19.5531]},"properties":{"kind":"FIXED","limit_kmh":null,"source":"DNIT","active":true,"direction_deg":55}},{"type":"Feature","geometry":{"type":"Point","coordinates":[-40.570935,-19.534431]},"properties":{"kind":"FIXED","limit_kmh":null,"source":"DNIT","active":false,"direction_deg":346}},{"type":"Feature","geometry":{"type":"Point","coordinates":[-40.68803,-19.532471]},"properties":{"kind":"FIXED","limit_kmh":null,"source":"DNIT","active":true,"direction_deg":122}},{"type":"Feature","geometry":{"type":"Point","coordinates":[-40.57352,-19.532359]},"properties":{"kind":"FIXED","limit_kmh":null,"source":"DNIT","active":false,"direction_deg":92}},{"type":"Feature","geometry":{"type":"Point","coordinates":[-40.6824,-19.5312]},"properties":{"kind":"FIXED","limit_kmh":null,"source":"DNIT","active":true,"direction_deg":null}},{"type":"Feature","geometry":{"type":"Point","coordinates":[-40.691153,-19.530519]},"properties":{"kind":"FIXED","limit_kmh":null,"source":"DNIT","active":true,"direction_deg":302}},{"type":"Feature","geometry":{"type":"Point","coordinates":[-40.697199,-19.528013]},"properties":{"kind":"FIXED","limit_kmh":60,"source":"OSM","active":true,"direction_deg":null}},{"type":"Feature","geometry":{"type":"Point","coordinates":[-40.697573,-19.527909]},"properties":{"kind":"FIXED","limit_kmh":60,"source":"OSM","active":true,"direction_deg":null}},{"type":"Feature","geometry":{"type":"Point","coordinates":[-40.1503,-19.5254]},"properties":{"kind":"FIXED","limit_kmh":60,"source":"ANTT","active":true,"direction_deg":43}},{"type":"Feature","geometry":{"type":"Point","coordinates":[-40.673791,-19.524939]},"properties":{"kind":"FIXED","limit_kmh":60,"source":"OSM","active":true,"direction_deg":null}},{"type":"Feature","geometry":{"type":"Point","coordinates":[-40.672584,-19.524336]},"properties":{"kind":"FIXED","limit_kmh":60,"source":"DNIT+OSM","active":true,"direction_deg":null}},{"type":"Feature","geometry":{"type":"Point","coordinates":[-40.705667,-19.523305]},"properties":{"kind":"FIXED","limit_kmh":50,"source":"OSM","active":true,"direction_deg":null}},{"type":"Feature","geometry":{"type":"Point","coordinates":[-40.706534,-19.52299]},"properties":{"kind":"FIXED","limit_kmh":50,"source":"OSM","active":true,"direction_deg":null}},{"type":"Feature","geometry":{"type":"Point","coordinates":[-40.1475,-19.5224]},"properties":{"kind":"FIXED","limit_kmh":60,"source":"ANTT","active":true,"direction_deg":223}},{"type":"Feature","geometry":{"type":"Point","coordinates":[-40.665475,-19.52111]},"properties":{"kind":"FIXED","limit_kmh":40,"source":"OSM","active":true,"direction_deg":null}},{"type":"Feature","geometry":{"type":"Point","coordinates":[-40.665116,-19.520987]},"properties":{"kind":"FIXED","limit_kmh":null,"source":"DNIT","active":true,"direction_deg":64}},{"type":"Feature","geometry":{"type":"Point","coordinates":[-40.656,-19.5107]},"properties":{"kind":"FIXED","limit_kmh":null,"source":"DNIT","active":true,"direction_deg":195}},{"type":"Feature","geometry":{"type":"Point","coordinates":[-40.1367,-19.509]},"properties":{"kind":"FIXED","limit_kmh":60,"source":"ANTT","active":true,"direction_deg":34}},{"type":"Feature","geometry":{"type":"Point","coordinates":[-40.9228,-19.5084]},"properties":{"kind":"FIXED","limit_kmh":null,"source":"DNIT","active":false,"direction_deg":272}},{"type":"Feature","geometry":{"type":"Point","coordinates":[-40.9251,-19.5082]},"properties":{"kind":"FIXED","limit_kmh":null,"source":"DNIT","active":false,"direction_deg":100}},{"type":"Feature","geometry":{"type":"Point","coordinates":[-40.135174,-19.506561]},"properties":{"kind":"FIXED","limit_kmh":60,"source":"ANTT","active":true,"direction_deg":213}},{"type":"Feature","geometry":{"type":"Point","coordinates":[-40.618833,-19.501498]},"properties":{"kind":"FIXED","limit_kmh":null,"source":"DNIT","active":true,"direction_deg":70}},{"type":"Feature","geometry":{"type":"Point","coordinates":[-40.1284,-19.4933]},"properties":{"kind":"FIXED","limit_kmh":60,"source":"ANTT","active":true,"direction_deg":34}},{"type":"Feature","geometry":{"type":"Point","coordinates":[-40.1261,-19.4898]},"properties":{"kind":"FIXED","limit_kmh":60,"source":"ANTT","active":true,"direction_deg":214}},{"type":"Feature","geometry":{"type":"Point","coordinates":[-40.111208,-19.470015]},"properties":{"kind":"FIXED","limit_kmh":60,"source":"OSM","active":true,"direction_deg":null}},{"type":"Feature","geometry":{"type":"Point","coordinates":[-40.110608,-19.468745]},"properties":{"kind":"FIXED","limit_kmh":60,"source":"ANTT","active":true,"direction_deg":211}},{"type":"Feature","geometry":{"type":"Point","coordinates":[-40.685902,-19.424643]},"properties":{"kind":"FIXED","limit_kmh":40,"source":"OSM","active":true,"direction_deg":null}},{"type":"Feature","geometry":{"type":"Point","coordinates":[-40.686173,-19.424182]},"properties":{"kind":"FIXED","limit_kmh":40,"source":"OSM","active":true,"direction_deg":null}},{"type":"Feature","geometry":{"type":"Point","coordinates":[-40.0668,-19.41375]},"properties":{"kind":"FIXED","limit_kmh":60,"source":"ANTT","active":true,"direction_deg":22}},{"type":"Feature","geometry":{"type":"Point","coordinates":[-40.060801,-19.404521]},"properties":{"kind":"FIXED","limit_kmh":60,"source":"ANTT","active":true,"direction_deg":null}},{"type":"Feature","geometry":{"type":"Point","coordinates":[-40.0608,-19.4045]},"properties":{"kind":"FIXED","limit_kmh":60,"source":"ANTT","active":true,"direction_deg":null}},{"type":"Feature","geometry":{"type":"Point","coordinates":[-40.0668,-19.3811]},"properties":{"kind":"FIXED","limit_kmh":60,"source":"ANTT","active":true,"direction_deg":5}},{"type":"Feature","geometry":{"type":"Point","coordinates":[-40.0666,-19.3803]},"properties":{"kind":"FIXED","limit_kmh":60,"source":"ANTT","active":true,"direction_deg":6}},{"type":"Feature","geometry":{"type":"Point","coordinates":[-40.0668,-19.3795]},"properties":{"kind":"FIXED","limit_kmh":60,"source":"ANTT","active":true,"direction_deg":185}},{"type":"Feature","geometry":{"type":"Point","coordinates":[-40.0667,-19.3794]},"properties":{"kind":"FIXED","limit_kmh":60,"source":"ANTT","active":true,"direction_deg":186}},{"type":"Feature","geometry":{"type":"Point","coordinates":[-40.0656,-19.371]},"properties":{"kind":"FIXED","limit_kmh":60,"source":"ANTT","active":true,"direction_deg":6}},{"type":"Feature","geometry":{"type":"Point","coordinates":[-40.0656,-19.3705]},"properties":{"kind":"FIXED","limit_kmh":60,"source":"ANTT","active":true,"direction_deg":6}},{"type":"Feature","geometry":{"type":"Point","coordinates":[-40.0657,-19.3689]},"properties":{"kind":"FIXED","limit_kmh":60,"source":"ANTT","active":true,"direction_deg":186}},{"type":"Feature","geometry":{"type":"Point","coordinates":[-40.06562,-19.368887]},"properties":{"kind":"FIXED","limit_kmh":60,"source":"ANTT","active":true,"direction_deg":186}},{"type":"Feature","geometry":{"type":"Point","coordinates":[-40.0874,-19.2801]},"properties":{"kind":"FIXED","limit_kmh":80,"source":"ANTT","active":true,"direction_deg":354}},{"type":"Feature","geometry":{"type":"Point","coordinates":[-40.0875,-19.2793]},"properties":{"kind":"FIXED","limit_kmh":80,"source":"ANTT","active":true,"direction_deg":174}},{"type":"Feature","geometry":{"type":"Point","coordinates":[-40.0926,-19.2303]},"properties":{"kind":"FIXED","limit_kmh":60,"source":"ANTT","active":true,"direction_deg":355}},{"type":"Feature","geometry":{"type":"Point","coordinates":[-40.095091,-19.193531]},"properties":{"kind":"FIXED","limit_kmh":60,"source":"OSM","active":true,"direction_deg":null}},{"type":"Feature","geometry":{"type":"Point","coordinates":[-40.09508,-19.19313]},"properties":{"kind":"FIXED","limit_kmh":60,"source":"ANTT","active":true,"direction_deg":null}},{"type":"Feature","geometry":{"type":"Point","coordinates":[-40.09472,-19.189859]},"properties":{"kind":"FIXED","limit_kmh":60,"source":"ANTT+OSM","active":true,"direction_deg":185}},{"type":"Feature","geometry":{"type":"Point","coordinates":[-40.0694,-19.1321]},"properties":{"kind":"FIXED","limit_kmh":60,"source":"ANTT","active":true,"direction_deg":null}},{"type":"Feature","geometry":{"type":"Point","coordinates":[-40.0233,-19.0384]},"properties":{"kind":"FIXED","limit_kmh":60,"source":"ANTT+OSM","active":true,"direction_deg":205}},{"type":"Feature","geometry":{"type":"Point","coordinates":[-40.0061,-19.0026]},"properties":{"kind":"FIXED","limit_kmh":60,"source":"ANTT","active":true,"direction_deg":null}},{"type":"Feature","geometry":{"type":"Point","coordinates":[-39.9972,-18.9839]},"properties":{"kind":"FIXED","limit_kmh":60,"source":"ANTT","active":true,"direction_deg":24}},{"type":"Feature","geometry":{"type":"Point","coordinates":[-39.9957,-18.9805]},"properties":{"kind":"FIXED","limit_kmh":60,"source":"ANTT","active":true,"direction_deg":204}},{"type":"Feature","geometry":{"type":"Point","coordinates":[-39.9734,-18.9342]},"properties":{"kind":"FIXED","limit_kmh":60,"source":"ANTT+OSM","active":true,"direction_deg":25}},{"type":"Feature","geometry":{"type":"Point","coordinates":[-39.9724,-18.9318]},"properties":{"kind":"FIXED","limit_kmh":60,"source":"ANTT+OSM","active":true,"direction_deg":205}},{"type":"Feature","geometry":{"type":"Point","coordinates":[-39.9353,-18.8596]},"properties":{"kind":"FIXED","limit_kmh":60,"source":"ANTT","active":true,"direction_deg":37}},{"type":"Feature","geometry":{"type":"Point","coordinates":[-39.9342,-18.858]},"properties":{"kind":"FIXED","limit_kmh":60,"source":"ANTT","active":true,"direction_deg":216}},{"type":"Feature","geometry":{"type":"Point","coordinates":[-39.9017,-18.8147]},"properties":{"kind":"FIXED","limit_kmh":60,"source":"ANTT","active":true,"direction_deg":215}},{"type":"Feature","geometry":{"type":"Point","coordinates":[-39.861995,-18.747775]},"properties":{"kind":"FIXED","limit_kmh":60,"source":"OSM","active":true,"direction_deg":null}},{"type":"Feature","geometry":{"type":"Point","coordinates":[-39.861934,-18.747189]},"properties":{"kind":"FIXED","limit_kmh":60,"source":"OSM","active":true,"direction_deg":null}},{"type":"Feature","geometry":{"type":"Point","coordinates":[-39.85997,-18.72916]},"properties":{"kind":"FIXED","limit_kmh":60,"source":"ANTT","active":true,"direction_deg":null}},{"type":"Feature","geometry":{"type":"Point","coordinates":[-39.860939,-18.72353]},"properties":{"kind":"FIXED","limit_kmh":60,"source":"ANTT+OSM","active":true,"direction_deg":null}},{"type":"Feature","geometry":{"type":"Point","coordinates":[-39.8735,-18.717]},"properties":{"kind":"FIXED","limit_kmh":60,"source":"ANTT","active":true,"direction_deg":298}},{"type":"Feature","geometry":{"type":"Point","coordinates":[-39.8734,-18.7168]},"properties":{"kind":"FIXED","limit_kmh":60,"source":"ANTT","active":true,"direction_deg":298}},{"type":"Feature","geometry":{"type":"Point","coordinates":[-39.87601,-18.715966]},"properties":{"kind":"FIXED","limit_kmh":60,"source":"ANTT","active":true,"direction_deg":117}},{"type":"Feature","geometry":{"type":"Point","coordinates":[-39.876,-18.7158]},"properties":{"kind":"FIXED","limit_kmh":60,"source":"ANTT","active":true,"direction_deg":117}},{"type":"Feature","geometry":{"type":"Point","coordinates":[-39.862299,-18.686299]},"properties":{"kind":"FIXED","limit_kmh":60,"source":"ANTT+OSM","active":true,"direction_deg":null}},{"type":"Feature","geometry":{"type":"Point","coordinates":[-39.865079,-18.67697]},"properties":{"kind":"FIXED","limit_kmh":60,"source":"ANTT","active":true,"direction_deg":164}},{"type":"Feature","geometry":{"type":"Point","coordinates":[-40.417011,-18.672182]},"properties":{"kind":"FIXED","limit_kmh":null,"source":"DNIT","active":true,"direction_deg":259}},{"type":"Feature","geometry":{"type":"Point","coordinates":[-40.4198,-18.6709]},"properties":{"kind":"FIXED","limit_kmh":null,"source":"DNIT","active":true,"direction_deg":167}},{"type":"Feature","geometry":{"type":"Point","coordinates":[-40.529272,-18.611593]},"properties":{"kind":"FIXED","limit_kmh":null,"source":"DNIT","active":true,"direction_deg":274}},{"type":"Feature","geometry":{"type":"Point","coordinates":[-40.530133,-18.611586]},"properties":{"kind":"FIXED","limit_kmh":null,"source":"DNIT","active":true,"direction_deg":93}},{"type":"Feature","geometry":{"type":"Point","coordinates":[-39.89316,-18.582989]},"properties":{"kind":"FIXED","limit_kmh":60,"source":"ANTT+OSM","active":true,"direction_deg":null}},{"type":"Feature","geometry":{"type":"Point","coordinates":[-39.92486,-18.47894]},"properties":{"kind":"FIXED","limit_kmh":60,"source":"ANTT","active":true,"direction_deg":164}},{"type":"Feature","geometry":{"type":"Point","coordinates":[-39.9328,-18.4394]},"properties":{"kind":"FIXED","limit_kmh":60,"source":"ANTT","active":true,"direction_deg":null}},{"type":"Feature","geometry":{"type":"Point","coordinates":[-39.933685,-18.433719]},"properties":{"kind":"FIXED","limit_kmh":60,"source":"OSM","active":true,"direction_deg":null}},{"type":"Feature","geometry":{"type":"Point","coordinates":[-39.933905,-18.432097]},"properties":{"kind":"FIXED","limit_kmh":60,"source":"OSM","active":true,"direction_deg":null}},{"type":"Feature","geometry":{"type":"Point","coordinates":[-39.9356,-18.4209]},"properties":{"kind":"FIXED","limit_kmh":60,"source":"ANTT","active":true,"direction_deg":null}},{"type":"Feature","geometry":{"type":"Point","coordinates":[-39.93561,-18.42086]},"properties":{"kind":"FIXED","limit_kmh":60,"source":"ANTT+OSM","active":true,"direction_deg":173}},{"type":"Feature","geometry":{"type":"Point","coordinates":[-40.684432,-18.407558]},"properties":{"kind":"FIXED","limit_kmh":null,"source":"DNIT","active":true,"direction_deg":null}},{"type":"Feature","geometry":{"type":"Point","coordinates":[-39.95461,-18.31302]},"properties":{"kind":"FIXED","limit_kmh":60,"source":"ANTT+OSM","active":true,"direction_deg":292}},{"type":"Feature","geometry":{"type":"Point","coordinates":[-39.95647,-18.294219]},"properties":{"kind":"FIXED","limit_kmh":60,"source":"ANTT+OSM","active":true,"direction_deg":null}},{"type":"Feature","geometry":{"type":"Point","coordinates":[-39.956879,-18.28236]},"properties":{"kind":"FIXED","limit_kmh":60,"source":"ANTT","active":true,"direction_deg":152}},{"type":"Feature","geometry":{"type":"Point","coordinates":[-40.09472,-18.189859]},"properties":{"kind":"FIXED","limit_kmh":60,"source":"ANTT","active":true,"direction_deg":null}}]}