<?xml version="1.0" encoding="UTF-8"?>
<gpx version="1.1" creator="Pardal" xmlns="http://www.topografix.com/GPX/1/1">
<metadata><name>Pardal — radares — RR</name><desc>Pardal — © colaboradores do OpenStreetMap (ODbL 1.0) e fontes abertas listadas no README</desc></metadata>
<wpt lat="-0.856194" lon="-60.522472"><name>Radar 50 km/h</name><desc>Fonte: DNIT</desc><type>FIXED</type></wpt>
<wpt lat="-0.854279" lon="-60.523513"><name>Radar 50 km/h</name><desc>Fonte: OSM</desc><type>FIXED</type></wpt>
<wpt lat="-0.551639" lon="-60.630056"><name>Radar 50 km/h</name><desc>Fonte: DNIT+OSM</desc><type>FIXED</type></wpt>
<wpt lat="1.827728" lon="-61.131375"><name>Radar 80 km/h</name><desc>Fonte: OSM</desc><type>FIXED</type></wpt>
<wpt lat="2.433387" lon="-60.919415"><name>Radar 80 km/h</name><desc>Fonte: DNIT</desc><type>FIXED</type></wpt>
<wpt lat="2.433713" lon="-60.919376"><name>Radar 80 km/h</name><desc>Fonte: OSM</desc><type>FIXED</type></wpt>
<wpt lat="2.454658" lon="-60.918433"><name>Radar 40 km/h</name><desc>Fonte: DNIT</desc><type>FIXED</type></wpt>
<wpt lat="2.599113" lon="-60.876988"><name>Radar 80 km/h</name><desc>Fonte: OSM</desc><type>FIXED</type></wpt>
<wpt lat="2.616255" lon="-60.595558"><name>Radar 40 km/h</name><desc>Fonte: DNIT+OSM</desc><type>FIXED</type></wpt>
<wpt lat="2.745597" lon="-60.747960"><name>Radar 80 km/h</name><desc>Fonte: OSM</desc><type>FIXED</type></wpt>
<wpt lat="2.766885" lon="-60.734388"><name>Radar 50 km/h</name><desc>Fonte: INMETRO</desc><type>FIXED</type></wpt>
<wpt lat="2.774919" lon="-60.710770"><name>Radar 40 km/h</name><desc>Fonte: OSM</desc><type>FIXED</type></wpt>
<wpt lat="2.796713" lon="-60.636457"><name>Radar 80 km/h</name><desc>Fonte: OSM</desc><type>FIXED</type></wpt>
<wpt lat="2.797421" lon="-60.733100"><name>Radar 50 km/h</name><desc>Fonte: INMETRO</desc><type>FIXED</type></wpt>
<wpt lat="2.801608" lon="-60.715177"><name>Radar 50 km/h</name><desc>Fonte: INMETRO+OSM</desc><type>FIXED</type></wpt>
<wpt lat="2.808542" lon="-60.683713"><name>Radar 50 km/h</name><desc>Fonte: INMETRO+OSM</desc><type>FIXED</type></wpt>
<wpt lat="2.816239" lon="-60.751191"><name>Radar 50 km/h</name><desc>Fonte: OSM</desc><type>FIXED</type></wpt>
<wpt lat="2.816256" lon="-60.750875"><name>Radar 50 km/h</name><desc>Fonte: INMETRO+OSM</desc><type>FIXED</type></wpt>
<wpt lat="2.817007" lon="-60.682673"><name>Radar 50 km/h</name><desc>Fonte: INMETRO</desc><type>FIXED</type></wpt>
<wpt lat="2.820256" lon="-60.687928"><name>Radar 60 km/h</name><desc>Fonte: INMETRO+OSM</desc><type>FIXED</type></wpt>
<wpt lat="2.821828" lon="-60.685803"><name>Radar 60 km/h</name><desc>Fonte: INMETRO+OSM</desc><type>FIXED</type></wpt>
<wpt lat="2.827880" lon="-60.703567"><name>Radar 40 km/h</name><desc>Fonte: INMETRO+OSM</desc><type>FIXED</type></wpt>
<wpt lat="2.830297" lon="-60.698585"><name>Radar 40 km/h</name><desc>Fonte: OSM</desc><type>FIXED</type></wpt>
<wpt lat="2.832313" lon="-60.658077"><name>Radar 60 km/h</name><desc>Fonte: INMETRO</desc><type>FIXED</type></wpt>
<wpt lat="2.834823" lon="-60.660536"><name>Radar 60 km/h</name><desc>Fonte: INMETRO+OSM</desc><type>FIXED</type></wpt>
<wpt lat="2.835043" lon="-60.703235"><name>Radar 40 km/h</name><desc>Fonte: INMETRO</desc><type>FIXED</type></wpt>
<wpt lat="2.838192" lon="-60.736207"><name>Radar 40 km/h</name><desc>Fonte: INMETRO</desc><type>FIXED</type></wpt>
<wpt lat="2.840994" lon="-60.655431"><name>Radar 60 km/h</name><desc>Fonte: INMETRO+OSM</desc><type>FIXED</type></wpt>
<wpt lat="2.851051" lon="-60.727504"><name>Radar 50 km/h</name><desc>Fonte: INMETRO</desc><type>FIXED</type></wpt>
<wpt lat="2.877590" lon="-60.698188"><name>Radar 40 km/h</name><desc>Fonte: DNIT+OSM</desc><type>FIXED</type></wpt>
<wpt lat="3.644383" lon="-60.973085"><name>Radar 80 km/h</name><desc>Fonte: OSM</desc><type>FIXED</type></wpt>
</gpx>