<?xml version="1.0" encoding="UTF-8"?>
<kml xmlns="http://www.opengis.net/kml/2.2"><Document>
<name>Pardal — radares — RN</name>
<description>Pardal — © colaboradores do OpenStreetMap (ODbL 1.0) e fontes abertas listadas no README</description>
<Folder><name>Radares de velocidade</name>
<Placemark><name>Radar 60 km/h</name><description>Fonte: OSM</description><Point><coordinates>-36.765909,-6.587138,0</coordinates></Point></Placemark>
<Placemark><name>Radar</name><description>Fonte: DNIT</description><Point><coordinates>-37.059245,-6.482036,0</coordinates></Point></Placemark>
<Placemark><name>Radar</name><description>Fonte: DNIT</description><Point><coordinates>-37.054444,-6.454444,0</coordinates></Point></Placemark>
<Placemark><name>Radar</name><description>Fonte: OSM</description><Point><coordinates>-37.140738,-6.448187,0</coordinates></Point></Placemark>
<Placemark><name>Radar</name><description>Fonte: DNIT</description><Point><coordinates>-37.082595,-6.430748,0</coordinates></Point></Placemark>
<Placemark><name>Radar</name><description>Fonte: DNIT · sentido 330° (noroeste)</description><Point><coordinates>-35.138706,-6.395568,0</coordinates></Point></Placemark>
<Placemark><name>Radar</name><description>Fonte: DNIT · sentido 150° (sudeste)</description><Point><coordinates>-35.141340,-6.391329,0</coordinates></Point></Placemark>
<Placemark><name>Radar 60 km/h</name><description>Fonte: DNIT+OSM · sentido 330° (noroeste)</description><Point><coordinates>-35.160781,-6.356648,0</coordinates></Point></Placemark>
<Placemark><name>Radar 60 km/h</name><description>Fonte: DNIT+OSM · sentido 150° (sudeste)</description><Point><coordinates>-35.161596,-6.356144,0</coordinates></Point></Placemark>
<Placemark><name>Radar</name><description>Fonte: DNIT</description><Point><coordinates>-36.523329,-6.270313,0</coordinates></Point></Placemark>
<Placemark><name>Radar 30 km/h</name><description>Fonte: DNIT+OSM</description><Point><coordinates>-35.211183,-6.262755,0</coordinates></Point></Placemark>
<Placemark><name>Radar</name><description>Fonte: DNIT · sentido 45° (nordeste)</description><Point><coordinates>-36.513235,-6.258379,0</coordinates></Point></Placemark>
<Placemark><name>Radar</name><description>Fonte: DNIT</description><Point><coordinates>-36.502606,-6.258192,0</coordinates></Point></Placemark>
<Placemark><name>Radar</name><description>Fonte: DNIT</description><Point><coordinates>-35.803702,-6.201743,0</coordinates></Point></Placemark>
<Placemark><name>Radar</name><description>Fonte: DNIT</description><Point><coordinates>-38.206700,-6.132702,0</coordinates></Point></Placemark>
<Placemark><name>Radar</name><description>Fonte: DNIT</description><Point><coordinates>-38.207171,-6.129480,0</coordinates></Point></Placemark>
<Placemark><name>Radar 60 km/h</name><description>Fonte: OSM</description><Point><coordinates>-35.246326,-6.042632,0</coordinates></Point></Placemark>
<Placemark><name>Radar</name><description>Fonte: DNIT · sentido 158° (sul)</description><Point><coordinates>-35.260939,-5.997927,0</coordinates></Point></Placemark>
<Placemark><name>Radar</name><description>Fonte: DNIT</description><Point><coordinates>-35.264573,-5.940046,0</coordinates></Point></Placemark>
<Placemark><name>Radar</name><description>Fonte: DNIT</description><Point><coordinates>-35.264990,-5.937719,0</coordinates></Point></Placemark>
<Placemark><name>Radar</name><description>Fonte: DNIT · sentido 25° (nordeste)</description><Point><coordinates>-35.263702,-5.918083,0</coordinates></Point></Placemark>
<Placemark><name>Radar</name><description>Fonte: DNIT · sentido 204° (sudoeste)</description><Point><coordinates>-35.263508,-5.917698,0</coordinates></Point></Placemark>
<Placemark><name>Radar</name><description>Fonte: DNIT · sentido 20° (norte)</description><Point><coordinates>-35.262563,-5.915503,0</coordinates></Point></Placemark>
<Placemark><name>Radar</name><description>Fonte: DNIT · sentido 195° (sul)</description><Point><coordinates>-35.262444,-5.915069,0</coordinates></Point></Placemark>
<Placemark><name>Radar</name><description>Fonte: DNIT · sentido 227° (sudoeste)</description><Point><coordinates>-35.257902,-5.891189,0</coordinates></Point></Placemark>
<Placemark><name>Radar</name><description>Fonte: DNIT · sentido 78° (leste)</description><Point><coordinates>-35.249525,-5.890462,0</coordinates></Point></Placemark>
<Placemark><name>Radar</name><description>Fonte: DNIT · sentido 259° (oeste)</description><Point><coordinates>-35.247925,-5.889854,0</coordinates></Point></Placemark>
<Placemark><name>Radar</name><description>Fonte: DNIT</description><Point><coordinates>-35.265763,-5.889483,0</coordinates></Point></Placemark>
<Placemark><name>Radar</name><description>Fonte: DNIT · sentido 17° (norte)</description><Point><coordinates>-35.225583,-5.881733,0</coordinates></Point></Placemark>
<Placemark><name>Radar</name><description>Fonte: DNIT · sentido 215° (sudoeste)</description><Point><coordinates>-35.224401,-5.878233,0</coordinates></Point></Placemark>
<Placemark><name>Radar</name><description>Fonte: DNIT · sentido 85° (leste)</description><Point><coordinates>-35.402525,-5.866615,0</coordinates></Point></Placemark>
<Placemark><name>Radar</name><description>Fonte: DNIT · sentido 286° (oeste)</description><Point><coordinates>-35.342811,-5.864739,0</coordinates></Point></Placemark>
<Placemark><name>Radar</name><description>Fonte: DNIT · sentido 25° (nordeste)</description><Point><coordinates>-35.214212,-5.860889,0</coordinates></Point></Placemark>
<Placemark><name>Radar 50 km/h</name><description>Fonte: OSM</description><Point><coordinates>-35.205754,-5.856807,0</coordinates></Point></Placemark>
<Placemark><name>Radar</name><description>Fonte: DNIT · sentido 205° (sudoeste)</description><Point><coordinates>-35.211666,-5.854806,0</coordinates></Point></Placemark>
<Placemark><name>Radar</name><description>Fonte: DNIT · sentido 1° (norte)</description><Point><coordinates>-35.208253,-5.846919,0</coordinates></Point></Placemark>
<Placemark><name>Radar</name><description>Fonte: DNIT · sentido 155° (sudeste)</description><Point><coordinates>-35.209642,-5.843211,0</coordinates></Point></Placemark>
<Placemark><name>Radar</name><description>Fonte: DNIT · sentido 194° (sul)</description><Point><coordinates>-35.212213,-5.831854,0</coordinates></Point></Placemark>
<Placemark><name>Radar</name><description>Fonte: DNIT</description><Point><coordinates>-35.251922,-5.821135,0</coordinates></Point></Placemark>
<Placemark><name>Radar</name><description>Fonte: DNIT</description><Point><coordinates>-35.255526,-5.820971,0</coordinates></Point></Placemark>
<Placemark><name>Radar 40 km/h</name><description>Fonte: OSM</description><Point><coordinates>-35.255788,-5.820702,0</coordinates></Point></Placemark>
<Placemark><name>Radar 60 km/h</name><description>Fonte: OSM</description><Point><coordinates>-35.205114,-5.812661,0</coordinates></Point></Placemark>
<Placemark><name>Radar 60 km/h</name><description>Fonte: OSM</description><Point><coordinates>-35.209787,-5.811008,0</coordinates></Point></Placemark>
<Placemark><name>Radar 50 km/h</name><description>Fonte: OSM</description><Point><coordinates>-35.217650,-5.808168,0</coordinates></Point></Placemark>
<Placemark><name>Radar 50 km/h</name><description>Fonte: OSM</description><Point><coordinates>-35.218672,-5.807923,0</coordinates></Point></Placemark>
<Placemark><name>Radar 60 km/h</name><description>Fonte: OSM</description><Point><coordinates>-35.232215,-5.802798,0</coordinates></Point></Placemark>
<Placemark><name>Radar 50 km/h</name><description>Fonte: OSM</description><Point><coordinates>-35.223231,-5.795945,0</coordinates></Point></Placemark>
<Placemark><name>Radar</name><description>Fonte: DNIT</description><Point><coordinates>-35.250650,-5.777027,0</coordinates></Point></Placemark>
<Placemark><name>Radar</name><description>Fonte: DNIT · sentido 110° (leste)</description><Point><coordinates>-35.256962,-5.774673,0</coordinates></Point></Placemark>
<Placemark><name>Radar</name><description>Fonte: DNIT · sentido 290° (oeste)</description><Point><coordinates>-35.260191,-5.773312,0</coordinates></Point></Placemark>
<Placemark><name>Radar</name><description>Fonte: OSM</description><Point><coordinates>-35.265280,-5.771401,0</coordinates></Point></Placemark>
<Placemark><name>Radar</name><description>Fonte: DNIT · sentido 291° (oeste)</description><Point><coordinates>-35.274841,-5.767877,0</coordinates></Point></Placemark>
<Placemark><name>Radar 50 km/h</name><description>Fonte: OSM</description><Point><coordinates>-35.275177,-5.767796,0</coordinates></Point></Placemark>
<Placemark><name>Radar 50 km/h</name><description>Fonte: OSM</description><Point><coordinates>-35.275129,-5.767711,0</coordinates></Point></Placemark>
<Placemark><name>Radar</name><description>Fonte: DNIT · sentido 111° (leste)</description><Point><coordinates>-35.275423,-5.767623,0</coordinates></Point></Placemark>
<Placemark><name>Radar</name><description>Fonte: DNIT · sentido 291° (oeste)</description><Point><coordinates>-35.280553,-5.765566,0</coordinates></Point></Placemark>
<Placemark><name>Radar 50 km/h</name><description>Fonte: DNIT+OSM · sentido 111° (leste)</description><Point><coordinates>-35.281202,-5.765528,0</coordinates></Point></Placemark>
<Placemark><name>Radar</name><description>Fonte: OSM</description><Point><coordinates>-35.253541,-5.763364,0</coordinates></Point></Placemark>
<Placemark><name>Radar</name><description>Fonte: OSM</description><Point><coordinates>-35.253526,-5.763254,0</coordinates></Point></Placemark>
<Placemark><name>Radar</name><description>Fonte: DNIT</description><Point><coordinates>-35.292238,-5.761384,0</coordinates></Point></Placemark>
<Placemark><name>Radar</name><description>Fonte: DNIT</description><Point><coordinates>-35.292080,-5.761337,0</coordinates></Point></Placemark>
<Placemark><name>Radar</name><description>Fonte: DNIT · sentido 346° (norte)</description><Point><coordinates>-35.287556,-5.760346,0</coordinates></Point></Placemark>
<Placemark><name>Radar</name><description>Fonte: DNIT · sentido 166° (sul)</description><Point><coordinates>-35.287796,-5.760148,0</coordinates></Point></Placemark>
<Placemark><name>Radar</name><description>Fonte: DNIT · sentido 111° (leste)</description><Point><coordinates>-35.302420,-5.757467,0</coordinates></Point></Placemark>
<Placemark><name>Radar</name><description>Fonte: OSM</description><Point><coordinates>-35.243425,-5.757243,0</coordinates></Point></Placemark>
<Placemark><name>Radar 60 km/h</name><description>Fonte: OSM</description><Point><coordinates>-36.002270,-5.757192,0</coordinates></Point></Placemark>
<Placemark><name>Radar</name><description>Fonte: OSM</description><Point><coordinates>-35.243381,-5.757120,0</coordinates></Point></Placemark>
<Placemark><name>Radar 50 km/h</name><description>Fonte: OSM</description><Point><coordinates>-35.240638,-5.755639,0</coordinates></Point></Placemark>
<Placemark><name>Radar 50 km/h</name><description>Fonte: OSM</description><Point><coordinates>-35.240722,-5.755560,0</coordinates></Point></Placemark>
<Placemark><name>Radar</name><description>Fonte: DNIT · sentido 290° (oeste)</description><Point><coordinates>-35.313193,-5.753466,0</coordinates></Point></Placemark>
<Placemark><name>Radar</name><description>Fonte: DNIT · sentido 110° (leste)</description><Point><coordinates>-35.313272,-5.753427,0</coordinates></Point></Placemark>
<Placemark><name>Radar</name><description>Fonte: OSM</description><Point><coordinates>-35.225786,-5.746643,0</coordinates></Point></Placemark>
<Placemark><name>Radar</name><description>Fonte: OSM</description><Point><coordinates>-35.225741,-5.746510,0</coordinates></Point></Placemark>
<Placemark><name>Radar 50 km/h</name><description>Fonte: OSM</description><Point><coordinates>-35.246919,-5.745820,0</coordinates></Point></Placemark>
<Placemark><name>Radar</name><description>Fonte: DNIT · sentido 353° (norte)</description><Point><coordinates>-35.291014,-5.734276,0</coordinates></Point></Placemark>
<Placemark><name>Radar</name><description>Fonte: DNIT · sentido 173° (sul)</description><Point><coordinates>-35.291155,-5.733400,0</coordinates></Point></Placemark>
<Placemark><name>Radar 60 km/h</name><description>Fonte: DNIT+OSM</description><Point><coordinates>-35.365417,-5.722364,0</coordinates></Point></Placemark>
<Placemark><name>Radar 60 km/h</name><description>Fonte: OSM</description><Point><coordinates>-36.252599,-5.703588,0</coordinates></Point></Placemark>
<Placemark><name>Radar 80 km/h</name><description>Fonte: OSM</description><Point><coordinates>-36.606645,-5.679882,0</coordinates></Point></Placemark>
<Placemark><name>Radar</name><description>Fonte: DNIT</description><Point><coordinates>-35.259088,-5.671754,0</coordinates></Point></Placemark>
<Placemark><name>Radar</name><description>Fonte: DNIT</description><Point><coordinates>-37.799422,-5.653121,0</coordinates></Point></Placemark>
<Placemark><name>Radar</name><description>Fonte: DNIT+OSM</description><Point><coordinates>-35.420306,-5.652208,0</coordinates></Point></Placemark>
<Placemark><name>Radar 50 km/h</name><description>Fonte: DNIT+OSM</description><Point><coordinates>-35.249664,-5.652032,0</coordinates></Point></Placemark>
<Placemark><name>Radar</name><description>Fonte: DNIT+OSM</description><Point><coordinates>-35.427456,-5.650486,0</coordinates></Point></Placemark>
<Placemark><name>Radar</name><description>Fonte: DNIT</description><Point><coordinates>-35.444556,-5.648215,0</coordinates></Point></Placemark>
<Placemark><name>Radar 80 km/h</name><description>Fonte: OSM</description><Point><coordinates>-36.861350,-5.631412,0</coordinates></Point></Placemark>
<Placemark><name>Radar</name><description>Fonte: DNIT</description><Point><coordinates>-36.862372,-5.630906,0</coordinates></Point></Placemark>
<Placemark><name>Radar 60 km/h</name><description>Fonte: DNIT+OSM</description><Point><coordinates>-35.275590,-5.588929,0</coordinates></Point></Placemark>
<Placemark><name>Radar 60 km/h</name><description>Fonte: DNIT+OSM</description><Point><coordinates>-35.812769,-5.538188,0</coordinates></Point></Placemark>
<Placemark><name>Radar 60 km/h</name><description>Fonte: OSM</description><Point><coordinates>-35.815892,-5.532683,0</coordinates></Point></Placemark>
<Placemark><name>Radar</name><description>Fonte: DNIT</description><Point><coordinates>-35.819333,-5.525708,0</coordinates></Point></Placemark>
<Placemark><name>Radar 80 km/h</name><description>Fonte: OSM</description><Point><coordinates>-37.303189,-5.262395,0</coordinates></Point></Placemark>
<Placemark><name>Radar</name><description>Fonte: DNIT · sentido 333° (noroeste)</description><Point><coordinates>-37.317487,-5.236407,0</coordinates></Point></Placemark>
<Placemark><name>Radar</name><description>Fonte: DNIT · sentido 149° (sudeste)</description><Point><coordinates>-37.318516,-5.234704,0</coordinates></Point></Placemark>
<Placemark><name>Radar 50 km/h</name><description>Fonte: OSM</description><Point><coordinates>-37.331938,-5.231304,0</coordinates></Point></Placemark>
<Placemark><name>Radar</name><description>Fonte: DNIT</description><Point><coordinates>-37.324050,-5.227033,0</coordinates></Point></Placemark>
<Placemark><name>Radar 60 km/h</name><description>Fonte: OSM</description><Point><coordinates>-37.324328,-5.227015,0</coordinates></Point></Placemark>
<Placemark><name>Radar 50 km/h</name><description>Fonte: OSM</description><Point><coordinates>-37.324111,-5.226720,0</coordinates></Point></Placemark>
<Placemark><name>Radar 80 km/h</name><description>Fonte: OSM</description><Point><coordinates>-37.336874,-5.225890,0</coordinates></Point></Placemark>
<Placemark><name>Radar</name><description>Fonte: DNIT · sentido 91° (leste)</description><Point><coordinates>-37.335403,-5.225862,0</coordinates></Point></Placemark>
<Placemark><name>Radar 80 km/h</name><description>Fonte: DNIT+OSM · sentido 277° (oeste)</description><Point><coordinates>-37.347278,-5.225024,0</coordinates></Point></Placemark>
<Placemark><name>Radar 80 km/h</name><description>Fonte: DNIT+OSM · sentido 97° (leste)</description><Point><coordinates>-37.351986,-5.224823,0</coordinates></Point></Placemark>
<Placemark><name>Radar 50 km/h</name><description>Fonte: OSM</description><Point><coordinates>-37.326949,-5.220518,0</coordinates></Point></Placemark>
<Placemark><name>Radar 80 km/h</name><description>Fonte: DNIT+OSM · sentido 126° (sudeste)</description><Point><coordinates>-37.364844,-5.218457,0</coordinates></Point></Placemark>
<Placemark><name>Radar 50 km/h</name><description>Fonte: DNIT+OSM</description><Point><coordinates>-37.328320,-5.218344,0</coordinates></Point></Placemark>
<Placemark><name>Radar</name><description>Fonte: DNIT · sentido 144° (sudeste)</description><Point><coordinates>-37.332391,-5.211508,0</coordinates></Point></Placemark>
<Placemark><name>Radar</name><description>Fonte: DNIT · sentido 0° (norte)</description><Point><coordinates>-37.333595,-5.209495,0</coordinates></Point></Placemark>
<Placemark><name>Radar</name><description>Fonte: DNIT · sentido 205° (sudoeste)</description><Point><coordinates>-37.333530,-5.209188,0</coordinates></Point></Placemark>
<Placemark><name>Radar</name><description>Fonte: DNIT</description><Point><coordinates>-37.328204,-5.205278,0</coordinates></Point></Placemark>
<Placemark><name>Radar 50 km/h</name><description>Fonte: OSM</description><Point><coordinates>-37.325981,-5.203614,0</coordinates></Point></Placemark>
<Placemark><name>Radar 50 km/h</name><description>Fonte: DNIT+OSM</description><Point><coordinates>-37.325766,-5.203412,0</coordinates></Point></Placemark>
<Placemark><name>Radar 40 km/h</name><description>Fonte: DNIT+OSM</description><Point><coordinates>-37.320181,-5.199350,0</coordinates></Point></Placemark>
<Placemark><name>Radar 80 km/h</name><description>Fonte: OSM</description><Point><coordinates>-37.378361,-5.197780,0</coordinates></Point></Placemark>
<Placemark><name>Radar</name><description>Fonte: DNIT</description><Point><coordinates>-37.382130,-5.194080,0</coordinates></Point></Placemark>
<Placemark><name>Radar</name><description>Fonte: DNIT</description><Point><coordinates>-37.312555,-5.193591,0</coordinates></Point></Placemark>
<Placemark><name>Radar</name><description>Fonte: DNIT+OSM · sentido 82° (leste)</description><Point><coordinates>-37.369627,-5.192563,0</coordinates></Point></Placemark>
<Placemark><name>Radar</name><description>Fonte: DNIT+OSM · sentido 262° (oeste)</description><Point><coordinates>-37.369207,-5.192515,0</coordinates></Point></Placemark>
<Placemark><name>Radar</name><description>Fonte: DNIT · sentido 83° (leste)</description><Point><coordinates>-37.356312,-5.191035,0</coordinates></Point></Placemark>
<Placemark><name>Radar</name><description>Fonte: DNIT · sentido 262° (oeste)</description><Point><coordinates>-37.355898,-5.190915,0</coordinates></Point></Placemark>
<Placemark><name>Radar 80 km/h</name><description>Fonte: DNIT+OSM · sentido 39° (nordeste)</description><Point><coordinates>-37.372383,-5.186587,0</coordinates></Point></Placemark>
<Placemark><name>Radar 80 km/h</name><description>Fonte: OSM</description><Point><coordinates>-37.371410,-5.185074,0</coordinates></Point></Placemark>
<Placemark><name>Radar 60 km/h</name><description>Fonte: OSM</description><Point><coordinates>-37.297796,-5.182732,0</coordinates></Point></Placemark>
<Placemark><name>Radar 60 km/h</name><description>Fonte: OSM</description><Point><coordinates>-37.363127,-5.175388,0</coordinates></Point></Placemark>
<Placemark><name>Radar</name><description>Fonte: DNIT · sentido 48° (nordeste)</description><Point><coordinates>-37.362592,-5.174860,0</coordinates></Point></Placemark>
<Placemark><name>Radar 60 km/h</name><description>Fonte: DNIT+OSM · sentido 228° (sudoeste)</description><Point><coordinates>-37.362412,-5.174363,0</coordinates></Point></Placemark>
<Placemark><name>Radar 60 km/h</name><description>Fonte: OSM</description><Point><coordinates>-37.353305,-5.166758,0</coordinates></Point></Placemark>
<Placemark><name>Radar 80 km/h</name><description>Fonte: OSM</description><Point><coordinates>-37.346168,-5.140565,0</coordinates></Point></Placemark>
<Placemark><name>Radar</name><description>Fonte: DNIT · sentido 193° (sul)</description><Point><coordinates>-37.345876,-5.138948,0</coordinates></Point></Placemark>
<Placemark><name>Radar</name><description>Fonte: DNIT</description><Point><coordinates>-37.340562,-5.114615,0</coordinates></Point></Placemark>
<Placemark><name>Radar</name><description>Fonte: DNIT · sentido 11° (norte)</description><Point><coordinates>-37.330911,-5.067799,0</coordinates></Point></Placemark>
</Folder>
</Document></kml>