{"type":"FeatureCollection","attribution":"Pardal — © colaboradores do OpenStreetMap (ODbL 1.0) e fontes abertas listadas no README","features":[{"type":"Feature","geometry":{"type":"Point","coordinates":[-36.780666,-6.593487]},"properties":{"kind":"FIXED","limit_kmh":60,"source":"OSM","active":true,"direction_deg":null}},{"type":"Feature","geometry":{"type":"Point","coordinates":[-36.765909,-6.587138]},"properties":{"kind":"FIXED","limit_kmh":60,"source":"OSM","active":true,"direction_deg":null}},{"type":"Feature","geometry":{"type":"Point","coordinates":[-37.059245,-6.482036]},"properties":{"kind":"FIXED","limit_kmh":null,"source":"DNIT","active":true,"direction_deg":null}},{"type":"Feature","geometry":{"type":"Point","coordinates":[-37.078299,-6.47146]},"properties":{"kind":"FIXED","limit_kmh":50,"source":"INMETRO","active":true,"direction_deg":null}},{"type":"Feature","geometry":{"type":"Point","coordinates":[-37.095253,-6.457331]},"properties":{"kind":"FIXED","limit_kmh":50,"source":"INMETRO","active":true,"direction_deg":null}},{"type":"Feature","geometry":{"type":"Point","coordinates":[-37.054444,-6.454444]},"properties":{"kind":"FIXED","limit_kmh":null,"source":"DNIT","active":true,"direction_deg":null}},{"type":"Feature","geometry":{"type":"Point","coordinates":[-37.140738,-6.448187]},"properties":{"kind":"FIXED","limit_kmh":null,"source":"OSM","active":true,"direction_deg":null}},{"type":"Feature","geometry":{"type":"Point","coordinates":[-37.082595,-6.430748]},"properties":{"kind":"FIXED","limit_kmh":null,"source":"DNIT","active":true,"direction_deg":null}},{"type":"Feature","geometry":{"type":"Point","coordinates":[-35.138706,-6.395568]},"properties":{"kind":"FIXED","limit_kmh":null,"source":"DNIT","active":true,"direction_deg":330}},{"type":"Feature","geometry":{"type":"Point","coordinates":[-35.14134,-6.391329]},"properties":{"kind":"FIXED","limit_kmh":null,"source":"DNIT","active":true,"direction_deg":150}},{"type":"Feature","geometry":{"type":"Point","coordinates":[-35.160781,-6.356648]},"properties":{"kind":"FIXED","limit_kmh":60,"source":"DNIT+OSM","active":true,"direction_deg":330}},{"type":"Feature","geometry":{"type":"Point","coordinates":[-35.161596,-6.356144]},"properties":{"kind":"FIXED","limit_kmh":60,"source":"DNIT+OSM","active":true,"direction_deg":150}},{"type":"Feature","geometry":{"type":"Point","coordinates":[-36.523329,-6.270313]},"properties":{"kind":"FIXED","limit_kmh":null,"source":"DNIT","active":true,"direction_deg":null}},{"type":"Feature","geometry":{"type":"Point","coordinates":[-35.211183,-6.262755]},"properties":{"kind":"FIXED","limit_kmh":30,"source":"DNIT+OSM","active":true,"direction_deg":null}},{"type":"Feature","geometry":{"type":"Point","coordinates":[-36.513235,-6.258379]},"properties":{"kind":"FIXED","limit_kmh":null,"source":"DNIT","active":true,"direction_deg":45}},{"type":"Feature","geometry":{"type":"Point","coordinates":[-36.502606,-6.258192]},"properties":{"kind":"FIXED","limit_kmh":null,"source":"DNIT","active":true,"direction_deg":null}},{"type":"Feature","geometry":{"type":"Point","coordinates":[-36.012813,-6.234839]},"properties":{"kind":"FIXED","limit_kmh":50,"source":"OSM","active":false,"direction_deg":null}},{"type":"Feature","geometry":{"type":"Point","coordinates":[-36.020159,-6.220148]},"properties":{"kind":"FIXED","limit_kmh":50,"source":"OSM","active":false,"direction_deg":null}},{"type":"Feature","geometry":{"type":"Point","coordinates":[-35.803702,-6.201743]},"properties":{"kind":"FIXED","limit_kmh":null,"source":"DNIT","active":true,"direction_deg":null}},{"type":"Feature","geometry":{"type":"Point","coordinates":[-38.2067,-6.132702]},"properties":{"kind":"FIXED","limit_kmh":null,"source":"DNIT","active":true,"direction_deg":null}},{"type":"Feature","geometry":{"type":"Point","coordinates":[-38.207171,-6.12948]},"properties":{"kind":"FIXED","limit_kmh":null,"source":"DNIT","active":true,"direction_deg":null}},{"type":"Feature","geometry":{"type":"Point","coordinates":[-35.228935,-6.120485]},"properties":{"kind":"FIXED","limit_kmh":null,"source":"DNIT","active":false,"direction_deg":353}},{"type":"Feature","geometry":{"type":"Point","coordinates":[-35.23406,-6.08083]},"properties":{"kind":"FIXED","limit_kmh":60,"source":"DNIT+OSM","active":true,"direction_deg":1}},{"type":"Feature","geometry":{"type":"Point","coordinates":[-35.234181,-6.077579]},"properties":{"kind":"FIXED","limit_kmh":60,"source":"DNIT+OSM","active":true,"direction_deg":186}},{"type":"Feature","geometry":{"type":"Point","coordinates":[-35.238111,-6.070368]},"properties":{"kind":"FIXED","limit_kmh":60,"source":"OSM","active":true,"direction_deg":null}},{"type":"Feature","geometry":{"type":"Point","coordinates":[-35.238152,-6.070181]},"properties":{"kind":"FIXED","limit_kmh":60,"source":"OSM","active":true,"direction_deg":null}},{"type":"Feature","geometry":{"type":"Point","coordinates":[-35.238475,-6.069923]},"properties":{"kind":"FIXED","limit_kmh":60,"source":"OSM","active":true,"direction_deg":null}},{"type":"Feature","geometry":{"type":"Point","coordinates":[-35.246326,-6.042632]},"properties":{"kind":"FIXED","limit_kmh":60,"source":"OSM","active":true,"direction_deg":null}},{"type":"Feature","geometry":{"type":"Point","coordinates":[-35.260939,-5.997927]},"properties":{"kind":"FIXED","limit_kmh":null,"source":"DNIT","active":true,"direction_deg":158}},{"type":"Feature","geometry":{"type":"Point","coordinates":[-35.264573,-5.940046]},"properties":{"kind":"FIXED","limit_kmh":null,"source":"DNIT","active":true,"direction_deg":null}},{"type":"Feature","geometry":{"type":"Point","coordinates":[-35.26499,-5.937719]},"properties":{"kind":"FIXED","limit_kmh":null,"source":"DNIT","active":true,"direction_deg":null}},{"type":"Feature","geometry":{"type":"Point","coordinates":[-35.263702,-5.918083]},"properties":{"kind":"FIXED","limit_kmh":null,"source":"DNIT","active":true,"direction_deg":25}},{"type":"Feature","geometry":{"type":"Point","coordinates":[-35.263508,-5.917698]},"properties":{"kind":"FIXED","limit_kmh":null,"source":"DNIT","active":true,"direction_deg":204}},{"type":"Feature","geometry":{"type":"Point","coordinates":[-35.262563,-5.915503]},"properties":{"kind":"FIXED","limit_kmh":null,"source":"DNIT","active":true,"direction_deg":20}},{"type":"Feature","geometry":{"type":"Point","coordinates":[-35.262444,-5.915069]},"properties":{"kind":"FIXED","limit_kmh":null,"source":"DNIT","active":true,"direction_deg":195}},{"type":"Feature","geometry":{"type":"Point","coordinates":[-35.257902,-5.891189]},"properties":{"kind":"FIXED","limit_kmh":null,"source":"DNIT","active":true,"direction_deg":227}},{"type":"Feature","geometry":{"type":"Point","coordinates":[-35.249525,-5.890462]},"properties":{"kind":"FIXED","limit_kmh":null,"source":"DNIT","active":true,"direction_deg":78}},{"type":"Feature","geometry":{"type":"Point","coordinates":[-35.247925,-5.889854]},"properties":{"kind":"FIXED","limit_kmh":null,"source":"DNIT","active":true,"direction_deg":259}},{"type":"Feature","geometry":{"type":"Point","coordinates":[-35.265763,-5.889483]},"properties":{"kind":"FIXED","limit_kmh":null,"source":"DNIT","active":true,"direction_deg":null}},{"type":"Feature","geometry":{"type":"Point","coordinates":[-35.225583,-5.881733]},"properties":{"kind":"FIXED","limit_kmh":null,"source":"DNIT","active":true,"direction_deg":17}},{"type":"Feature","geometry":{"type":"Point","coordinates":[-35.224401,-5.878233]},"properties":{"kind":"FIXED","limit_kmh":null,"source":"DNIT","active":true,"direction_deg":215}},{"type":"Feature","geometry":{"type":"Point","coordinates":[-35.402525,-5.866615]},"properties":{"kind":"FIXED","limit_kmh":null,"source":"DNIT","active":true,"direction_deg":85}},{"type":"Feature","geometry":{"type":"Point","coordinates":[-35.361414,-5.866534]},"properties":{"kind":"FIXED","limit_kmh":null,"source":"DNIT","active":false,"direction_deg":null}},{"type":"Feature","geometry":{"type":"Point","coordinates":[-35.204782,-5.866125]},"properties":{"kind":"FIXED","limit_kmh":60,"source":"INMETRO","active":true,"direction_deg":null}},{"type":"Feature","geometry":{"type":"Point","coordinates":[-35.358138,-5.865901]},"properties":{"kind":"FIXED","limit_kmh":40,"source":"OSM","active":false,"direction_deg":null}},{"type":"Feature","geometry":{"type":"Point","coordinates":[-35.342811,-5.864739]},"properties":{"kind":"FIXED","limit_kmh":null,"source":"DNIT","active":true,"direction_deg":286}},{"type":"Feature","geometry":{"type":"Point","coordinates":[-35.214212,-5.860889]},"properties":{"kind":"FIXED","limit_kmh":null,"source":"DNIT","active":true,"direction_deg":25}},{"type":"Feature","geometry":{"type":"Point","coordinates":[-35.205754,-5.856807]},"properties":{"kind":"FIXED","limit_kmh":50,"source":"INMETRO+OSM","active":true,"direction_deg":null}},{"type":"Feature","geometry":{"type":"Point","coordinates":[-35.211666,-5.854806]},"properties":{"kind":"FIXED","limit_kmh":null,"source":"DNIT","active":true,"direction_deg":205}},{"type":"Feature","geometry":{"type":"Point","coordinates":[-35.208253,-5.846919]},"properties":{"kind":"FIXED","limit_kmh":null,"source":"DNIT","active":true,"direction_deg":1}},{"type":"Feature","geometry":{"type":"Point","coordinates":[-35.209642,-5.843211]},"properties":{"kind":"FIXED","limit_kmh":null,"source":"DNIT","active":true,"direction_deg":155}},{"type":"Feature","geometry":{"type":"Point","coordinates":[-35.212213,-5.831854]},"properties":{"kind":"FIXED","limit_kmh":null,"source":"DNIT","active":true,"direction_deg":194}},{"type":"Feature","geometry":{"type":"Point","coordinates":[-35.214325,-5.82251]},"properties":{"kind":"FIXED","limit_kmh":50,"source":"INMETRO","active":true,"direction_deg":null}},{"type":"Feature","geometry":{"type":"Point","coordinates":[-35.251922,-5.821135]},"properties":{"kind":"FIXED","limit_kmh":null,"source":"DNIT","active":true,"direction_deg":null}},{"type":"Feature","geometry":{"type":"Point","coordinates":[-35.255526,-5.820971]},"properties":{"kind":"FIXED","limit_kmh":null,"source":"DNIT","active":true,"direction_deg":null}},{"type":"Feature","geometry":{"type":"Point","coordinates":[-35.255788,-5.820702]},"properties":{"kind":"FIXED","limit_kmh":40,"source":"OSM","active":true,"direction_deg":null}},{"type":"Feature","geometry":{"type":"Point","coordinates":[-35.205891,-5.815231]},"properties":{"kind":"FIXED","limit_kmh":60,"source":"INMETRO","active":true,"direction_deg":null}},{"type":"Feature","geometry":{"type":"Point","coordinates":[-35.205114,-5.812661]},"properties":{"kind":"FIXED","limit_kmh":60,"source":"OSM","active":true,"direction_deg":null}},{"type":"Feature","geometry":{"type":"Point","coordinates":[-35.209787,-5.811008]},"properties":{"kind":"FIXED","limit_kmh":60,"source":"OSM","active":true,"direction_deg":null}},{"type":"Feature","geometry":{"type":"Point","coordinates":[-35.21765,-5.808168]},"properties":{"kind":"FIXED","limit_kmh":50,"source":"INMETRO+OSM","active":true,"direction_deg":null}},{"type":"Feature","geometry":{"type":"Point","coordinates":[-35.218672,-5.807923]},"properties":{"kind":"FIXED","limit_kmh":50,"source":"INMETRO+OSM","active":true,"direction_deg":null}},{"type":"Feature","geometry":{"type":"Point","coordinates":[-35.208891,-5.804291]},"properties":{"kind":"FIXED","limit_kmh":60,"source":"INMETRO","active":true,"direction_deg":null}},{"type":"Feature","geometry":{"type":"Point","coordinates":[-35.232215,-5.802798]},"properties":{"kind":"FIXED","limit_kmh":60,"source":"OSM","active":true,"direction_deg":null}},{"type":"Feature","geometry":{"type":"Point","coordinates":[-35.205085,-5.797313]},"properties":{"kind":"FIXED","limit_kmh":60,"source":"INMETRO","active":true,"direction_deg":null}},{"type":"Feature","geometry":{"type":"Point","coordinates":[-35.223231,-5.795945]},"properties":{"kind":"FIXED","limit_kmh":50,"source":"OSM","active":true,"direction_deg":null}},{"type":"Feature","geometry":{"type":"Point","coordinates":[-35.241423,-5.794425]},"properties":{"kind":"FIXED","limit_kmh":50,"source":"INMETRO","active":true,"direction_deg":null}},{"type":"Feature","geometry":{"type":"Point","coordinates":[-35.213339,-5.793738]},"properties":{"kind":"FIXED","limit_kmh":60,"source":"INMETRO","active":true,"direction_deg":null}},{"type":"Feature","geometry":{"type":"Point","coordinates":[-35.25065,-5.777027]},"properties":{"kind":"FIXED","limit_kmh":null,"source":"DNIT","active":true,"direction_deg":null}},{"type":"Feature","geometry":{"type":"Point","coordinates":[-35.256962,-5.774673]},"properties":{"kind":"FIXED","limit_kmh":null,"source":"DNIT","active":true,"direction_deg":110}},{"type":"Feature","geometry":{"type":"Point","coordinates":[-35.260191,-5.773312]},"properties":{"kind":"FIXED","limit_kmh":null,"source":"DNIT","active":true,"direction_deg":290}},{"type":"Feature","geometry":{"type":"Point","coordinates":[-35.26528,-5.771401]},"properties":{"kind":"FIXED","limit_kmh":null,"source":"OSM","active":true,"direction_deg":null}},{"type":"Feature","geometry":{"type":"Point","coordinates":[-35.274841,-5.767877]},"properties":{"kind":"FIXED","limit_kmh":null,"source":"DNIT","active":true,"direction_deg":291}},{"type":"Feature","geometry":{"type":"Point","coordinates":[-35.275177,-5.767796]},"properties":{"kind":"FIXED","limit_kmh":50,"source":"OSM","active":true,"direction_deg":null}},{"type":"Feature","geometry":{"type":"Point","coordinates":[-35.275129,-5.767711]},"properties":{"kind":"FIXED","limit_kmh":50,"source":"OSM","active":true,"direction_deg":null}},{"type":"Feature","geometry":{"type":"Point","coordinates":[-35.275423,-5.767623]},"properties":{"kind":"FIXED","limit_kmh":null,"source":"DNIT","active":true,"direction_deg":111}},{"type":"Feature","geometry":{"type":"Point","coordinates":[-35.280553,-5.765566]},"properties":{"kind":"FIXED","limit_kmh":null,"source":"DNIT","active":true,"direction_deg":291}},{"type":"Feature","geometry":{"type":"Point","coordinates":[-35.281202,-5.765528]},"properties":{"kind":"FIXED","limit_kmh":50,"source":"DNIT+OSM","active":true,"direction_deg":111}},{"type":"Feature","geometry":{"type":"Point","coordinates":[-35.253541,-5.763364]},"properties":{"kind":"FIXED","limit_kmh":null,"source":"OSM","active":true,"direction_deg":null}},{"type":"Feature","geometry":{"type":"Point","coordinates":[-35.253526,-5.763254]},"properties":{"kind":"FIXED","limit_kmh":null,"source":"OSM","active":true,"direction_deg":null}},{"type":"Feature","geometry":{"type":"Point","coordinates":[-35.292238,-5.761384]},"properties":{"kind":"FIXED","limit_kmh":null,"source":"DNIT","active":true,"direction_deg":null}},{"type":"Feature","geometry":{"type":"Point","coordinates":[-35.29208,-5.761337]},"properties":{"kind":"FIXED","limit_kmh":null,"source":"DNIT","active":true,"direction_deg":null}},{"type":"Feature","geometry":{"type":"Point","coordinates":[-35.287556,-5.760346]},"properties":{"kind":"FIXED","limit_kmh":null,"source":"DNIT","active":true,"direction_deg":346}},{"type":"Feature","geometry":{"type":"Point","coordinates":[-35.287796,-5.760148]},"properties":{"kind":"FIXED","limit_kmh":null,"source":"DNIT","active":true,"direction_deg":166}},{"type":"Feature","geometry":{"type":"Point","coordinates":[-35.30242,-5.757467]},"properties":{"kind":"FIXED","limit_kmh":null,"source":"DNIT","active":true,"direction_deg":111}},{"type":"Feature","geometry":{"type":"Point","coordinates":[-35.243425,-5.757243]},"properties":{"kind":"FIXED","limit_kmh":null,"source":"OSM","active":true,"direction_deg":null}},{"type":"Feature","geometry":{"type":"Point","coordinates":[-36.00227,-5.757192]},"properties":{"kind":"FIXED","limit_kmh":60,"source":"OSM","active":true,"direction_deg":null}},{"type":"Feature","geometry":{"type":"Point","coordinates":[-35.243381,-5.75712]},"properties":{"kind":"FIXED","limit_kmh":null,"source":"OSM","active":true,"direction_deg":null}},{"type":"Feature","geometry":{"type":"Point","coordinates":[-35.240638,-5.755639]},"properties":{"kind":"FIXED","limit_kmh":50,"source":"OSM","active":true,"direction_deg":null}},{"type":"Feature","geometry":{"type":"Point","coordinates":[-35.240722,-5.75556]},"properties":{"kind":"FIXED","limit_kmh":50,"source":"OSM","active":true,"direction_deg":null}},{"type":"Feature","geometry":{"type":"Point","coordinates":[-35.313193,-5.753466]},"properties":{"kind":"FIXED","limit_kmh":null,"source":"DNIT","active":true,"direction_deg":290}},{"type":"Feature","geometry":{"type":"Point","coordinates":[-35.313272,-5.753427]},"properties":{"kind":"FIXED","limit_kmh":null,"source":"DNIT","active":true,"direction_deg":110}},{"type":"Feature","geometry":{"type":"Point","coordinates":[-35.225786,-5.746643]},"properties":{"kind":"FIXED","limit_kmh":null,"source":"OSM","active":true,"direction_deg":null}},{"type":"Feature","geometry":{"type":"Point","coordinates":[-35.225741,-5.74651]},"properties":{"kind":"FIXED","limit_kmh":null,"source":"OSM","active":true,"direction_deg":null}},{"type":"Feature","geometry":{"type":"Point","coordinates":[-35.246919,-5.74582]},"properties":{"kind":"FIXED","limit_kmh":50,"source":"OSM","active":true,"direction_deg":null}},{"type":"Feature","geometry":{"type":"Point","coordinates":[-35.291014,-5.734276]},"properties":{"kind":"FIXED","limit_kmh":null,"source":"DNIT","active":true,"direction_deg":353}},{"type":"Feature","geometry":{"type":"Point","coordinates":[-35.291155,-5.7334]},"properties":{"kind":"FIXED","limit_kmh":null,"source":"DNIT","active":true,"direction_deg":173}},{"type":"Feature","geometry":{"type":"Point","coordinates":[-35.365417,-5.722364]},"properties":{"kind":"FIXED","limit_kmh":60,"source":"DNIT+OSM","active":false,"direction_deg":null}},{"type":"Feature","geometry":{"type":"Point","coordinates":[-35.26584,-5.704505]},"properties":{"kind":"FIXED","limit_kmh":null,"source":"DNIT","active":false,"direction_deg":null}},{"type":"Feature","geometry":{"type":"Point","coordinates":[-36.252599,-5.703588]},"properties":{"kind":"FIXED","limit_kmh":60,"source":"OSM","active":true,"direction_deg":null}},{"type":"Feature","geometry":{"type":"Point","coordinates":[-36.606645,-5.679882]},"properties":{"kind":"FIXED","limit_kmh":80,"source":"OSM","active":true,"direction_deg":null}},{"type":"Feature","geometry":{"type":"Point","coordinates":[-35.259088,-5.671754]},"properties":{"kind":"FIXED","limit_kmh":null,"source":"DNIT","active":true,"direction_deg":null}},{"type":"Feature","geometry":{"type":"Point","coordinates":[-37.799422,-5.653121]},"properties":{"kind":"FIXED","limit_kmh":null,"source":"DNIT","active":true,"direction_deg":null}},{"type":"Feature","geometry":{"type":"Point","coordinates":[-35.420306,-5.652208]},"properties":{"kind":"FIXED","limit_kmh":null,"source":"DNIT+OSM","active":true,"direction_deg":null}},{"type":"Feature","geometry":{"type":"Point","coordinates":[-35.249664,-5.652032]},"properties":{"kind":"FIXED","limit_kmh":50,"source":"DNIT+OSM","active":true,"direction_deg":null}},{"type":"Feature","geometry":{"type":"Point","coordinates":[-35.427456,-5.650486]},"properties":{"kind":"FIXED","limit_kmh":null,"source":"DNIT+OSM","active":true,"direction_deg":null}},{"type":"Feature","geometry":{"type":"Point","coordinates":[-35.444556,-5.648215]},"properties":{"kind":"FIXED","limit_kmh":null,"source":"DNIT","active":true,"direction_deg":null}},{"type":"Feature","geometry":{"type":"Point","coordinates":[-36.86135,-5.631412]},"properties":{"kind":"FIXED","limit_kmh":80,"source":"OSM","active":true,"direction_deg":null}},{"type":"Feature","geometry":{"type":"Point","coordinates":[-36.862372,-5.630906]},"properties":{"kind":"FIXED","limit_kmh":null,"source":"DNIT","active":true,"direction_deg":null}},{"type":"Feature","geometry":{"type":"Point","coordinates":[-35.27559,-5.588929]},"properties":{"kind":"FIXED","limit_kmh":60,"source":"DNIT+OSM","active":true,"direction_deg":null}},{"type":"Feature","geometry":{"type":"Point","coordinates":[-36.949348,-5.587978]},"properties":{"kind":"FIXED","limit_kmh":80,"source":"OSM","active":false,"direction_deg":null}},{"type":"Feature","geometry":{"type":"Point","coordinates":[-35.812769,-5.538188]},"properties":{"kind":"FIXED","limit_kmh":60,"source":"DNIT+OSM","active":true,"direction_deg":null}},{"type":"Feature","geometry":{"type":"Point","coordinates":[-35.815892,-5.532683]},"properties":{"kind":"FIXED","limit_kmh":60,"source":"OSM","active":true,"direction_deg":null}},{"type":"Feature","geometry":{"type":"Point","coordinates":[-35.819333,-5.525708]},"properties":{"kind":"FIXED","limit_kmh":null,"source":"DNIT","active":true,"direction_deg":null}},{"type":"Feature","geometry":{"type":"Point","coordinates":[-37.303189,-5.262395]},"properties":{"kind":"FIXED","limit_kmh":80,"source":"OSM","active":true,"direction_deg":null}},{"type":"Feature","geometry":{"type":"Point","coordinates":[-37.317487,-5.236407]},"properties":{"kind":"FIXED","limit_kmh":null,"source":"DNIT","active":true,"direction_deg":333}},{"type":"Feature","geometry":{"type":"Point","coordinates":[-37.318516,-5.234704]},"properties":{"kind":"FIXED","limit_kmh":null,"source":"DNIT","active":true,"direction_deg":149}},{"type":"Feature","geometry":{"type":"Point","coordinates":[-37.331938,-5.231304]},"properties":{"kind":"FIXED","limit_kmh":50,"source":"OSM","active":true,"direction_deg":null}},{"type":"Feature","geometry":{"type":"Point","coordinates":[-37.32405,-5.227033]},"properties":{"kind":"FIXED","limit_kmh":null,"source":"DNIT","active":true,"direction_deg":null}},{"type":"Feature","geometry":{"type":"Point","coordinates":[-37.324328,-5.227015]},"properties":{"kind":"FIXED","limit_kmh":60,"source":"OSM","active":true,"direction_deg":null}},{"type":"Feature","geometry":{"type":"Point","coordinates":[-37.324111,-5.22672]},"properties":{"kind":"FIXED","limit_kmh":50,"source":"OSM","active":true,"direction_deg":null}},{"type":"Feature","geometry":{"type":"Point","coordinates":[-37.336874,-5.22589]},"properties":{"kind":"FIXED","limit_kmh":80,"source":"OSM","active":true,"direction_deg":null}},{"type":"Feature","geometry":{"type":"Point","coordinates":[-37.335403,-5.225862]},"properties":{"kind":"FIXED","limit_kmh":null,"source":"DNIT","active":true,"direction_deg":91}},{"type":"Feature","geometry":{"type":"Point","coordinates":[-37.347278,-5.225024]},"properties":{"kind":"FIXED","limit_kmh":80,"source":"DNIT+OSM","active":true,"direction_deg":277}},{"type":"Feature","geometry":{"type":"Point","coordinates":[-37.351986,-5.224823]},"properties":{"kind":"FIXED","limit_kmh":80,"source":"DNIT+OSM","active":true,"direction_deg":97}},{"type":"Feature","geometry":{"type":"Point","coordinates":[-37.326949,-5.220518]},"properties":{"kind":"FIXED","limit_kmh":50,"source":"OSM","active":true,"direction_deg":null}},{"type":"Feature","geometry":{"type":"Point","coordinates":[-37.364844,-5.218457]},"properties":{"kind":"FIXED","limit_kmh":80,"source":"DNIT+OSM","active":true,"direction_deg":126}},{"type":"Feature","geometry":{"type":"Point","coordinates":[-37.32832,-5.218344]},"properties":{"kind":"FIXED","limit_kmh":50,"source":"DNIT+OSM","active":true,"direction_deg":null}},{"type":"Feature","geometry":{"type":"Point","coordinates":[-37.332391,-5.211508]},"properties":{"kind":"FIXED","limit_kmh":null,"source":"DNIT","active":true,"direction_deg":144}},{"type":"Feature","geometry":{"type":"Point","coordinates":[-37.333595,-5.209495]},"properties":{"kind":"FIXED","limit_kmh":null,"source":"DNIT","active":true,"direction_deg":0}},{"type":"Feature","geometry":{"type":"Point","coordinates":[-37.33353,-5.209188]},"properties":{"kind":"FIXED","limit_kmh":null,"source":"DNIT","active":true,"direction_deg":205}},{"type":"Feature","geometry":{"type":"Point","coordinates":[-37.328204,-5.205278]},"properties":{"kind":"FIXED","limit_kmh":null,"source":"DNIT","active":true,"direction_deg":null}},{"type":"Feature","geometry":{"type":"Point","coordinates":[-37.325981,-5.203614]},"properties":{"kind":"FIXED","limit_kmh":50,"source":"OSM","active":true,"direction_deg":null}},{"type":"Feature","geometry":{"type":"Point","coordinates":[-37.325766,-5.203412]},"properties":{"kind":"FIXED","limit_kmh":50,"source":"DNIT+OSM","active":true,"direction_deg":null}},{"type":"Feature","geometry":{"type":"Point","coordinates":[-37.350261,-5.201184]},"properties":{"kind":"FIXED","limit_kmh":50,"source":"INMETRO","active":true,"direction_deg":null}},{"type":"Feature","geometry":{"type":"Point","coordinates":[-37.320181,-5.19935]},"properties":{"kind":"FIXED","limit_kmh":40,"source":"DNIT+OSM","active":true,"direction_deg":null}},{"type":"Feature","geometry":{"type":"Point","coordinates":[-37.378361,-5.19778]},"properties":{"kind":"FIXED","limit_kmh":80,"source":"OSM","active":true,"direction_deg":null}},{"type":"Feature","geometry":{"type":"Point","coordinates":[-37.38213,-5.19408]},"properties":{"kind":"FIXED","limit_kmh":null,"source":"DNIT","active":true,"direction_deg":null}},{"type":"Feature","geometry":{"type":"Point","coordinates":[-37.312555,-5.193591]},"properties":{"kind":"FIXED","limit_kmh":null,"source":"DNIT","active":true,"direction_deg":null}},{"type":"Feature","geometry":{"type":"Point","coordinates":[-37.369627,-5.192563]},"properties":{"kind":"FIXED","limit_kmh":null,"source":"DNIT+OSM","active":true,"direction_deg":82}},{"type":"Feature","geometry":{"type":"Point","coordinates":[-37.369207,-5.192515]},"properties":{"kind":"FIXED","limit_kmh":null,"source":"DNIT+OSM","active":true,"direction_deg":262}},{"type":"Feature","geometry":{"type":"Point","coordinates":[-37.356312,-5.191035]},"properties":{"kind":"FIXED","limit_kmh":null,"source":"DNIT","active":true,"direction_deg":83}},{"type":"Feature","geometry":{"type":"Point","coordinates":[-37.355898,-5.190915]},"properties":{"kind":"FIXED","limit_kmh":null,"source":"DNIT","active":true,"direction_deg":262}},{"type":"Feature","geometry":{"type":"Point","coordinates":[-37.372383,-5.186587]},"properties":{"kind":"FIXED","limit_kmh":80,"source":"DNIT+OSM","active":true,"direction_deg":39}},{"type":"Feature","geometry":{"type":"Point","coordinates":[-37.37141,-5.185074]},"properties":{"kind":"FIXED","limit_kmh":80,"source":"OSM","active":true,"direction_deg":null}},{"type":"Feature","geometry":{"type":"Point","coordinates":[-37.297796,-5.182732]},"properties":{"kind":"FIXED","limit_kmh":60,"source":"OSM","active":true,"direction_deg":null}},{"type":"Feature","geometry":{"type":"Point","coordinates":[-37.363127,-5.175388]},"properties":{"kind":"FIXED","limit_kmh":60,"source":"OSM","active":true,"direction_deg":null}},{"type":"Feature","geometry":{"type":"Point","coordinates":[-37.362592,-5.17486]},"properties":{"kind":"FIXED","limit_kmh":null,"source":"DNIT","active":true,"direction_deg":48}},{"type":"Feature","geometry":{"type":"Point","coordinates":[-37.362412,-5.174363]},"properties":{"kind":"FIXED","limit_kmh":60,"source":"DNIT+OSM","active":true,"direction_deg":228}},{"type":"Feature","geometry":{"type":"Point","coordinates":[-37.353305,-5.166758]},"properties":{"kind":"FIXED","limit_kmh":60,"source":"OSM","active":true,"direction_deg":null}},{"type":"Feature","geometry":{"type":"Point","coordinates":[-37.346168,-5.140565]},"properties":{"kind":"FIXED","limit_kmh":80,"source":"OSM","active":true,"direction_deg":null}},{"type":"Feature","geometry":{"type":"Point","coordinates":[-37.345876,-5.138948]},"properties":{"kind":"FIXED","limit_kmh":null,"source":"DNIT","active":true,"direction_deg":193}},{"type":"Feature","geometry":{"type":"Point","coordinates":[-37.340562,-5.114615]},"properties":{"kind":"FIXED","limit_kmh":null,"source":"DNIT","active":true,"direction_deg":null}},{"type":"Feature","geometry":{"type":"Point","coordinates":[-37.330911,-5.067799]},"properties":{"kind":"FIXED","limit_kmh":null,"source":"DNIT","active":true,"direction_deg":11}},{"type":"Feature","geometry":{"type":"Point","coordinates":[-37.121801,-4.946759]},"properties":{"kind":"FIXED","limit_kmh":50,"source":"OSM","active":false,"direction_deg":null}},{"type":"Feature","geometry":{"type":"Point","coordinates":[-37.40531,-4.94596]},"properties":{"kind":"FIXED","limit_kmh":60,"source":"OSM","active":false,"direction_deg":null}},{"type":"Feature","geometry":{"type":"Point","coordinates":[-37.119435,-4.944733]},"properties":{"kind":"FIXED","limit_kmh":null,"source":"DNIT","active":false,"direction_deg":null}}]}