{"type":"FeatureCollection","attribution":"Pardal — © colaboradores do OpenStreetMap (ODbL 1.0) e fontes abertas listadas no README","features":[{"type":"Feature","geometry":{"type":"Point","coordinates":[-36.701703,-10.095507]},"properties":{"kind":"FIXED","limit_kmh":50,"source":"DNIT+OSM","active":true,"direction_deg":null}},{"type":"Feature","geometry":{"type":"Point","coordinates":[-36.696058,-10.078784]},"properties":{"kind":"FIXED","limit_kmh":50,"source":"DNIT+OSM","active":true,"direction_deg":null}},{"type":"Feature","geometry":{"type":"Point","coordinates":[-36.689744,-10.064186]},"properties":{"kind":"FIXED","limit_kmh":50,"source":"OSM","active":true,"direction_deg":null}},{"type":"Feature","geometry":{"type":"Point","coordinates":[-36.689907,-10.063902]},"properties":{"kind":"FIXED","limit_kmh":50,"source":"DNIT+OSM","active":true,"direction_deg":null}},{"type":"Feature","geometry":{"type":"Point","coordinates":[-36.560825,-9.982791]},"properties":{"kind":"FIXED","limit_kmh":80,"source":"OSM","active":true,"direction_deg":null}},{"type":"Feature","geometry":{"type":"Point","coordinates":[-36.557849,-9.974669]},"properties":{"kind":"FIXED","limit_kmh":80,"source":"DNIT","active":true,"direction_deg":220}},{"type":"Feature","geometry":{"type":"Point","coordinates":[-36.222693,-9.904153]},"properties":{"kind":"FIXED","limit_kmh":60,"source":"DNIT","active":true,"direction_deg":279}},{"type":"Feature","geometry":{"type":"Point","coordinates":[-36.35824,-9.90305]},"properties":{"kind":"FIXED","limit_kmh":50,"source":"DNIT","active":true,"direction_deg":null}},{"type":"Feature","geometry":{"type":"Point","coordinates":[-36.116132,-9.808182]},"properties":{"kind":"FIXED","limit_kmh":50,"source":"OSM","active":false,"direction_deg":null}},{"type":"Feature","geometry":{"type":"Point","coordinates":[-35.695686,-9.663605]},"properties":{"kind":"FIXED","limit_kmh":50,"source":"OSM","active":true,"direction_deg":null}},{"type":"Feature","geometry":{"type":"Point","coordinates":[-35.695752,-9.663346]},"properties":{"kind":"FIXED","limit_kmh":50,"source":"OSM","active":true,"direction_deg":null}},{"type":"Feature","geometry":{"type":"Point","coordinates":[-35.722382,-9.605647]},"properties":{"kind":"FIXED","limit_kmh":60,"source":"OSM","active":true,"direction_deg":null}},{"type":"Feature","geometry":{"type":"Point","coordinates":[-35.722615,-9.604546]},"properties":{"kind":"FIXED","limit_kmh":60,"source":"OSM","active":true,"direction_deg":null}},{"type":"Feature","geometry":{"type":"Point","coordinates":[-36.456993,-9.590746]},"properties":{"kind":"FIXED","limit_kmh":50,"source":"DNIT","active":true,"direction_deg":null}},{"type":"Feature","geometry":{"type":"Point","coordinates":[-35.94994,-9.590511]},"properties":{"kind":"FIXED","limit_kmh":60,"source":"DNIT","active":true,"direction_deg":null}},{"type":"Feature","geometry":{"type":"Point","coordinates":[-35.865906,-9.588802]},"properties":{"kind":"FIXED","limit_kmh":60,"source":"DNIT","active":true,"direction_deg":null}},{"type":"Feature","geometry":{"type":"Point","coordinates":[-35.955606,-9.588725]},"properties":{"kind":"FIXED","limit_kmh":50,"source":"DNIT","active":true,"direction_deg":null}},{"type":"Feature","geometry":{"type":"Point","coordinates":[-35.873217,-9.586835]},"properties":{"kind":"FIXED","limit_kmh":60,"source":"DNIT","active":true,"direction_deg":null}},{"type":"Feature","geometry":{"type":"Point","coordinates":[-36.320415,-9.58555]},"properties":{"kind":"FIXED","limit_kmh":50,"source":"DNIT","active":true,"direction_deg":null}},{"type":"Feature","geometry":{"type":"Point","coordinates":[-36.496424,-9.584149]},"properties":{"kind":"FIXED","limit_kmh":50,"source":"OSM","active":true,"direction_deg":null}},{"type":"Feature","geometry":{"type":"Point","coordinates":[-36.496767,-9.584023]},"properties":{"kind":"FIXED","limit_kmh":50,"source":"DNIT","active":true,"direction_deg":null}},{"type":"Feature","geometry":{"type":"Point","coordinates":[-36.497119,-9.583955]},"properties":{"kind":"FIXED","limit_kmh":50,"source":"OSM","active":true,"direction_deg":null}},{"type":"Feature","geometry":{"type":"Point","coordinates":[-35.959923,-9.581679]},"properties":{"kind":"FIXED","limit_kmh":50,"source":"DNIT","active":true,"direction_deg":null}},{"type":"Feature","geometry":{"type":"Point","coordinates":[-36.304628,-9.577603]},"properties":{"kind":"FIXED","limit_kmh":50,"source":"DNIT","active":true,"direction_deg":null}},{"type":"Feature","geometry":{"type":"Point","coordinates":[-35.76997,-9.576971]},"properties":{"kind":"FIXED","limit_kmh":60,"source":"OSM","active":true,"direction_deg":null}},{"type":"Feature","geometry":{"type":"Point","coordinates":[-35.827515,-9.572593]},"properties":{"kind":"FIXED","limit_kmh":50,"source":"OSM","active":true,"direction_deg":null}},{"type":"Feature","geometry":{"type":"Point","coordinates":[-35.827129,-9.572335]},"properties":{"kind":"FIXED","limit_kmh":50,"source":"DNIT+OSM","active":true,"direction_deg":null}},{"type":"Feature","geometry":{"type":"Point","coordinates":[-35.821477,-9.571771]},"properties":{"kind":"FIXED","limit_kmh":50,"source":"OSM","active":true,"direction_deg":null}},{"type":"Feature","geometry":{"type":"Point","coordinates":[-35.822106,-9.571745]},"properties":{"kind":"FIXED","limit_kmh":50,"source":"OSM","active":true,"direction_deg":null}},{"type":"Feature","geometry":{"type":"Point","coordinates":[-35.82179,-9.571728]},"properties":{"kind":"FIXED","limit_kmh":50,"source":"DNIT","active":true,"direction_deg":null}},{"type":"Feature","geometry":{"type":"Point","coordinates":[-35.825136,-9.571619]},"properties":{"kind":"FIXED","limit_kmh":50,"source":"DNIT","active":true,"direction_deg":null}},{"type":"Feature","geometry":{"type":"Point","coordinates":[-35.803436,-9.57016]},"properties":{"kind":"FIXED","limit_kmh":60,"source":"DNIT","active":true,"direction_deg":null}},{"type":"Feature","geometry":{"type":"Point","coordinates":[-35.784877,-9.56525]},"properties":{"kind":"FIXED","limit_kmh":40,"source":"DNIT","active":true,"direction_deg":null}},{"type":"Feature","geometry":{"type":"Point","coordinates":[-35.779495,-9.561337]},"properties":{"kind":"FIXED","limit_kmh":60,"source":"OSM","active":true,"direction_deg":null}},{"type":"Feature","geometry":{"type":"Point","coordinates":[-35.779613,-9.561001]},"properties":{"kind":"FIXED","limit_kmh":60,"source":"DNIT","active":true,"direction_deg":334}},{"type":"Feature","geometry":{"type":"Point","coordinates":[-35.780157,-9.560725]},"properties":{"kind":"FIXED","limit_kmh":50,"source":"DNIT","active":true,"direction_deg":null}},{"type":"Feature","geometry":{"type":"Point","coordinates":[-35.780075,-9.56068]},"properties":{"kind":"FIXED","limit_kmh":50,"source":"DNIT","active":true,"direction_deg":154}},{"type":"Feature","geometry":{"type":"Point","coordinates":[-35.764863,-9.559793]},"properties":{"kind":"FIXED","limit_kmh":60,"source":"OSM","active":true,"direction_deg":null}},{"type":"Feature","geometry":{"type":"Point","coordinates":[-35.764163,-9.559383]},"properties":{"kind":"FIXED","limit_kmh":60,"source":"OSM","active":true,"direction_deg":null}},{"type":"Feature","geometry":{"type":"Point","coordinates":[-35.781323,-9.557689]},"properties":{"kind":"FIXED","limit_kmh":60,"source":"OSM","active":true,"direction_deg":null}},{"type":"Feature","geometry":{"type":"Point","coordinates":[-35.781815,-9.557469]},"properties":{"kind":"FIXED","limit_kmh":60,"source":"DNIT+OSM","active":true,"direction_deg":null}},{"type":"Feature","geometry":{"type":"Point","coordinates":[-35.982565,-9.545458]},"properties":{"kind":"FIXED","limit_kmh":50,"source":"DNIT","active":true,"direction_deg":null}},{"type":"Feature","geometry":{"type":"Point","coordinates":[-35.788701,-9.544684]},"properties":{"kind":"FIXED","limit_kmh":60,"source":"DNIT+OSM","active":true,"direction_deg":331}},{"type":"Feature","geometry":{"type":"Point","coordinates":[-35.789018,-9.544602]},"properties":{"kind":"FIXED","limit_kmh":50,"source":"OSM","active":true,"direction_deg":null}},{"type":"Feature","geometry":{"type":"Point","coordinates":[-35.79108,-9.540599]},"properties":{"kind":"FIXED","limit_kmh":60,"source":"DNIT+OSM","active":true,"direction_deg":null}},{"type":"Feature","geometry":{"type":"Point","coordinates":[-35.79147,-9.540343]},"properties":{"kind":"FIXED","limit_kmh":60,"source":"OSM","active":true,"direction_deg":null}},{"type":"Feature","geometry":{"type":"Point","coordinates":[-35.795841,-9.532435]},"properties":{"kind":"FIXED","limit_kmh":60,"source":"DNIT+OSM","active":true,"direction_deg":null}},{"type":"Feature","geometry":{"type":"Point","coordinates":[-35.796097,-9.532301]},"properties":{"kind":"FIXED","limit_kmh":60,"source":"OSM","active":true,"direction_deg":null}},{"type":"Feature","geometry":{"type":"Point","coordinates":[-35.802868,-9.518523]},"properties":{"kind":"FIXED","limit_kmh":50,"source":"DNIT+OSM","active":true,"direction_deg":335}},{"type":"Feature","geometry":{"type":"Point","coordinates":[-35.803384,-9.51823]},"properties":{"kind":"FIXED","limit_kmh":50,"source":"DNIT","active":true,"direction_deg":155}},{"type":"Feature","geometry":{"type":"Point","coordinates":[-36.00168,-9.515019]},"properties":{"kind":"FIXED","limit_kmh":50,"source":"DNIT+OSM","active":true,"direction_deg":null}},{"type":"Feature","geometry":{"type":"Point","coordinates":[-36.001937,-9.514632]},"properties":{"kind":"FIXED","limit_kmh":50,"source":"OSM","active":true,"direction_deg":null}},{"type":"Feature","geometry":{"type":"Point","coordinates":[-36.003715,-9.511858]},"properties":{"kind":"FIXED","limit_kmh":50,"source":"OSM","active":true,"direction_deg":null}},{"type":"Feature","geometry":{"type":"Point","coordinates":[-36.003876,-9.511515]},"properties":{"kind":"FIXED","limit_kmh":50,"source":"DNIT","active":true,"direction_deg":null}},{"type":"Feature","geometry":{"type":"Point","coordinates":[-36.004202,-9.511078]},"properties":{"kind":"FIXED","limit_kmh":50,"source":"OSM","active":true,"direction_deg":null}},{"type":"Feature","geometry":{"type":"Point","coordinates":[-36.006498,-9.509324]},"properties":{"kind":"FIXED","limit_kmh":60,"source":"DNIT","active":true,"direction_deg":null}},{"type":"Feature","geometry":{"type":"Point","coordinates":[-35.807797,-9.509115]},"properties":{"kind":"FIXED","limit_kmh":50,"source":"DNIT","active":true,"direction_deg":null}},{"type":"Feature","geometry":{"type":"Point","coordinates":[-36.01883,-9.50793]},"properties":{"kind":"FIXED","limit_kmh":60,"source":"DNIT","active":true,"direction_deg":null}},{"type":"Feature","geometry":{"type":"Point","coordinates":[-36.046872,-9.504031]},"properties":{"kind":"FIXED","limit_kmh":60,"source":"DNIT","active":true,"direction_deg":null}},{"type":"Feature","geometry":{"type":"Point","coordinates":[-36.050228,-9.503245]},"properties":{"kind":"FIXED","limit_kmh":60,"source":"OSM","active":true,"direction_deg":null}},{"type":"Feature","geometry":{"type":"Point","coordinates":[-35.81257,-9.497467]},"properties":{"kind":"FIXED","limit_kmh":50,"source":"DNIT","active":true,"direction_deg":null}},{"type":"Feature","geometry":{"type":"Point","coordinates":[-35.81609,-9.488323]},"properties":{"kind":"FIXED","limit_kmh":50,"source":"DNIT","active":true,"direction_deg":338}},{"type":"Feature","geometry":{"type":"Point","coordinates":[-36.574233,-9.480946]},"properties":{"kind":"FIXED","limit_kmh":50,"source":"DNIT","active":true,"direction_deg":null}},{"type":"Feature","geometry":{"type":"Point","coordinates":[-35.822055,-9.474353]},"properties":{"kind":"FIXED","limit_kmh":50,"source":"DNIT","active":true,"direction_deg":null}},{"type":"Feature","geometry":{"type":"Point","coordinates":[-35.825153,-9.466008]},"properties":{"kind":"FIXED","limit_kmh":50,"source":"DNIT","active":true,"direction_deg":null}},{"type":"Feature","geometry":{"type":"Point","coordinates":[-36.614746,-9.4316]},"properties":{"kind":"FIXED","limit_kmh":60,"source":"DNIT","active":true,"direction_deg":null}},{"type":"Feature","geometry":{"type":"Point","coordinates":[-36.623397,-9.421091]},"properties":{"kind":"FIXED","limit_kmh":50,"source":"DNIT","active":true,"direction_deg":null}},{"type":"Feature","geometry":{"type":"Point","coordinates":[-36.689202,-9.406652]},"properties":{"kind":"FIXED","limit_kmh":50,"source":"DNIT","active":true,"direction_deg":null}},{"type":"Feature","geometry":{"type":"Point","coordinates":[-36.989922,-9.404473]},"properties":{"kind":"FIXED","limit_kmh":50,"source":"DNIT","active":true,"direction_deg":null}},{"type":"Feature","geometry":{"type":"Point","coordinates":[-36.924599,-9.400028]},"properties":{"kind":"FIXED","limit_kmh":50,"source":"DNIT","active":true,"direction_deg":null}},{"type":"Feature","geometry":{"type":"Point","coordinates":[-35.83886,-9.396002]},"properties":{"kind":"FIXED","limit_kmh":null,"source":"DNIT","active":true,"direction_deg":190}},{"type":"Feature","geometry":{"type":"Point","coordinates":[-36.80932,-9.389732]},"properties":{"kind":"FIXED","limit_kmh":50,"source":"DNIT","active":true,"direction_deg":null}},{"type":"Feature","geometry":{"type":"Point","coordinates":[-37.089685,-9.38946]},"properties":{"kind":"FIXED","limit_kmh":50,"source":"DNIT","active":true,"direction_deg":null}},{"type":"Feature","geometry":{"type":"Point","coordinates":[-37.235761,-9.373114]},"properties":{"kind":"FIXED","limit_kmh":50,"source":"DNIT","active":true,"direction_deg":null}},{"type":"Feature","geometry":{"type":"Point","coordinates":[-37.242477,-9.36992]},"properties":{"kind":"FIXED","limit_kmh":50,"source":"DNIT","active":true,"direction_deg":null}},{"type":"Feature","geometry":{"type":"Point","coordinates":[-37.246836,-9.368432]},"properties":{"kind":"FIXED","limit_kmh":50,"source":"DNIT","active":true,"direction_deg":null}},{"type":"Feature","geometry":{"type":"Point","coordinates":[-37.284341,-9.340715]},"properties":{"kind":"FIXED","limit_kmh":50,"source":"DNIT","active":true,"direction_deg":null}},{"type":"Feature","geometry":{"type":"Point","coordinates":[-37.9834,-9.330181]},"properties":{"kind":"FIXED","limit_kmh":50,"source":"DNIT","active":true,"direction_deg":null}},{"type":"Feature","geometry":{"type":"Point","coordinates":[-37.983066,-9.330016]},"properties":{"kind":"FIXED","limit_kmh":50,"source":"OSM","active":true,"direction_deg":null}},{"type":"Feature","geometry":{"type":"Point","coordinates":[-35.930733,-9.31614]},"properties":{"kind":"FIXED","limit_kmh":null,"source":"DNIT","active":false,"direction_deg":null}},{"type":"Feature","geometry":{"type":"Point","coordinates":[-35.939058,-9.307779]},"properties":{"kind":"FIXED","limit_kmh":null,"source":"DNIT","active":false,"direction_deg":null}},{"type":"Feature","geometry":{"type":"Point","coordinates":[-37.391544,-9.271823]},"properties":{"kind":"FIXED","limit_kmh":50,"source":"DNIT","active":true,"direction_deg":null}},{"type":"Feature","geometry":{"type":"Point","coordinates":[-37.736411,-9.266373]},"properties":{"kind":"FIXED","limit_kmh":null,"source":"OSM","active":true,"direction_deg":null}},{"type":"Feature","geometry":{"type":"Point","coordinates":[-37.736011,-9.266217]},"properties":{"kind":"FIXED","limit_kmh":50,"source":"DNIT","active":true,"direction_deg":null}},{"type":"Feature","geometry":{"type":"Point","coordinates":[-37.735372,-9.266017]},"properties":{"kind":"FIXED","limit_kmh":null,"source":"OSM","active":true,"direction_deg":null}},{"type":"Feature","geometry":{"type":"Point","coordinates":[-35.757673,-9.244096]},"properties":{"kind":"FIXED","limit_kmh":60,"source":"DNIT","active":true,"direction_deg":138}},{"type":"Feature","geometry":{"type":"Point","coordinates":[-36.012441,-9.241406]},"properties":{"kind":"FIXED","limit_kmh":50,"source":"DNIT","active":true,"direction_deg":null}},{"type":"Feature","geometry":{"type":"Point","coordinates":[-37.543422,-9.202868]},"properties":{"kind":"FIXED","limit_kmh":null,"source":"OSM","active":true,"direction_deg":null}},{"type":"Feature","geometry":{"type":"Point","coordinates":[-37.542925,-9.20271]},"properties":{"kind":"FIXED","limit_kmh":null,"source":"OSM","active":true,"direction_deg":null}},{"type":"Feature","geometry":{"type":"Point","coordinates":[-37.48753,-9.184695]},"properties":{"kind":"FIXED","limit_kmh":null,"source":"OSM","active":true,"direction_deg":null}},{"type":"Feature","geometry":{"type":"Point","coordinates":[-36.021223,-9.166638]},"properties":{"kind":"FIXED","limit_kmh":50,"source":"DNIT","active":true,"direction_deg":null}},{"type":"Feature","geometry":{"type":"Point","coordinates":[-36.017252,-9.162107]},"properties":{"kind":"FIXED","limit_kmh":50,"source":"DNIT","active":true,"direction_deg":null}},{"type":"Feature","geometry":{"type":"Point","coordinates":[-36.013171,-9.151152]},"properties":{"kind":"FIXED","limit_kmh":50,"source":"DNIT","active":true,"direction_deg":null}},{"type":"Feature","geometry":{"type":"Point","coordinates":[-37.362704,-9.143822]},"properties":{"kind":"FIXED","limit_kmh":null,"source":"OSM","active":true,"direction_deg":null}},{"type":"Feature","geometry":{"type":"Point","coordinates":[-37.362074,-9.143613]},"properties":{"kind":"FIXED","limit_kmh":null,"source":"OSM","active":true,"direction_deg":null}},{"type":"Feature","geometry":{"type":"Point","coordinates":[-36.038598,-9.028279]},"properties":{"kind":"FIXED","limit_kmh":null,"source":"DNIT","active":false,"direction_deg":null}},{"type":"Feature","geometry":{"type":"Point","coordinates":[-36.017755,-8.965852]},"properties":{"kind":"FIXED","limit_kmh":null,"source":"DNIT","active":false,"direction_deg":null}},{"type":"Feature","geometry":{"type":"Point","coordinates":[-36.021301,-8.961093]},"properties":{"kind":"FIXED","limit_kmh":null,"source":"DNIT","active":false,"direction_deg":null}}]}