<?xml version="1.0" encoding="UTF-8"?>
<kml xmlns="http://www.opengis.net/kml/2.2"><Document>
<name>Pardal — radares — AL</name>
<description>Pardal — © colaboradores do OpenStreetMap (ODbL 1.0) e fontes abertas listadas no README</description>
<Folder><name>Radares de velocidade</name>
<Placemark><name>Radar 50 km/h</name><description>Fonte: DNIT+OSM</description><Point><coordinates>-36.701703,-10.095507,0</coordinates></Point></Placemark>
<Placemark><name>Radar 50 km/h</name><description>Fonte: DNIT+OSM</description><Point><coordinates>-36.696058,-10.078784,0</coordinates></Point></Placemark>
<Placemark><name>Radar 50 km/h</name><description>Fonte: OSM</description><Point><coordinates>-36.689744,-10.064186,0</coordinates></Point></Placemark>
<Placemark><name>Radar 50 km/h</name><description>Fonte: DNIT+OSM</description><Point><coordinates>-36.689907,-10.063902,0</coordinates></Point></Placemark>
<Placemark><name>Radar 80 km/h</name><description>Fonte: OSM</description><Point><coordinates>-36.560825,-9.982791,0</coordinates></Point></Placemark>
<Placemark><name>Radar 80 km/h</name><description>Fonte: DNIT · sentido 220° (sudoeste)</description><Point><coordinates>-36.557849,-9.974669,0</coordinates></Point></Placemark>
<Placemark><name>Radar 60 km/h</name><description>Fonte: DNIT · sentido 279° (oeste)</description><Point><coordinates>-36.222693,-9.904153,0</coordinates></Point></Placemark>
<Placemark><name>Radar 50 km/h</name><description>Fonte: DNIT</description><Point><coordinates>-36.358240,-9.903050,0</coordinates></Point></Placemark>
<Placemark><name>Radar 50 km/h</name><description>Fonte: OSM</description><Point><coordinates>-35.695686,-9.663605,0</coordinates></Point></Placemark>
<Placemark><name>Radar 50 km/h</name><description>Fonte: OSM</description><Point><coordinates>-35.695752,-9.663346,0</coordinates></Point></Placemark>
<Placemark><name>Radar 60 km/h</name><description>Fonte: OSM</description><Point><coordinates>-35.722382,-9.605647,0</coordinates></Point></Placemark>
<Placemark><name>Radar 60 km/h</name><description>Fonte: OSM</description><Point><coordinates>-35.722615,-9.604546,0</coordinates></Point></Placemark>
<Placemark><name>Radar 50 km/h</name><description>Fonte: DNIT</description><Point><coordinates>-36.456993,-9.590746,0</coordinates></Point></Placemark>
<Placemark><name>Radar 60 km/h</name><description>Fonte: DNIT</description><Point><coordinates>-35.949940,-9.590511,0</coordinates></Point></Placemark>
<Placemark><name>Radar 60 km/h</name><description>Fonte: DNIT</description><Point><coordinates>-35.865906,-9.588802,0</coordinates></Point></Placemark>
<Placemark><name>Radar 50 km/h</name><description>Fonte: DNIT</description><Point><coordinates>-35.955606,-9.588725,0</coordinates></Point></Placemark>
<Placemark><name>Radar 60 km/h</name><description>Fonte: DNIT</description><Point><coordinates>-35.873217,-9.586835,0</coordinates></Point></Placemark>
<Placemark><name>Radar 50 km/h</name><description>Fonte: DNIT</description><Point><coordinates>-36.320415,-9.585550,0</coordinates></Point></Placemark>
<Placemark><name>Radar 50 km/h</name><description>Fonte: OSM</description><Point><coordinates>-36.496424,-9.584149,0</coordinates></Point></Placemark>
<Placemark><name>Radar 50 km/h</name><description>Fonte: DNIT</description><Point><coordinates>-36.496767,-9.584023,0</coordinates></Point></Placemark>
<Placemark><name>Radar 50 km/h</name><description>Fonte: OSM</description><Point><coordinates>-36.497119,-9.583955,0</coordinates></Point></Placemark>
<Placemark><name>Radar 50 km/h</name><description>Fonte: DNIT</description><Point><coordinates>-35.959923,-9.581679,0</coordinates></Point></Placemark>
<Placemark><name>Radar 50 km/h</name><description>Fonte: DNIT</description><Point><coordinates>-36.304628,-9.577603,0</coordinates></Point></Placemark>
<Placemark><name>Radar 60 km/h</name><description>Fonte: OSM</description><Point><coordinates>-35.769970,-9.576971,0</coordinates></Point></Placemark>
<Placemark><name>Radar 50 km/h</name><description>Fonte: OSM</description><Point><coordinates>-35.827515,-9.572593,0</coordinates></Point></Placemark>
<Placemark><name>Radar 50 km/h</name><description>Fonte: DNIT+OSM</description><Point><coordinates>-35.827129,-9.572335,0</coordinates></Point></Placemark>
<Placemark><name>Radar 50 km/h</name><description>Fonte: OSM</description><Point><coordinates>-35.821477,-9.571771,0</coordinates></Point></Placemark>
<Placemark><name>Radar 50 km/h</name><description>Fonte: OSM</description><Point><coordinates>-35.822106,-9.571745,0</coordinates></Point></Placemark>
<Placemark><name>Radar 50 km/h</name><description>Fonte: DNIT</description><Point><coordinates>-35.821790,-9.571728,0</coordinates></Point></Placemark>
<Placemark><name>Radar 50 km/h</name><description>Fonte: DNIT</description><Point><coordinates>-35.825136,-9.571619,0</coordinates></Point></Placemark>
<Placemark><name>Radar 60 km/h</name><description>Fonte: DNIT</description><Point><coordinates>-35.803436,-9.570160,0</coordinates></Point></Placemark>
<Placemark><name>Radar 40 km/h</name><description>Fonte: DNIT</description><Point><coordinates>-35.784877,-9.565250,0</coordinates></Point></Placemark>
<Placemark><name>Radar 60 km/h</name><description>Fonte: OSM</description><Point><coordinates>-35.779495,-9.561337,0</coordinates></Point></Placemark>
<Placemark><name>Radar 60 km/h</name><description>Fonte: DNIT · sentido 334° (noroeste)</description><Point><coordinates>-35.779613,-9.561001,0</coordinates></Point></Placemark>
<Placemark><name>Radar 50 km/h</name><description>Fonte: DNIT</description><Point><coordinates>-35.780157,-9.560725,0</coordinates></Point></Placemark>
<Placemark><name>Radar 50 km/h</name><description>Fonte: DNIT · sentido 154° (sudeste)</description><Point><coordinates>-35.780075,-9.560680,0</coordinates></Point></Placemark>
<Placemark><name>Radar 60 km/h</name><description>Fonte: OSM</description><Point><coordinates>-35.764863,-9.559793,0</coordinates></Point></Placemark>
<Placemark><name>Radar 60 km/h</name><description>Fonte: OSM</description><Point><coordinates>-35.764163,-9.559383,0</coordinates></Point></Placemark>
<Placemark><name>Radar 60 km/h</name><description>Fonte: OSM</description><Point><coordinates>-35.781323,-9.557689,0</coordinates></Point></Placemark>
<Placemark><name>Radar 60 km/h</name><description>Fonte: DNIT+OSM</description><Point><coordinates>-35.781815,-9.557469,0</coordinates></Point></Placemark>
<Placemark><name>Radar 50 km/h</name><description>Fonte: DNIT</description><Point><coordinates>-35.982565,-9.545458,0</coordinates></Point></Placemark>
<Placemark><name>Radar 60 km/h</name><description>Fonte: DNIT+OSM · sentido 331° (noroeste)</description><Point><coordinates>-35.788701,-9.544684,0</coordinates></Point></Placemark>
<Placemark><name>Radar 50 km/h</name><description>Fonte: OSM</description><Point><coordinates>-35.789018,-9.544602,0</coordinates></Point></Placemark>
<Placemark><name>Radar 60 km/h</name><description>Fonte: DNIT+OSM</description><Point><coordinates>-35.791080,-9.540599,0</coordinates></Point></Placemark>
<Placemark><name>Radar 60 km/h</name><description>Fonte: OSM</description><Point><coordinates>-35.791470,-9.540343,0</coordinates></Point></Placemark>
<Placemark><name>Radar 60 km/h</name><description>Fonte: DNIT+OSM</description><Point><coordinates>-35.795841,-9.532435,0</coordinates></Point></Placemark>
<Placemark><name>Radar 60 km/h</name><description>Fonte: OSM</description><Point><coordinates>-35.796097,-9.532301,0</coordinates></Point></Placemark>
<Placemark><name>Radar 50 km/h</name><description>Fonte: DNIT+OSM · sentido 335° (noroeste)</description><Point><coordinates>-35.802868,-9.518523,0</coordinates></Point></Placemark>
<Placemark><name>Radar 50 km/h</name><description>Fonte: DNIT · sentido 155° (sudeste)</description><Point><coordinates>-35.803384,-9.518230,0</coordinates></Point></Placemark>
<Placemark><name>Radar 50 km/h</name><description>Fonte: DNIT+OSM</description><Point><coordinates>-36.001680,-9.515019,0</coordinates></Point></Placemark>
<Placemark><name>Radar 50 km/h</name><description>Fonte: OSM</description><Point><coordinates>-36.001937,-9.514632,0</coordinates></Point></Placemark>
<Placemark><name>Radar 50 km/h</name><description>Fonte: OSM</description><Point><coordinates>-36.003715,-9.511858,0</coordinates></Point></Placemark>
<Placemark><name>Radar 50 km/h</name><description>Fonte: DNIT</description><Point><coordinates>-36.003876,-9.511515,0</coordinates></Point></Placemark>
<Placemark><name>Radar 50 km/h</name><description>Fonte: OSM</description><Point><coordinates>-36.004202,-9.511078,0</coordinates></Point></Placemark>
<Placemark><name>Radar 60 km/h</name><description>Fonte: DNIT</description><Point><coordinates>-36.006498,-9.509324,0</coordinates></Point></Placemark>
<Placemark><name>Radar 50 km/h</name><description>Fonte: DNIT</description><Point><coordinates>-35.807797,-9.509115,0</coordinates></Point></Placemark>
<Placemark><name>Radar 60 km/h</name><description>Fonte: DNIT</description><Point><coordinates>-36.018830,-9.507930,0</coordinates></Point></Placemark>
<Placemark><name>Radar 60 km/h</name><description>Fonte: DNIT</description><Point><coordinates>-36.046872,-9.504031,0</coordinates></Point></Placemark>
<Placemark><name>Radar 60 km/h</name><description>Fonte: OSM</description><Point><coordinates>-36.050228,-9.503245,0</coordinates></Point></Placemark>
<Placemark><name>Radar 50 km/h</name><description>Fonte: DNIT</description><Point><coordinates>-35.812570,-9.497467,0</coordinates></Point></Placemark>
<Placemark><name>Radar 50 km/h</name><description>Fonte: DNIT · sentido 338° (norte)</description><Point><coordinates>-35.816090,-9.488323,0</coordinates></Point></Placemark>
<Placemark><name>Radar 50 km/h</name><description>Fonte: DNIT</description><Point><coordinates>-36.574233,-9.480946,0</coordinates></Point></Placemark>
<Placemark><name>Radar 50 km/h</name><description>Fonte: DNIT</description><Point><coordinates>-35.822055,-9.474353,0</coordinates></Point></Placemark>
<Placemark><name>Radar 50 km/h</name><description>Fonte: DNIT</description><Point><coordinates>-35.825153,-9.466008,0</coordinates></Point></Placemark>
<Placemark><name>Radar 60 km/h</name><description>Fonte: DNIT</description><Point><coordinates>-36.614746,-9.431600,0</coordinates></Point></Placemark>
<Placemark><name>Radar 50 km/h</name><description>Fonte: DNIT</description><Point><coordinates>-36.623397,-9.421091,0</coordinates></Point></Placemark>
<Placemark><name>Radar 50 km/h</name><description>Fonte: DNIT</description><Point><coordinates>-36.689202,-9.406652,0</coordinates></Point></Placemark>
<Placemark><name>Radar 50 km/h</name><description>Fonte: DNIT</description><Point><coordinates>-36.989922,-9.404473,0</coordinates></Point></Placemark>
<Placemark><name>Radar 50 km/h</name><description>Fonte: DNIT</description><Point><coordinates>-36.924599,-9.400028,0</coordinates></Point></Placemark>
<Placemark><name>Radar</name><description>Fonte: DNIT · sentido 190° (sul)</description><Point><coordinates>-35.838860,-9.396002,0</coordinates></Point></Placemark>
<Placemark><name>Radar 50 km/h</name><description>Fonte: DNIT</description><Point><coordinates>-36.809320,-9.389732,0</coordinates></Point></Placemark>
<Placemark><name>Radar 50 km/h</name><description>Fonte: DNIT</description><Point><coordinates>-37.089685,-9.389460,0</coordinates></Point></Placemark>
<Placemark><name>Radar 50 km/h</name><description>Fonte: DNIT</description><Point><coordinates>-37.235761,-9.373114,0</coordinates></Point></Placemark>
<Placemark><name>Radar 50 km/h</name><description>Fonte: DNIT</description><Point><coordinates>-37.242477,-9.369920,0</coordinates></Point></Placemark>
<Placemark><name>Radar 50 km/h</name><description>Fonte: DNIT</description><Point><coordinates>-37.246836,-9.368432,0</coordinates></Point></Placemark>
<Placemark><name>Radar 50 km/h</name><description>Fonte: DNIT</description><Point><coordinates>-37.284341,-9.340715,0</coordinates></Point></Placemark>
<Placemark><name>Radar 50 km/h</name><description>Fonte: DNIT</description><Point><coordinates>-37.983400,-9.330181,0</coordinates></Point></Placemark>
<Placemark><name>Radar 50 km/h</name><description>Fonte: OSM</description><Point><coordinates>-37.983066,-9.330016,0</coordinates></Point></Placemark>
<Placemark><name>Radar 50 km/h</name><description>Fonte: DNIT</description><Point><coordinates>-37.391544,-9.271823,0</coordinates></Point></Placemark>
<Placemark><name>Radar</name><description>Fonte: OSM</description><Point><coordinates>-37.736411,-9.266373,0</coordinates></Point></Placemark>
<Placemark><name>Radar 50 km/h</name><description>Fonte: DNIT</description><Point><coordinates>-37.736011,-9.266217,0</coordinates></Point></Placemark>
<Placemark><name>Radar</name><description>Fonte: OSM</description><Point><coordinates>-37.735372,-9.266017,0</coordinates></Point></Placemark>
<Placemark><name>Radar 60 km/h</name><description>Fonte: DNIT · sentido 138° (sudeste)</description><Point><coordinates>-35.757673,-9.244096,0</coordinates></Point></Placemark>
<Placemark><name>Radar 50 km/h</name><description>Fonte: DNIT</description><Point><coordinates>-36.012441,-9.241406,0</coordinates></Point></Placemark>
<Placemark><name>Radar</name><description>Fonte: OSM</description><Point><coordinates>-37.543422,-9.202868,0</coordinates></Point></Placemark>
<Placemark><name>Radar</name><description>Fonte: OSM</description><Point><coordinates>-37.542925,-9.202710,0</coordinates></Point></Placemark>
<Placemark><name>Radar</name><description>Fonte: OSM</description><Point><coordinates>-37.487530,-9.184695,0</coordinates></Point></Placemark>
<Placemark><name>Radar 50 km/h</name><description>Fonte: DNIT</description><Point><coordinates>-36.021223,-9.166638,0</coordinates></Point></Placemark>
<Placemark><name>Radar 50 km/h</name><description>Fonte: DNIT</description><Point><coordinates>-36.017252,-9.162107,0</coordinates></Point></Placemark>
<Placemark><name>Radar 50 km/h</name><description>Fonte: DNIT</description><Point><coordinates>-36.013171,-9.151152,0</coordinates></Point></Placemark>
<Placemark><name>Radar</name><description>Fonte: OSM</description><Point><coordinates>-37.362704,-9.143822,0</coordinates></Point></Placemark>
<Placemark><name>Radar</name><description>Fonte: OSM</description><Point><coordinates>-37.362074,-9.143613,0</coordinates></Point></Placemark>
</Folder>
</Document></kml>