{"type":"FeatureCollection","attribution":"Pardal — © colaboradores do OpenStreetMap (ODbL 1.0) e fontes abertas listadas no README","features":[{"type":"Feature","geometry":{"type":"Point","coordinates":[-40.543201,-9.402398]},"properties":{"kind":"FIXED","limit_kmh":60,"source":"INMETRO","active":true,"direction_deg":null}},{"type":"Feature","geometry":{"type":"Point","coordinates":[-40.505697,-9.40146]},"properties":{"kind":"FIXED","limit_kmh":null,"source":"OSM","active":true,"direction_deg":null}},{"type":"Feature","geometry":{"type":"Point","coordinates":[-40.499899,-9.399952]},"properties":{"kind":"FIXED","limit_kmh":50,"source":"INMETRO","active":true,"direction_deg":null}},{"type":"Feature","geometry":{"type":"Point","coordinates":[-40.502176,-9.399494]},"properties":{"kind":"FIXED","limit_kmh":50,"source":"INMETRO","active":true,"direction_deg":null}},{"type":"Feature","geometry":{"type":"Point","coordinates":[-40.491653,-9.397562]},"properties":{"kind":"FIXED","limit_kmh":60,"source":"OSM","active":true,"direction_deg":null}},{"type":"Feature","geometry":{"type":"Point","coordinates":[-40.4906,-9.396217]},"properties":{"kind":"FIXED","limit_kmh":50,"source":"INMETRO","active":true,"direction_deg":null}},{"type":"Feature","geometry":{"type":"Point","coordinates":[-40.499206,-9.395505]},"properties":{"kind":"FIXED","limit_kmh":40,"source":"INMETRO","active":true,"direction_deg":null}},{"type":"Feature","geometry":{"type":"Point","coordinates":[-40.50076,-9.395346]},"properties":{"kind":"FIXED","limit_kmh":40,"source":"INMETRO","active":true,"direction_deg":null}},{"type":"Feature","geometry":{"type":"Point","coordinates":[-40.48986,-9.3934]},"properties":{"kind":"FIXED","limit_kmh":50,"source":"INMETRO","active":true,"direction_deg":null}},{"type":"Feature","geometry":{"type":"Point","coordinates":[-40.530553,-9.392854]},"properties":{"kind":"FIXED","limit_kmh":60,"source":"OSM","active":true,"direction_deg":null}},{"type":"Feature","geometry":{"type":"Point","coordinates":[-40.489275,-9.389333]},"properties":{"kind":"FIXED","limit_kmh":60,"source":"OSM","active":true,"direction_deg":null}},{"type":"Feature","geometry":{"type":"Point","coordinates":[-40.509968,-9.385029]},"properties":{"kind":"FIXED","limit_kmh":null,"source":"OSM","active":true,"direction_deg":null}},{"type":"Feature","geometry":{"type":"Point","coordinates":[-40.488377,-9.380603]},"properties":{"kind":"FIXED","limit_kmh":50,"source":"INMETRO","active":true,"direction_deg":null}},{"type":"Feature","geometry":{"type":"Point","coordinates":[-40.533245,-9.379984]},"properties":{"kind":"FIXED","limit_kmh":40,"source":"OSM","active":true,"direction_deg":null}},{"type":"Feature","geometry":{"type":"Point","coordinates":[-40.534759,-9.378796]},"properties":{"kind":"FIXED","limit_kmh":40,"source":"OSM","active":true,"direction_deg":null}},{"type":"Feature","geometry":{"type":"Point","coordinates":[-40.532772,-9.37]},"properties":{"kind":"FIXED","limit_kmh":60,"source":"INMETRO","active":true,"direction_deg":null}},{"type":"Feature","geometry":{"type":"Point","coordinates":[-40.498895,-9.364473]},"properties":{"kind":"FIXED","limit_kmh":60,"source":"OSM","active":true,"direction_deg":null}},{"type":"Feature","geometry":{"type":"Point","coordinates":[-40.503163,-9.360992]},"properties":{"kind":"FIXED","limit_kmh":null,"source":"OSM","active":true,"direction_deg":null}},{"type":"Feature","geometry":{"type":"Point","coordinates":[-36.762409,-8.962761]},"properties":{"kind":"FIXED","limit_kmh":60,"source":"DNIT","active":true,"direction_deg":null}},{"type":"Feature","geometry":{"type":"Point","coordinates":[-36.725746,-8.960251]},"properties":{"kind":"FIXED","limit_kmh":60,"source":"DNIT","active":true,"direction_deg":null}},{"type":"Feature","geometry":{"type":"Point","coordinates":[-36.489818,-8.922828]},"properties":{"kind":"FIXED","limit_kmh":null,"source":"DNIT","active":false,"direction_deg":null}},{"type":"Feature","geometry":{"type":"Point","coordinates":[-36.487414,-8.909055]},"properties":{"kind":"FIXED","limit_kmh":40,"source":"OSM","active":true,"direction_deg":null}},{"type":"Feature","geometry":{"type":"Point","coordinates":[-35.150618,-8.896914]},"properties":{"kind":"FIXED","limit_kmh":60,"source":"OSM","active":true,"direction_deg":null}},{"type":"Feature","geometry":{"type":"Point","coordinates":[-36.504204,-8.89176]},"properties":{"kind":"FIXED","limit_kmh":40,"source":"DNIT+OSM","active":true,"direction_deg":null}},{"type":"Feature","geometry":{"type":"Point","coordinates":[-36.49135,-8.881132]},"properties":{"kind":"FIXED","limit_kmh":60,"source":"DNIT","active":true,"direction_deg":null}},{"type":"Feature","geometry":{"type":"Point","coordinates":[-36.216697,-8.880685]},"properties":{"kind":"FIXED","limit_kmh":60,"source":"OSM","active":true,"direction_deg":null}},{"type":"Feature","geometry":{"type":"Point","coordinates":[-36.480634,-8.878816]},"properties":{"kind":"FIXED","limit_kmh":60,"source":"DNIT","active":true,"direction_deg":null}},{"type":"Feature","geometry":{"type":"Point","coordinates":[-36.47667,-8.87826]},"properties":{"kind":"FIXED","limit_kmh":60,"source":"OSM","active":true,"direction_deg":null}},{"type":"Feature","geometry":{"type":"Point","coordinates":[-36.50213,-8.876371]},"properties":{"kind":"FIXED","limit_kmh":null,"source":"OSM","active":true,"direction_deg":null}},{"type":"Feature","geometry":{"type":"Point","coordinates":[-36.502541,-8.876283]},"properties":{"kind":"FIXED","limit_kmh":null,"source":"OSM","active":true,"direction_deg":null}},{"type":"Feature","geometry":{"type":"Point","coordinates":[-36.461941,-8.85169]},"properties":{"kind":"FIXED","limit_kmh":null,"source":"DNIT","active":true,"direction_deg":null}},{"type":"Feature","geometry":{"type":"Point","coordinates":[-36.452937,-8.83083]},"properties":{"kind":"FIXED","limit_kmh":null,"source":"OSM","active":true,"direction_deg":null}},{"type":"Feature","geometry":{"type":"Point","coordinates":[-36.452813,-8.830557]},"properties":{"kind":"FIXED","limit_kmh":null,"source":"OSM","active":true,"direction_deg":null}},{"type":"Feature","geometry":{"type":"Point","coordinates":[-35.186311,-8.805688]},"properties":{"kind":"FIXED","limit_kmh":40,"source":"OSM","active":true,"direction_deg":null}},{"type":"Feature","geometry":{"type":"Point","coordinates":[-36.627703,-8.774236]},"properties":{"kind":"FIXED","limit_kmh":40,"source":"DNIT","active":true,"direction_deg":null}},{"type":"Feature","geometry":{"type":"Point","coordinates":[-35.173564,-8.734221]},"properties":{"kind":"FIXED","limit_kmh":null,"source":"OSM","active":true,"direction_deg":null}},{"type":"Feature","geometry":{"type":"Point","coordinates":[-35.173603,-8.732444]},"properties":{"kind":"FIXED","limit_kmh":60,"source":"OSM","active":true,"direction_deg":null}},{"type":"Feature","geometry":{"type":"Point","coordinates":[-36.021072,-8.697975]},"properties":{"kind":"FIXED","limit_kmh":40,"source":"DNIT","active":true,"direction_deg":null}},{"type":"Feature","geometry":{"type":"Point","coordinates":[-36.020811,-8.697643]},"properties":{"kind":"FIXED","limit_kmh":40,"source":"OSM","active":true,"direction_deg":null}},{"type":"Feature","geometry":{"type":"Point","coordinates":[-36.022908,-8.693402]},"properties":{"kind":"FIXED","limit_kmh":40,"source":"DNIT+OSM","active":true,"direction_deg":null}},{"type":"Feature","geometry":{"type":"Point","coordinates":[-35.604084,-8.690543]},"properties":{"kind":"FIXED","limit_kmh":80,"source":"DNIT","active":true,"direction_deg":86}},{"type":"Feature","geometry":{"type":"Point","coordinates":[-35.576878,-8.676482]},"properties":{"kind":"FIXED","limit_kmh":60,"source":"OSM","active":false,"direction_deg":null}},{"type":"Feature","geometry":{"type":"Point","coordinates":[-35.157285,-8.665496]},"properties":{"kind":"FIXED","limit_kmh":40,"source":"OSM","active":true,"direction_deg":null}},{"type":"Feature","geometry":{"type":"Point","coordinates":[-39.240546,-8.618966]},"properties":{"kind":"FIXED","limit_kmh":40,"source":"OSM","active":true,"direction_deg":null}},{"type":"Feature","geometry":{"type":"Point","coordinates":[-35.110743,-8.599411]},"properties":{"kind":"FIXED","limit_kmh":60,"source":"OSM","active":true,"direction_deg":null}},{"type":"Feature","geometry":{"type":"Point","coordinates":[-35.109196,-8.597934]},"properties":{"kind":"FIXED","limit_kmh":60,"source":"OSM","active":true,"direction_deg":null}},{"type":"Feature","geometry":{"type":"Point","coordinates":[-36.234525,-8.491276]},"properties":{"kind":"FIXED","limit_kmh":40,"source":"OSM","active":true,"direction_deg":null}},{"type":"Feature","geometry":{"type":"Point","coordinates":[-35.093344,-8.447279]},"properties":{"kind":"FIXED","limit_kmh":60,"source":"OSM","active":true,"direction_deg":null}},{"type":"Feature","geometry":{"type":"Point","coordinates":[-37.062374,-8.430164]},"properties":{"kind":"FIXED","limit_kmh":50,"source":"DNIT+OSM","active":false,"direction_deg":null}},{"type":"Feature","geometry":{"type":"Point","coordinates":[-37.067124,-8.429767]},"properties":{"kind":"FIXED","limit_kmh":null,"source":"DNIT","active":false,"direction_deg":null}},{"type":"Feature","geometry":{"type":"Point","coordinates":[-37.051945,-8.42332]},"properties":{"kind":"FIXED","limit_kmh":null,"source":"DNIT","active":false,"direction_deg":null}},{"type":"Feature","geometry":{"type":"Point","coordinates":[-35.061204,-8.401511]},"properties":{"kind":"FIXED","limit_kmh":40,"source":"OSM","active":true,"direction_deg":null}},{"type":"Feature","geometry":{"type":"Point","coordinates":[-35.01138,-8.393292]},"properties":{"kind":"FIXED","limit_kmh":40,"source":"OSM","active":true,"direction_deg":null}},{"type":"Feature","geometry":{"type":"Point","coordinates":[-35.008543,-8.383753]},"properties":{"kind":"FIXED","limit_kmh":60,"source":"OSM","active":true,"direction_deg":null}},{"type":"Feature","geometry":{"type":"Point","coordinates":[-35.00872,-8.383655]},"properties":{"kind":"FIXED","limit_kmh":60,"source":"OSM","active":true,"direction_deg":null}},{"type":"Feature","geometry":{"type":"Point","coordinates":[-35.017959,-8.350307]},"properties":{"kind":"FIXED","limit_kmh":60,"source":"OSM","active":true,"direction_deg":null}},{"type":"Feature","geometry":{"type":"Point","coordinates":[-36.446597,-8.348707]},"properties":{"kind":"FIXED","limit_kmh":80,"source":"OSM","active":true,"direction_deg":null}},{"type":"Feature","geometry":{"type":"Point","coordinates":[-35.017367,-8.348632]},"properties":{"kind":"FIXED","limit_kmh":60,"source":"OSM","active":true,"direction_deg":null}},{"type":"Feature","geometry":{"type":"Point","coordinates":[-36.446694,-8.348067]},"properties":{"kind":"FIXED","limit_kmh":80,"source":"OSM","active":true,"direction_deg":null}},{"type":"Feature","geometry":{"type":"Point","coordinates":[-36.420722,-8.343292]},"properties":{"kind":"FIXED","limit_kmh":50,"source":"DNIT+OSM","active":false,"direction_deg":null}},{"type":"Feature","geometry":{"type":"Point","coordinates":[-36.124557,-8.330598]},"properties":{"kind":"FIXED","limit_kmh":null,"source":"OSM","active":true,"direction_deg":null}},{"type":"Feature","geometry":{"type":"Point","coordinates":[-36.124461,-8.330557]},"properties":{"kind":"FIXED","limit_kmh":null,"source":"OSM","active":true,"direction_deg":null}},{"type":"Feature","geometry":{"type":"Point","coordinates":[-36.150577,-8.327997]},"properties":{"kind":"FIXED","limit_kmh":null,"source":"OSM","active":true,"direction_deg":null}},{"type":"Feature","geometry":{"type":"Point","coordinates":[-36.058278,-8.318116]},"properties":{"kind":"FIXED","limit_kmh":null,"source":"OSM","active":true,"direction_deg":null}},{"type":"Feature","geometry":{"type":"Point","coordinates":[-36.032006,-8.310657]},"properties":{"kind":"FIXED","limit_kmh":100,"source":"OSM","active":true,"direction_deg":null}},{"type":"Feature","geometry":{"type":"Point","coordinates":[-36.031804,-8.310597]},"properties":{"kind":"FIXED","limit_kmh":null,"source":"OSM","active":true,"direction_deg":null}},{"type":"Feature","geometry":{"type":"Point","coordinates":[-35.960412,-8.306881]},"properties":{"kind":"FIXED","limit_kmh":null,"source":"DER-PE+OSM","active":true,"direction_deg":null}},{"type":"Feature","geometry":{"type":"Point","coordinates":[-35.960848,-8.306656]},"properties":{"kind":"FIXED","limit_kmh":60,"source":"OSM","active":true,"direction_deg":null}},{"type":"Feature","geometry":{"type":"Point","coordinates":[-35.96182,-8.306625]},"properties":{"kind":"FIXED","limit_kmh":60,"source":"DER-PE+OSM","active":true,"direction_deg":null}},{"type":"Feature","geometry":{"type":"Point","coordinates":[-35.977809,-8.302796]},"properties":{"kind":"FIXED","limit_kmh":60,"source":"OSM","active":true,"direction_deg":null}},{"type":"Feature","geometry":{"type":"Point","coordinates":[-35.977354,-8.302783]},"properties":{"kind":"FIXED","limit_kmh":60,"source":"OSM","active":true,"direction_deg":null}},{"type":"Feature","geometry":{"type":"Point","coordinates":[-36.003098,-8.302646]},"properties":{"kind":"FIXED","limit_kmh":null,"source":"OSM","active":true,"direction_deg":null}},{"type":"Feature","geometry":{"type":"Point","coordinates":[-36.00301,-8.302444]},"properties":{"kind":"FIXED","limit_kmh":60,"source":"OSM","active":true,"direction_deg":null}},{"type":"Feature","geometry":{"type":"Point","coordinates":[-36.002465,-8.302264]},"properties":{"kind":"FIXED","limit_kmh":null,"source":"DNIT","active":true,"direction_deg":null}},{"type":"Feature","geometry":{"type":"Point","coordinates":[-35.848852,-8.300395]},"properties":{"kind":"FIXED","limit_kmh":null,"source":"DER-PE+OSM","active":true,"direction_deg":null}},{"type":"Feature","geometry":{"type":"Point","coordinates":[-35.849372,-8.300316]},"properties":{"kind":"FIXED","limit_kmh":60,"source":"DER-PE+OSM","active":true,"direction_deg":null}},{"type":"Feature","geometry":{"type":"Point","coordinates":[-35.849091,-8.300262]},"properties":{"kind":"FIXED","limit_kmh":60,"source":"OSM","active":true,"direction_deg":null}},{"type":"Feature","geometry":{"type":"Point","coordinates":[-35.025118,-8.297194]},"properties":{"kind":"FIXED","limit_kmh":40,"source":"OSM","active":true,"direction_deg":null}},{"type":"Feature","geometry":{"type":"Point","coordinates":[-35.025576,-8.297134]},"properties":{"kind":"FIXED","limit_kmh":40,"source":"OSM","active":true,"direction_deg":null}},{"type":"Feature","geometry":{"type":"Point","coordinates":[-35.987404,-8.295444]},"properties":{"kind":"FIXED","limit_kmh":40,"source":"DNIT+OSM","active":false,"direction_deg":34}},{"type":"Feature","geometry":{"type":"Point","coordinates":[-35.953218,-8.292805]},"properties":{"kind":"FIXED","limit_kmh":50,"source":"OSM","active":true,"direction_deg":null}},{"type":"Feature","geometry":{"type":"Point","coordinates":[-35.955289,-8.292483]},"properties":{"kind":"FIXED","limit_kmh":50,"source":"OSM","active":true,"direction_deg":null}},{"type":"Feature","geometry":{"type":"Point","coordinates":[-35.955265,-8.292397]},"properties":{"kind":"FIXED","limit_kmh":50,"source":"OSM","active":true,"direction_deg":null}},{"type":"Feature","geometry":{"type":"Point","coordinates":[-35.048813,-8.292216]},"properties":{"kind":"FIXED","limit_kmh":50,"source":"OSM","active":true,"direction_deg":null}},{"type":"Feature","geometry":{"type":"Point","coordinates":[-36.012091,-8.291062]},"properties":{"kind":"FIXED","limit_kmh":50,"source":"OSM","active":true,"direction_deg":null}},{"type":"Feature","geometry":{"type":"Point","coordinates":[-35.983791,-8.288187]},"properties":{"kind":"FIXED","limit_kmh":40,"source":"OSM","active":false,"direction_deg":null}},{"type":"Feature","geometry":{"type":"Point","coordinates":[-34.956199,-8.287764]},"properties":{"kind":"FIXED","limit_kmh":50,"source":"OSM","active":true,"direction_deg":null}},{"type":"Feature","geometry":{"type":"Point","coordinates":[-35.972667,-8.287125]},"properties":{"kind":"FIXED","limit_kmh":40,"source":"OSM","active":true,"direction_deg":null}},{"type":"Feature","geometry":{"type":"Point","coordinates":[-35.983854,-8.286655]},"properties":{"kind":"FIXED","limit_kmh":null,"source":"DNIT","active":false,"direction_deg":5}},{"type":"Feature","geometry":{"type":"Point","coordinates":[-35.994332,-8.286563]},"properties":{"kind":"FIXED","limit_kmh":40,"source":"INMETRO+OSM","active":true,"direction_deg":null}},{"type":"Feature","geometry":{"type":"Point","coordinates":[-35.968347,-8.285295]},"properties":{"kind":"FIXED","limit_kmh":40,"source":"INMETRO+OSM","active":true,"direction_deg":null}},{"type":"Feature","geometry":{"type":"Point","coordinates":[-35.968252,-8.284203]},"properties":{"kind":"FIXED","limit_kmh":40,"source":"INMETRO+OSM","active":true,"direction_deg":null}},{"type":"Feature","geometry":{"type":"Point","coordinates":[-35.029809,-8.280697]},"properties":{"kind":"FIXED","limit_kmh":40,"source":"OSM","active":true,"direction_deg":null}},{"type":"Feature","geometry":{"type":"Point","coordinates":[-35.029976,-8.28064]},"properties":{"kind":"FIXED","limit_kmh":40,"source":"OSM","active":true,"direction_deg":null}},{"type":"Feature","geometry":{"type":"Point","coordinates":[-35.973042,-8.276634]},"properties":{"kind":"FIXED","limit_kmh":50,"source":"INMETRO+OSM","active":true,"direction_deg":null}},{"type":"Feature","geometry":{"type":"Point","coordinates":[-35.9814,-8.275978]},"properties":{"kind":"FIXED","limit_kmh":40,"source":"OSM","active":true,"direction_deg":null}},{"type":"Feature","geometry":{"type":"Point","coordinates":[-35.982295,-8.27591]},"properties":{"kind":"FIXED","limit_kmh":40,"source":"INMETRO+OSM","active":true,"direction_deg":null}},{"type":"Feature","geometry":{"type":"Point","coordinates":[-35.991588,-8.274453]},"properties":{"kind":"FIXED","limit_kmh":50,"source":"INMETRO+OSM","active":true,"direction_deg":null}},{"type":"Feature","geometry":{"type":"Point","coordinates":[-35.964016,-8.273448]},"properties":{"kind":"FIXED","limit_kmh":40,"source":"INMETRO+OSM","active":true,"direction_deg":null}},{"type":"Feature","geometry":{"type":"Point","coordinates":[-35.974878,-8.271934]},"properties":{"kind":"FIXED","limit_kmh":50,"source":"INMETRO+OSM","active":true,"direction_deg":null}},{"type":"Feature","geometry":{"type":"Point","coordinates":[-35.975123,-8.271787]},"properties":{"kind":"FIXED","limit_kmh":50,"source":"OSM","active":true,"direction_deg":null}},{"type":"Feature","geometry":{"type":"Point","coordinates":[-35.965933,-8.269821]},"properties":{"kind":"FIXED","limit_kmh":40,"source":"OSM","active":true,"direction_deg":null}},{"type":"Feature","geometry":{"type":"Point","coordinates":[-35.97825,-8.267228]},"properties":{"kind":"FIXED","limit_kmh":40,"source":"OSM","active":true,"direction_deg":null}},{"type":"Feature","geometry":{"type":"Point","coordinates":[-35.99927,-8.266765]},"properties":{"kind":"FIXED","limit_kmh":40,"source":"OSM","active":true,"direction_deg":null}},{"type":"Feature","geometry":{"type":"Point","coordinates":[-36.004734,-8.263943]},"properties":{"kind":"FIXED","limit_kmh":40,"source":"OSM","active":true,"direction_deg":null}},{"type":"Feature","geometry":{"type":"Point","coordinates":[-34.947077,-8.257598]},"properties":{"kind":"FIXED","limit_kmh":40,"source":"OSM","active":true,"direction_deg":null}},{"type":"Feature","geometry":{"type":"Point","coordinates":[-34.946979,-8.257461]},"properties":{"kind":"FIXED","limit_kmh":40,"source":"OSM","active":true,"direction_deg":null}},{"type":"Feature","geometry":{"type":"Point","coordinates":[-35.96452,-8.255232]},"properties":{"kind":"FIXED","limit_kmh":60,"source":"OSM","active":true,"direction_deg":null}},{"type":"Feature","geometry":{"type":"Point","coordinates":[-35.966424,-8.254724]},"properties":{"kind":"FIXED","limit_kmh":60,"source":"OSM","active":true,"direction_deg":null}},{"type":"Feature","geometry":{"type":"Point","coordinates":[-34.942201,-8.249394]},"properties":{"kind":"FIXED","limit_kmh":50,"source":"OSM","active":true,"direction_deg":null}},{"type":"Feature","geometry":{"type":"Point","coordinates":[-34.941409,-8.247747]},"properties":{"kind":"FIXED","limit_kmh":50,"source":"OSM","active":true,"direction_deg":null}},{"type":"Feature","geometry":{"type":"Point","coordinates":[-35.974866,-8.245656]},"properties":{"kind":"FIXED","limit_kmh":null,"source":"DNIT","active":true,"direction_deg":358}},{"type":"Feature","geometry":{"type":"Point","coordinates":[-35.975485,-8.243181]},"properties":{"kind":"FIXED","limit_kmh":60,"source":"DNIT+OSM","active":true,"direction_deg":178}},{"type":"Feature","geometry":{"type":"Point","coordinates":[-34.983635,-8.241623]},"properties":{"kind":"FIXED","limit_kmh":40,"source":"INMETRO","active":true,"direction_deg":null}},{"type":"Feature","geometry":{"type":"Point","coordinates":[-35.97534,-8.241617]},"properties":{"kind":"FIXED","limit_kmh":60,"source":"OSM","active":true,"direction_deg":null}},{"type":"Feature","geometry":{"type":"Point","coordinates":[-35.749942,-8.241364]},"properties":{"kind":"FIXED","limit_kmh":60,"source":"OSM","active":true,"direction_deg":null}},{"type":"Feature","geometry":{"type":"Point","coordinates":[-35.749741,-8.241097]},"properties":{"kind":"FIXED","limit_kmh":60,"source":"DER-PE+OSM","active":true,"direction_deg":null}},{"type":"Feature","geometry":{"type":"Point","coordinates":[-35.749328,-8.24085]},"properties":{"kind":"FIXED","limit_kmh":null,"source":"DER-PE","active":true,"direction_deg":null}},{"type":"Feature","geometry":{"type":"Point","coordinates":[-35.723745,-8.234894]},"properties":{"kind":"FIXED","limit_kmh":60,"source":"DER-PE+OSM","active":true,"direction_deg":null}},{"type":"Feature","geometry":{"type":"Point","coordinates":[-35.977005,-8.233821]},"properties":{"kind":"FIXED","limit_kmh":110,"source":"OSM","active":true,"direction_deg":null}},{"type":"Feature","geometry":{"type":"Point","coordinates":[-34.965836,-8.220476]},"properties":{"kind":"FIXED","limit_kmh":50,"source":"INMETRO","active":true,"direction_deg":null}},{"type":"Feature","geometry":{"type":"Point","coordinates":[-35.667519,-8.218737]},"properties":{"kind":"FIXED","limit_kmh":60,"source":"DER-PE+OSM","active":true,"direction_deg":null}},{"type":"Feature","geometry":{"type":"Point","coordinates":[-35.667018,-8.218674]},"properties":{"kind":"FIXED","limit_kmh":60,"source":"DER-PE+OSM","active":true,"direction_deg":null}},{"type":"Feature","geometry":{"type":"Point","coordinates":[-35.652143,-8.21698]},"properties":{"kind":"FIXED","limit_kmh":60,"source":"DER-PE+OSM","active":true,"direction_deg":null}},{"type":"Feature","geometry":{"type":"Point","coordinates":[-35.650289,-8.216831]},"properties":{"kind":"FIXED","limit_kmh":60,"source":"OSM","active":true,"direction_deg":null}},{"type":"Feature","geometry":{"type":"Point","coordinates":[-35.65189,-8.21682]},"properties":{"kind":"FIXED","limit_kmh":60,"source":"OSM","active":true,"direction_deg":null}},{"type":"Feature","geometry":{"type":"Point","coordinates":[-35.649435,-8.216729]},"properties":{"kind":"FIXED","limit_kmh":60,"source":"OSM","active":true,"direction_deg":null}},{"type":"Feature","geometry":{"type":"Point","coordinates":[-35.648991,-8.216588]},"properties":{"kind":"FIXED","limit_kmh":null,"source":"DER-PE","active":true,"direction_deg":null}},{"type":"Feature","geometry":{"type":"Point","coordinates":[-35.575339,-8.196668]},"properties":{"kind":"FIXED","limit_kmh":60,"source":"DER-PE+OSM","active":true,"direction_deg":null}},{"type":"Feature","geometry":{"type":"Point","coordinates":[-35.574917,-8.196583]},"properties":{"kind":"FIXED","limit_kmh":60,"source":"DER-PE+OSM","active":true,"direction_deg":null}},{"type":"Feature","geometry":{"type":"Point","coordinates":[-35.535287,-8.195364]},"properties":{"kind":"FIXED","limit_kmh":null,"source":"OSM","active":true,"direction_deg":null}},{"type":"Feature","geometry":{"type":"Point","coordinates":[-35.535737,-8.19529]},"properties":{"kind":"FIXED","limit_kmh":110,"source":"OSM","active":true,"direction_deg":null}},{"type":"Feature","geometry":{"type":"Point","coordinates":[-35.544538,-8.193224]},"properties":{"kind":"FIXED","limit_kmh":60,"source":"DER-PE+OSM","active":true,"direction_deg":null}},{"type":"Feature","geometry":{"type":"Point","coordinates":[-35.545049,-8.193098]},"properties":{"kind":"FIXED","limit_kmh":60,"source":"DER-PE+OSM","active":true,"direction_deg":null}},{"type":"Feature","geometry":{"type":"Point","coordinates":[-35.498755,-8.186365]},"properties":{"kind":"FIXED","limit_kmh":null,"source":"OSM","active":true,"direction_deg":null}},{"type":"Feature","geometry":{"type":"Point","coordinates":[-35.770806,-8.178384]},"properties":{"kind":"FIXED","limit_kmh":50,"source":"OSM","active":true,"direction_deg":null}},{"type":"Feature","geometry":{"type":"Point","coordinates":[-35.465315,-8.172971]},"properties":{"kind":"FIXED","limit_kmh":60,"source":"DER-PE+OSM","active":true,"direction_deg":null}},{"type":"Feature","geometry":{"type":"Point","coordinates":[-35.465579,-8.172837]},"properties":{"kind":"FIXED","limit_kmh":null,"source":"OSM","active":true,"direction_deg":null}},{"type":"Feature","geometry":{"type":"Point","coordinates":[-35.977846,-8.167437]},"properties":{"kind":"FIXED","limit_kmh":null,"source":"OSM","active":true,"direction_deg":null}},{"type":"Feature","geometry":{"type":"Point","coordinates":[-35.443877,-8.163953]},"properties":{"kind":"FIXED","limit_kmh":null,"source":"OSM","active":true,"direction_deg":null}},{"type":"Feature","geometry":{"type":"Point","coordinates":[-35.443612,-8.163885]},"properties":{"kind":"FIXED","limit_kmh":60,"source":"DER-PE+OSM","active":true,"direction_deg":null}},{"type":"Feature","geometry":{"type":"Point","coordinates":[-35.437014,-8.161803]},"properties":{"kind":"FIXED","limit_kmh":60,"source":"OSM","active":true,"direction_deg":null}},{"type":"Feature","geometry":{"type":"Point","coordinates":[-35.466325,-8.161793]},"properties":{"kind":"FIXED","limit_kmh":null,"source":"DER-PE","active":true,"direction_deg":null}},{"type":"Feature","geometry":{"type":"Point","coordinates":[-35.43654,-8.161732]},"properties":{"kind":"FIXED","limit_kmh":null,"source":"OSM","active":true,"direction_deg":null}},{"type":"Feature","geometry":{"type":"Point","coordinates":[-34.940717,-8.158244]},"properties":{"kind":"FIXED","limit_kmh":40,"source":"OSM","active":true,"direction_deg":null}},{"type":"Feature","geometry":{"type":"Point","coordinates":[-35.427523,-8.157047]},"properties":{"kind":"FIXED","limit_kmh":60,"source":"OSM","active":true,"direction_deg":null}},{"type":"Feature","geometry":{"type":"Point","coordinates":[-34.959718,-8.154264]},"properties":{"kind":"FIXED","limit_kmh":40,"source":"OSM","active":true,"direction_deg":null}},{"type":"Feature","geometry":{"type":"Point","coordinates":[-34.9594,-8.15417]},"properties":{"kind":"FIXED","limit_kmh":40,"source":"OSM","active":true,"direction_deg":null}},{"type":"Feature","geometry":{"type":"Point","coordinates":[-34.942931,-8.15175]},"properties":{"kind":"FIXED","limit_kmh":40,"source":"DNIT+OSM","active":true,"direction_deg":158}},{"type":"Feature","geometry":{"type":"Point","coordinates":[-35.399509,-8.147263]},"properties":{"kind":"FIXED","limit_kmh":60,"source":"OSM","active":true,"direction_deg":null}},{"type":"Feature","geometry":{"type":"Point","coordinates":[-35.393553,-8.146071]},"properties":{"kind":"FIXED","limit_kmh":60,"source":"DER-PE+OSM","active":true,"direction_deg":null}},{"type":"Feature","geometry":{"type":"Point","coordinates":[-35.393005,-8.145858]},"properties":{"kind":"FIXED","limit_kmh":null,"source":"DER-PE","active":true,"direction_deg":null}},{"type":"Feature","geometry":{"type":"Point","coordinates":[-35.393277,-8.145831]},"properties":{"kind":"FIXED","limit_kmh":60,"source":"OSM","active":true,"direction_deg":null}},{"type":"Feature","geometry":{"type":"Point","coordinates":[-34.906482,-8.14438]},"properties":{"kind":"FIXED","limit_kmh":60,"source":"PCR","active":true,"direction_deg":null}},{"type":"Feature","geometry":{"type":"Point","coordinates":[-34.903738,-8.142257]},"properties":{"kind":"FIXED","limit_kmh":60,"source":"OSM","active":true,"direction_deg":null}},{"type":"Feature","geometry":{"type":"Point","coordinates":[-35.382346,-8.141418]},"properties":{"kind":"FIXED","limit_kmh":60,"source":"OSM","active":true,"direction_deg":null}},{"type":"Feature","geometry":{"type":"Point","coordinates":[-34.903219,-8.14089]},"properties":{"kind":"FIXED","limit_kmh":60,"source":"PCR","active":true,"direction_deg":null}},{"type":"Feature","geometry":{"type":"Point","coordinates":[-34.903072,-8.140588]},"properties":{"kind":"FIXED","limit_kmh":60,"source":"OSM","active":true,"direction_deg":null}},{"type":"Feature","geometry":{"type":"Point","coordinates":[-34.947099,-8.139768]},"properties":{"kind":"FIXED","limit_kmh":40,"source":"DNIT+OSM","active":true,"direction_deg":null}},{"type":"Feature","geometry":{"type":"Point","coordinates":[-34.946978,-8.139425]},"properties":{"kind":"FIXED","limit_kmh":40,"source":"OSM","active":true,"direction_deg":null}},{"type":"Feature","geometry":{"type":"Point","coordinates":[-34.903309,-8.136419]},"properties":{"kind":"FIXED","limit_kmh":60,"source":"PCR","active":true,"direction_deg":null}},{"type":"Feature","geometry":{"type":"Point","coordinates":[-34.903607,-8.136321]},"properties":{"kind":"FIXED","limit_kmh":60,"source":"PCR","active":true,"direction_deg":null}},{"type":"Feature","geometry":{"type":"Point","coordinates":[-34.916209,-8.132622]},"properties":{"kind":"FIXED","limit_kmh":60,"source":"OSM","active":true,"direction_deg":null}},{"type":"Feature","geometry":{"type":"Point","coordinates":[-34.916381,-8.132612]},"properties":{"kind":"FIXED","limit_kmh":60,"source":"OSM","active":true,"direction_deg":null}},{"type":"Feature","geometry":{"type":"Point","coordinates":[-34.916159,-8.13106]},"properties":{"kind":"FIXED","limit_kmh":60,"source":"PCR","active":true,"direction_deg":null}},{"type":"Feature","geometry":{"type":"Point","coordinates":[-34.945033,-8.130669]},"properties":{"kind":"FIXED","limit_kmh":50,"source":"DNIT+OSM","active":true,"direction_deg":218}},{"type":"Feature","geometry":{"type":"Point","coordinates":[-34.915938,-8.130636]},"properties":{"kind":"FIXED","limit_kmh":60,"source":"PCR+OSM","active":true,"direction_deg":null}},{"type":"Feature","geometry":{"type":"Point","coordinates":[-34.898947,-8.129922]},"properties":{"kind":"FIXED","limit_kmh":60,"source":"OSM","active":true,"direction_deg":null}},{"type":"Feature","geometry":{"type":"Point","coordinates":[-34.915513,-8.128602]},"properties":{"kind":"FIXED","limit_kmh":60,"source":"OSM","active":true,"direction_deg":null}},{"type":"Feature","geometry":{"type":"Point","coordinates":[-34.915698,-8.128489]},"properties":{"kind":"FIXED","limit_kmh":60,"source":"OSM","active":true,"direction_deg":null}},{"type":"Feature","geometry":{"type":"Point","coordinates":[-34.900266,-8.128025]},"properties":{"kind":"FIXED","limit_kmh":60,"source":"PCR+INMETRO","active":true,"direction_deg":null}},{"type":"Feature","geometry":{"type":"Point","coordinates":[-34.91552,-8.127368]},"properties":{"kind":"FIXED","limit_kmh":60,"source":"PCR","active":true,"direction_deg":null}},{"type":"Feature","geometry":{"type":"Point","coordinates":[-34.917466,-8.122832]},"properties":{"kind":"FIXED","limit_kmh":50,"source":"INMETRO","active":true,"direction_deg":null}},{"type":"Feature","geometry":{"type":"Point","coordinates":[-35.282207,-8.122554]},"properties":{"kind":"FIXED","limit_kmh":40,"source":"OSM","active":true,"direction_deg":null}},{"type":"Feature","geometry":{"type":"Point","coordinates":[-34.918223,-8.121783]},"properties":{"kind":"FIXED","limit_kmh":50,"source":"PCR","active":true,"direction_deg":null}},{"type":"Feature","geometry":{"type":"Point","coordinates":[-34.91803,-8.121656]},"properties":{"kind":"FIXED","limit_kmh":50,"source":"PCR","active":true,"direction_deg":null}},{"type":"Feature","geometry":{"type":"Point","coordinates":[-34.909335,-8.121477]},"properties":{"kind":"FIXED","limit_kmh":50,"source":"PCR","active":true,"direction_deg":null}},{"type":"Feature","geometry":{"type":"Point","coordinates":[-34.89893,-8.121462]},"properties":{"kind":"FIXED","limit_kmh":60,"source":"PCR","active":true,"direction_deg":null}},{"type":"Feature","geometry":{"type":"Point","coordinates":[-34.909787,-8.121261]},"properties":{"kind":"FIXED","limit_kmh":50,"source":"PCR","active":true,"direction_deg":null}},{"type":"Feature","geometry":{"type":"Point","coordinates":[-34.919102,-8.120766]},"properties":{"kind":"FIXED","limit_kmh":50,"source":"INMETRO","active":true,"direction_deg":null}},{"type":"Feature","geometry":{"type":"Point","coordinates":[-35.265171,-8.120037]},"properties":{"kind":"FIXED","limit_kmh":60,"source":"OSM","active":true,"direction_deg":null}},{"type":"Feature","geometry":{"type":"Point","coordinates":[-35.264913,-8.119879]},"properties":{"kind":"FIXED","limit_kmh":null,"source":"DER-PE","active":true,"direction_deg":null}},{"type":"Feature","geometry":{"type":"Point","coordinates":[-35.264688,-8.119709]},"properties":{"kind":"FIXED","limit_kmh":60,"source":"OSM","active":true,"direction_deg":null}},{"type":"Feature","geometry":{"type":"Point","coordinates":[-35.259221,-8.116983]},"properties":{"kind":"FIXED","limit_kmh":null,"source":"DER-PE+OSM","active":true,"direction_deg":null}},{"type":"Feature","geometry":{"type":"Point","coordinates":[-35.281862,-8.116797]},"properties":{"kind":"FIXED","limit_kmh":40,"source":"OSM","active":true,"direction_deg":null}},{"type":"Feature","geometry":{"type":"Point","coordinates":[-35.258224,-8.116685]},"properties":{"kind":"FIXED","limit_kmh":60,"source":"OSM","active":true,"direction_deg":null}},{"type":"Feature","geometry":{"type":"Point","coordinates":[-34.904362,-8.116362]},"properties":{"kind":"FIXED","limit_kmh":50,"source":"PCR","active":true,"direction_deg":null}},{"type":"Feature","geometry":{"type":"Point","coordinates":[-34.904324,-8.11572]},"properties":{"kind":"FIXED","limit_kmh":50,"source":"PCR","active":true,"direction_deg":null}},{"type":"Feature","geometry":{"type":"Point","coordinates":[-34.900601,-8.115078]},"properties":{"kind":"FIXED","limit_kmh":60,"source":"PCR","active":true,"direction_deg":null}},{"type":"Feature","geometry":{"type":"Point","coordinates":[-34.945587,-8.113016]},"properties":{"kind":"FIXED","limit_kmh":null,"source":"DNIT","active":true,"direction_deg":null}},{"type":"Feature","geometry":{"type":"Point","coordinates":[-34.945479,-8.112655]},"properties":{"kind":"FIXED","limit_kmh":40,"source":"OSM","active":true,"direction_deg":null}},{"type":"Feature","geometry":{"type":"Point","coordinates":[-35.01259,-8.111597]},"properties":{"kind":"FIXED","limit_kmh":null,"source":"DER-PE","active":true,"direction_deg":null}},{"type":"Feature","geometry":{"type":"Point","coordinates":[-35.01215,-8.111422]},"properties":{"kind":"FIXED","limit_kmh":40,"source":"OSM","active":true,"direction_deg":null}},{"type":"Feature","geometry":{"type":"Point","coordinates":[-35.106885,-8.111365]},"properties":{"kind":"FIXED","limit_kmh":60,"source":"OSM","active":true,"direction_deg":null}},{"type":"Feature","geometry":{"type":"Point","coordinates":[-35.198104,-8.110266]},"properties":{"kind":"FIXED","limit_kmh":null,"source":"DER-PE+OSM","active":true,"direction_deg":null}},{"type":"Feature","geometry":{"type":"Point","coordinates":[-35.197569,-8.110103]},"properties":{"kind":"FIXED","limit_kmh":60,"source":"DER-PE+OSM","active":true,"direction_deg":null}},{"type":"Feature","geometry":{"type":"Point","coordinates":[-35.105624,-8.110062]},"properties":{"kind":"FIXED","limit_kmh":60,"source":"DER-PE+OSM","active":true,"direction_deg":null}},{"type":"Feature","geometry":{"type":"Point","coordinates":[-35.197938,-8.110045]},"properties":{"kind":"FIXED","limit_kmh":60,"source":"OSM","active":true,"direction_deg":null}},{"type":"Feature","geometry":{"type":"Point","coordinates":[-34.946721,-8.109959]},"properties":{"kind":"FIXED","limit_kmh":60,"source":"OSM","active":true,"direction_deg":null}},{"type":"Feature","geometry":{"type":"Point","coordinates":[-34.888895,-8.109292]},"properties":{"kind":"FIXED","limit_kmh":60,"source":"INMETRO","active":true,"direction_deg":null}},{"type":"Feature","geometry":{"type":"Point","coordinates":[-34.947332,-8.1087]},"properties":{"kind":"FIXED","limit_kmh":60,"source":"OSM","active":true,"direction_deg":null}},{"type":"Feature","geometry":{"type":"Point","coordinates":[-34.947166,-8.108619]},"properties":{"kind":"FIXED","limit_kmh":50,"source":"OSM","active":true,"direction_deg":null}},{"type":"Feature","geometry":{"type":"Point","coordinates":[-34.888161,-8.107843]},"properties":{"kind":"FIXED","limit_kmh":60,"source":"PCR","active":true,"direction_deg":null}},{"type":"Feature","geometry":{"type":"Point","coordinates":[-34.948116,-8.10748]},"properties":{"kind":"FIXED","limit_kmh":50,"source":"DNIT+OSM","active":true,"direction_deg":null}},{"type":"Feature","geometry":{"type":"Point","coordinates":[-34.91133,-8.106779]},"properties":{"kind":"FIXED","limit_kmh":60,"source":"PCR","active":true,"direction_deg":null}},{"type":"Feature","geometry":{"type":"Point","coordinates":[-34.911418,-8.105959]},"properties":{"kind":"FIXED","limit_kmh":60,"source":"PCR","active":true,"direction_deg":null}},{"type":"Feature","geometry":{"type":"Point","coordinates":[-34.892129,-8.105823]},"properties":{"kind":"FIXED","limit_kmh":60,"source":"PCR","active":true,"direction_deg":null}},{"type":"Feature","geometry":{"type":"Point","coordinates":[-34.891914,-8.105409]},"properties":{"kind":"FIXED","limit_kmh":60,"source":"PCR","active":true,"direction_deg":null}},{"type":"Feature","geometry":{"type":"Point","coordinates":[-34.889486,-8.105234]},"properties":{"kind":"FIXED","limit_kmh":60,"source":"PCR","active":true,"direction_deg":null}},{"type":"Feature","geometry":{"type":"Point","coordinates":[-34.886728,-8.104678]},"properties":{"kind":"FIXED","limit_kmh":60,"source":"OSM","active":true,"direction_deg":null}},{"type":"Feature","geometry":{"type":"Point","coordinates":[-34.913166,-8.10314]},"properties":{"kind":"FIXED","limit_kmh":40,"source":"PCR","active":true,"direction_deg":null}},{"type":"Feature","geometry":{"type":"Point","coordinates":[-34.928071,-8.100577]},"properties":{"kind":"FIXED","limit_kmh":60,"source":"PCR","active":true,"direction_deg":null}},{"type":"Feature","geometry":{"type":"Point","coordinates":[-34.928221,-8.100331]},"properties":{"kind":"FIXED","limit_kmh":60,"source":"PCR","active":true,"direction_deg":null}},{"type":"Feature","geometry":{"type":"Point","coordinates":[-34.886346,-8.100122]},"properties":{"kind":"FIXED","limit_kmh":60,"source":"OSM","active":true,"direction_deg":null}},{"type":"Feature","geometry":{"type":"Point","coordinates":[-34.928264,-8.099986]},"properties":{"kind":"FIXED","limit_kmh":60,"source":"OSM","active":true,"direction_deg":null}},{"type":"Feature","geometry":{"type":"Point","coordinates":[-34.94987,-8.099616]},"properties":{"kind":"FIXED","limit_kmh":50,"source":"DNIT","active":true,"direction_deg":346}},{"type":"Feature","geometry":{"type":"Point","coordinates":[-34.890255,-8.098984]},"properties":{"kind":"FIXED","limit_kmh":60,"source":"PCR","active":true,"direction_deg":null}},{"type":"Feature","geometry":{"type":"Point","coordinates":[-34.950236,-8.098785]},"properties":{"kind":"FIXED","limit_kmh":60,"source":"OSM","active":true,"direction_deg":null}},{"type":"Feature","geometry":{"type":"Point","coordinates":[-34.950063,-8.098741]},"properties":{"kind":"FIXED","limit_kmh":50,"source":"OSM","active":true,"direction_deg":null}},{"type":"Feature","geometry":{"type":"Point","coordinates":[-34.950003,-8.096842]},"properties":{"kind":"FIXED","limit_kmh":50,"source":"DNIT","active":true,"direction_deg":201}},{"type":"Feature","geometry":{"type":"Point","coordinates":[-34.909181,-8.094704]},"properties":{"kind":"FIXED","limit_kmh":60,"source":"PCR","active":true,"direction_deg":null}},{"type":"Feature","geometry":{"type":"Point","coordinates":[-34.965552,-8.094505]},"properties":{"kind":"FIXED","limit_kmh":null,"source":"OSM","active":true,"direction_deg":null}},{"type":"Feature","geometry":{"type":"Point","coordinates":[-34.909227,-8.093821]},"properties":{"kind":"FIXED","limit_kmh":60,"source":"PCR","active":true,"direction_deg":null}},{"type":"Feature","geometry":{"type":"Point","coordinates":[-34.961596,-8.09212]},"properties":{"kind":"FIXED","limit_kmh":50,"source":"PCR","active":true,"direction_deg":null}},{"type":"Feature","geometry":{"type":"Point","coordinates":[-34.936369,-8.091942]},"properties":{"kind":"FIXED","limit_kmh":60,"source":"OSM","active":true,"direction_deg":null}},{"type":"Feature","geometry":{"type":"Point","coordinates":[-34.882096,-8.0919]},"properties":{"kind":"FIXED","limit_kmh":60,"source":"PCR","active":true,"direction_deg":null}},{"type":"Feature","geometry":{"type":"Point","coordinates":[-34.936071,-8.091724]},"properties":{"kind":"FIXED","limit_kmh":50,"source":"PCR","active":true,"direction_deg":null}},{"type":"Feature","geometry":{"type":"Point","coordinates":[-34.935846,-8.091523]},"properties":{"kind":"FIXED","limit_kmh":60,"source":"OSM","active":true,"direction_deg":null}},{"type":"Feature","geometry":{"type":"Point","coordinates":[-34.955414,-8.090489]},"properties":{"kind":"FIXED","limit_kmh":50,"source":"PCR+INMETRO","active":true,"direction_deg":null}},{"type":"Feature","geometry":{"type":"Point","coordinates":[-34.954702,-8.090202]},"properties":{"kind":"FIXED","limit_kmh":50,"source":"PCR+INMETRO","active":true,"direction_deg":null}},{"type":"Feature","geometry":{"type":"Point","coordinates":[-34.946939,-8.089979]},"properties":{"kind":"FIXED","limit_kmh":50,"source":"DNIT","active":true,"direction_deg":182}},{"type":"Feature","geometry":{"type":"Point","coordinates":[-34.885222,-8.088917]},"properties":{"kind":"FIXED","limit_kmh":60,"source":"PCR","active":true,"direction_deg":null}},{"type":"Feature","geometry":{"type":"Point","coordinates":[-34.946908,-8.088877]},"properties":{"kind":"FIXED","limit_kmh":60,"source":"OSM","active":true,"direction_deg":null}},{"type":"Feature","geometry":{"type":"Point","coordinates":[-34.88377,-8.088326]},"properties":{"kind":"FIXED","limit_kmh":60,"source":"PCR+INMETRO","active":true,"direction_deg":null}},{"type":"Feature","geometry":{"type":"Point","coordinates":[-34.909934,-8.08742]},"properties":{"kind":"FIXED","limit_kmh":40,"source":"PCR+INMETRO","active":true,"direction_deg":null}},{"type":"Feature","geometry":{"type":"Point","coordinates":[-34.891217,-8.087257]},"properties":{"kind":"FIXED","limit_kmh":60,"source":"INMETRO+OSM","active":true,"direction_deg":null}},{"type":"Feature","geometry":{"type":"Point","coordinates":[-34.946284,-8.086852]},"properties":{"kind":"FIXED","limit_kmh":50,"source":"DNIT","active":true,"direction_deg":21}},{"type":"Feature","geometry":{"type":"Point","coordinates":[-37.640264,-8.086088]},"properties":{"kind":"FIXED","limit_kmh":40,"source":"DNIT","active":true,"direction_deg":null}},{"type":"Feature","geometry":{"type":"Point","coordinates":[-34.928018,-8.084653]},"properties":{"kind":"FIXED","limit_kmh":50,"source":"PCR","active":true,"direction_deg":null}},{"type":"Feature","geometry":{"type":"Point","coordinates":[-34.906977,-8.084485]},"properties":{"kind":"FIXED","limit_kmh":null,"source":"OSM","active":true,"direction_deg":null}},{"type":"Feature","geometry":{"type":"Point","coordinates":[-34.998434,-8.084069]},"properties":{"kind":"FIXED","limit_kmh":60,"source":"OSM","active":true,"direction_deg":null}},{"type":"Feature","geometry":{"type":"Point","coordinates":[-34.998179,-8.083909]},"properties":{"kind":"FIXED","limit_kmh":60,"source":"OSM","active":true,"direction_deg":null}},{"type":"Feature","geometry":{"type":"Point","coordinates":[-34.996406,-8.082805]},"properties":{"kind":"FIXED","limit_kmh":60,"source":"DER-PE+OSM","active":true,"direction_deg":null}},{"type":"Feature","geometry":{"type":"Point","coordinates":[-34.996147,-8.082629]},"properties":{"kind":"FIXED","limit_kmh":60,"source":"OSM","active":true,"direction_deg":null}},{"type":"Feature","geometry":{"type":"Point","coordinates":[-34.968347,-8.081067]},"properties":{"kind":"FIXED","limit_kmh":50,"source":"PCR","active":true,"direction_deg":null}},{"type":"Feature","geometry":{"type":"Point","coordinates":[-34.917056,-8.080834]},"properties":{"kind":"FIXED","limit_kmh":50,"source":"PCR+INMETRO","active":true,"direction_deg":null}},{"type":"Feature","geometry":{"type":"Point","coordinates":[-34.891213,-8.080763]},"properties":{"kind":"FIXED","limit_kmh":60,"source":"PCR","active":true,"direction_deg":null}},{"type":"Feature","geometry":{"type":"Point","coordinates":[-34.917566,-8.080743]},"properties":{"kind":"FIXED","limit_kmh":50,"source":"PCR+INMETRO","active":true,"direction_deg":null}},{"type":"Feature","geometry":{"type":"Point","coordinates":[-34.943045,-8.080398]},"properties":{"kind":"FIXED","limit_kmh":50,"source":"OSM","active":true,"direction_deg":null}},{"type":"Feature","geometry":{"type":"Point","coordinates":[-34.94322,-8.080372]},"properties":{"kind":"FIXED","limit_kmh":50,"source":"OSM","active":true,"direction_deg":null}},{"type":"Feature","geometry":{"type":"Point","coordinates":[-36.043534,-8.080104]},"properties":{"kind":"FIXED","limit_kmh":50,"source":"DNIT","active":true,"direction_deg":null}},{"type":"Feature","geometry":{"type":"Point","coordinates":[-34.892157,-8.080084]},"properties":{"kind":"FIXED","limit_kmh":60,"source":"PCR","active":true,"direction_deg":null}},{"type":"Feature","geometry":{"type":"Point","coordinates":[-34.892762,-8.079589]},"properties":{"kind":"FIXED","limit_kmh":60,"source":"PCR+INMETRO","active":true,"direction_deg":null}},{"type":"Feature","geometry":{"type":"Point","coordinates":[-39.131152,-8.079124]},"properties":{"kind":"FIXED","limit_kmh":null,"source":"DNIT","active":false,"direction_deg":null}},{"type":"Feature","geometry":{"type":"Point","coordinates":[-34.943226,-8.079112]},"properties":{"kind":"FIXED","limit_kmh":50,"source":"DNIT","active":true,"direction_deg":null}},{"type":"Feature","geometry":{"type":"Point","coordinates":[-34.892062,-8.078603]},"properties":{"kind":"FIXED","limit_kmh":60,"source":"OSM","active":true,"direction_deg":null}},{"type":"Feature","geometry":{"type":"Point","coordinates":[-34.892231,-8.078456]},"properties":{"kind":"FIXED","limit_kmh":60,"source":"OSM","active":true,"direction_deg":null}},{"type":"Feature","geometry":{"type":"Point","coordinates":[-34.887832,-8.075645]},"properties":{"kind":"FIXED","limit_kmh":40,"source":"PCR","active":true,"direction_deg":null}},{"type":"Feature","geometry":{"type":"Point","coordinates":[-34.937033,-8.074423]},"properties":{"kind":"FIXED","limit_kmh":50,"source":"OSM","active":true,"direction_deg":null}},{"type":"Feature","geometry":{"type":"Point","coordinates":[-34.936925,-8.074344]},"properties":{"kind":"FIXED","limit_kmh":50,"source":"OSM","active":true,"direction_deg":null}},{"type":"Feature","geometry":{"type":"Point","coordinates":[-34.883305,-8.074039]},"properties":{"kind":"FIXED","limit_kmh":40,"source":"PCR","active":true,"direction_deg":null}},{"type":"Feature","geometry":{"type":"Point","coordinates":[-34.877906,-8.071734]},"properties":{"kind":"FIXED","limit_kmh":40,"source":"PCR","active":true,"direction_deg":null}},{"type":"Feature","geometry":{"type":"Point","coordinates":[-39.133796,-8.071059]},"properties":{"kind":"FIXED","limit_kmh":null,"source":"DNIT","active":false,"direction_deg":null}},{"type":"Feature","geometry":{"type":"Point","coordinates":[-34.939778,-8.070548]},"properties":{"kind":"FIXED","limit_kmh":50,"source":"DNIT","active":true,"direction_deg":null}},{"type":"Feature","geometry":{"type":"Point","coordinates":[-34.896009,-8.070348]},"properties":{"kind":"FIXED","limit_kmh":60,"source":"PCR","active":true,"direction_deg":null}},{"type":"Feature","geometry":{"type":"Point","coordinates":[-34.896352,-8.070208]},"properties":{"kind":"FIXED","limit_kmh":60,"source":"PCR","active":true,"direction_deg":null}},{"type":"Feature","geometry":{"type":"Point","coordinates":[-34.927845,-8.067404]},"properties":{"kind":"FIXED","limit_kmh":40,"source":"PCR+INMETRO","active":true,"direction_deg":null}},{"type":"Feature","geometry":{"type":"Point","coordinates":[-34.927726,-8.067065]},"properties":{"kind":"FIXED","limit_kmh":40,"source":"OSM","active":true,"direction_deg":null}},{"type":"Feature","geometry":{"type":"Point","coordinates":[-39.131041,-8.065115]},"properties":{"kind":"FIXED","limit_kmh":null,"source":"DNIT","active":false,"direction_deg":null}},{"type":"Feature","geometry":{"type":"Point","coordinates":[-34.871841,-8.06412]},"properties":{"kind":"FIXED","limit_kmh":30,"source":"OSM","active":true,"direction_deg":null}},{"type":"Feature","geometry":{"type":"Point","coordinates":[-34.935626,-8.064071]},"properties":{"kind":"FIXED","limit_kmh":60,"source":"PCR+OSM","active":true,"direction_deg":null}},{"type":"Feature","geometry":{"type":"Point","coordinates":[-34.935763,-8.063998]},"properties":{"kind":"FIXED","limit_kmh":60,"source":"PCR+OSM","active":true,"direction_deg":null}},{"type":"Feature","geometry":{"type":"Point","coordinates":[-34.934835,-8.063733]},"properties":{"kind":"FIXED","limit_kmh":40,"source":"OSM","active":true,"direction_deg":null}},{"type":"Feature","geometry":{"type":"Point","coordinates":[-34.917508,-8.062475]},"properties":{"kind":"FIXED","limit_kmh":60,"source":"PCR+OSM","active":true,"direction_deg":null}},{"type":"Feature","geometry":{"type":"Point","coordinates":[-34.916851,-8.062356]},"properties":{"kind":"FIXED","limit_kmh":60,"source":"PCR+OSM","active":true,"direction_deg":null}},{"type":"Feature","geometry":{"type":"Point","coordinates":[-34.897746,-8.062177]},"properties":{"kind":"FIXED","limit_kmh":60,"source":"PCR","active":true,"direction_deg":null}},{"type":"Feature","geometry":{"type":"Point","coordinates":[-39.117006,-8.061441]},"properties":{"kind":"FIXED","limit_kmh":null,"source":"DNIT","active":false,"direction_deg":null}},{"type":"Feature","geometry":{"type":"Point","coordinates":[-34.883237,-8.061173]},"properties":{"kind":"FIXED","limit_kmh":40,"source":"PCR","active":true,"direction_deg":null}},{"type":"Feature","geometry":{"type":"Point","coordinates":[-39.105957,-8.060006]},"properties":{"kind":"FIXED","limit_kmh":null,"source":"DNIT","active":true,"direction_deg":null}},{"type":"Feature","geometry":{"type":"Point","coordinates":[-34.899694,-8.056833]},"properties":{"kind":"FIXED","limit_kmh":50,"source":"PCR","active":true,"direction_deg":null}},{"type":"Feature","geometry":{"type":"Point","coordinates":[-34.897925,-8.056681]},"properties":{"kind":"FIXED","limit_kmh":null,"source":"OSM","active":true,"direction_deg":null}},{"type":"Feature","geometry":{"type":"Point","coordinates":[-34.908972,-8.05513]},"properties":{"kind":"FIXED","limit_kmh":50,"source":"PCR","active":true,"direction_deg":null}},{"type":"Feature","geometry":{"type":"Point","coordinates":[-34.902176,-8.052065]},"properties":{"kind":"FIXED","limit_kmh":40,"source":"PCR+OSM","active":true,"direction_deg":null}},{"type":"Feature","geometry":{"type":"Point","coordinates":[-34.895025,-8.051737]},"properties":{"kind":"FIXED","limit_kmh":60,"source":"PCR","active":true,"direction_deg":null}},{"type":"Feature","geometry":{"type":"Point","coordinates":[-34.885864,-8.043165]},"properties":{"kind":"FIXED","limit_kmh":60,"source":"PCR+INMETRO","active":true,"direction_deg":null}},{"type":"Feature","geometry":{"type":"Point","coordinates":[-34.883727,-8.041789]},"properties":{"kind":"FIXED","limit_kmh":60,"source":"OSM","active":true,"direction_deg":null}},{"type":"Feature","geometry":{"type":"Point","coordinates":[-34.883278,-8.041536]},"properties":{"kind":"FIXED","limit_kmh":60,"source":"PCR","active":true,"direction_deg":null}},{"type":"Feature","geometry":{"type":"Point","coordinates":[-34.903335,-8.041194]},"properties":{"kind":"FIXED","limit_kmh":40,"source":"PCR+INMETRO","active":true,"direction_deg":null}},{"type":"Feature","geometry":{"type":"Point","coordinates":[-34.942497,-8.040449]},"properties":{"kind":"FIXED","limit_kmh":null,"source":"OSM","active":true,"direction_deg":null}},{"type":"Feature","geometry":{"type":"Point","coordinates":[-34.878934,-8.039954]},"properties":{"kind":"FIXED","limit_kmh":60,"source":"PCR","active":true,"direction_deg":null}},{"type":"Feature","geometry":{"type":"Point","coordinates":[-34.878737,-8.039473]},"properties":{"kind":"FIXED","limit_kmh":60,"source":"PCR","active":true,"direction_deg":null}},{"type":"Feature","geometry":{"type":"Point","coordinates":[-34.957554,-8.039281]},"properties":{"kind":"FIXED","limit_kmh":40,"source":"PCR+INMETRO+OSM","active":true,"direction_deg":null}},{"type":"Feature","geometry":{"type":"Point","coordinates":[-34.930116,-8.039025]},"properties":{"kind":"FIXED","limit_kmh":40,"source":"PCR","active":true,"direction_deg":null}},{"type":"Feature","geometry":{"type":"Point","coordinates":[-34.876789,-8.038962]},"properties":{"kind":"FIXED","limit_kmh":null,"source":"OSM","active":true,"direction_deg":null}},{"type":"Feature","geometry":{"type":"Point","coordinates":[-34.892,-8.038574]},"properties":{"kind":"FIXED","limit_kmh":60,"source":"PCR","active":true,"direction_deg":null}},{"type":"Feature","geometry":{"type":"Point","coordinates":[-34.945778,-8.036739]},"properties":{"kind":"FIXED","limit_kmh":null,"source":"OSM","active":true,"direction_deg":null}},{"type":"Feature","geometry":{"type":"Point","coordinates":[-34.949951,-8.034399]},"properties":{"kind":"FIXED","limit_kmh":60,"source":"PCR","active":true,"direction_deg":null}},{"type":"Feature","geometry":{"type":"Point","coordinates":[-34.896475,-8.033536]},"properties":{"kind":"FIXED","limit_kmh":60,"source":"PCR","active":true,"direction_deg":null}},{"type":"Feature","geometry":{"type":"Point","coordinates":[-34.903116,-8.032822]},"properties":{"kind":"FIXED","limit_kmh":50,"source":"PCR+INMETRO","active":true,"direction_deg":null}},{"type":"Feature","geometry":{"type":"Point","coordinates":[-34.943007,-8.030126]},"properties":{"kind":"FIXED","limit_kmh":40,"source":"DNIT+OSM","active":true,"direction_deg":null}},{"type":"Feature","geometry":{"type":"Point","coordinates":[-34.900494,-8.029633]},"properties":{"kind":"FIXED","limit_kmh":60,"source":"PCR","active":true,"direction_deg":null}},{"type":"Feature","geometry":{"type":"Point","coordinates":[-34.892898,-8.02792]},"properties":{"kind":"FIXED","limit_kmh":50,"source":"PCR","active":true,"direction_deg":null}},{"type":"Feature","geometry":{"type":"Point","coordinates":[-34.897962,-8.026749]},"properties":{"kind":"FIXED","limit_kmh":60,"source":"PCR","active":true,"direction_deg":null}},{"type":"Feature","geometry":{"type":"Point","coordinates":[-34.863586,-8.025423]},"properties":{"kind":"FIXED","limit_kmh":40,"source":"OSM","active":true,"direction_deg":null}},{"type":"Feature","geometry":{"type":"Point","coordinates":[-34.862013,-8.022977]},"properties":{"kind":"FIXED","limit_kmh":50,"source":"OSM","active":true,"direction_deg":null}},{"type":"Feature","geometry":{"type":"Point","coordinates":[-34.928277,-8.018334]},"properties":{"kind":"FIXED","limit_kmh":60,"source":"PCR","active":true,"direction_deg":null}},{"type":"Feature","geometry":{"type":"Point","coordinates":[-35.012556,-8.01575]},"properties":{"kind":"FIXED","limit_kmh":null,"source":"DER-PE","active":true,"direction_deg":null}},{"type":"Feature","geometry":{"type":"Point","coordinates":[-34.890163,-8.015031]},"properties":{"kind":"FIXED","limit_kmh":50,"source":"PCR","active":true,"direction_deg":null}},{"type":"Feature","geometry":{"type":"Point","coordinates":[-34.889432,-8.012925]},"properties":{"kind":"FIXED","limit_kmh":50,"source":"PCR","active":true,"direction_deg":null}},{"type":"Feature","geometry":{"type":"Point","coordinates":[-34.84337,-8.012738]},"properties":{"kind":"FIXED","limit_kmh":40,"source":"INMETRO","active":true,"direction_deg":null}},{"type":"Feature","geometry":{"type":"Point","coordinates":[-34.938516,-8.012348]},"properties":{"kind":"FIXED","limit_kmh":50,"source":"DNIT","active":true,"direction_deg":null}},{"type":"Feature","geometry":{"type":"Point","coordinates":[-34.937922,-8.011799]},"properties":{"kind":"FIXED","limit_kmh":60,"source":"OSM","active":true,"direction_deg":null}},{"type":"Feature","geometry":{"type":"Point","coordinates":[-34.938136,-8.011777]},"properties":{"kind":"FIXED","limit_kmh":60,"source":"OSM","active":true,"direction_deg":null}},{"type":"Feature","geometry":{"type":"Point","coordinates":[-34.889407,-8.011713]},"properties":{"kind":"FIXED","limit_kmh":50,"source":"PCR","active":true,"direction_deg":null}},{"type":"Feature","geometry":{"type":"Point","coordinates":[-34.891721,-8.006204]},"properties":{"kind":"FIXED","limit_kmh":50,"source":"PCR","active":true,"direction_deg":null}},{"type":"Feature","geometry":{"type":"Point","coordinates":[-34.893441,-8.005138]},"properties":{"kind":"FIXED","limit_kmh":50,"source":"PCR","active":true,"direction_deg":null}},{"type":"Feature","geometry":{"type":"Point","coordinates":[-34.93777,-7.994251]},"properties":{"kind":"FIXED","limit_kmh":50,"source":"OSM","active":true,"direction_deg":null}},{"type":"Feature","geometry":{"type":"Point","coordinates":[-34.937907,-7.99421]},"properties":{"kind":"FIXED","limit_kmh":60,"source":"OSM","active":true,"direction_deg":null}},{"type":"Feature","geometry":{"type":"Point","coordinates":[-34.938044,-7.994082]},"properties":{"kind":"FIXED","limit_kmh":60,"source":"OSM","active":true,"direction_deg":null}},{"type":"Feature","geometry":{"type":"Point","coordinates":[-34.936836,-7.993063]},"properties":{"kind":"FIXED","limit_kmh":50,"source":"OSM","active":true,"direction_deg":null}},{"type":"Feature","geometry":{"type":"Point","coordinates":[-35.052831,-7.988463]},"properties":{"kind":"FIXED","limit_kmh":40,"source":"OSM","active":true,"direction_deg":null}},{"type":"Feature","geometry":{"type":"Point","coordinates":[-35.053126,-7.98806]},"properties":{"kind":"FIXED","limit_kmh":40,"source":"OSM","active":true,"direction_deg":null}},{"type":"Feature","geometry":{"type":"Point","coordinates":[-34.933438,-7.987748]},"properties":{"kind":"FIXED","limit_kmh":50,"source":"OSM","active":true,"direction_deg":null}},{"type":"Feature","geometry":{"type":"Point","coordinates":[-34.933788,-7.987322]},"properties":{"kind":"FIXED","limit_kmh":60,"source":"DNIT+OSM","active":true,"direction_deg":null}},{"type":"Feature","geometry":{"type":"Point","coordinates":[-38.282787,-7.983266]},"properties":{"kind":"FIXED","limit_kmh":40,"source":"OSM","active":true,"direction_deg":null}},{"type":"Feature","geometry":{"type":"Point","coordinates":[-34.931832,-7.981874]},"properties":{"kind":"FIXED","limit_kmh":50,"source":"DNIT+OSM","active":true,"direction_deg":22}},{"type":"Feature","geometry":{"type":"Point","coordinates":[-35.073103,-7.979216]},"properties":{"kind":"FIXED","limit_kmh":null,"source":"OSM","active":true,"direction_deg":null}},{"type":"Feature","geometry":{"type":"Point","coordinates":[-34.980929,-7.976312]},"properties":{"kind":"FIXED","limit_kmh":40,"source":"OSM","active":true,"direction_deg":null}},{"type":"Feature","geometry":{"type":"Point","coordinates":[-34.923961,-7.975817]},"properties":{"kind":"FIXED","limit_kmh":50,"source":"DNIT","active":true,"direction_deg":null}},{"type":"Feature","geometry":{"type":"Point","coordinates":[-34.923189,-7.975777]},"properties":{"kind":"FIXED","limit_kmh":50,"source":"OSM","active":true,"direction_deg":null}},{"type":"Feature","geometry":{"type":"Point","coordinates":[-34.833826,-7.973626]},"properties":{"kind":"FIXED","limit_kmh":40,"source":"INMETRO","active":true,"direction_deg":null}},{"type":"Feature","geometry":{"type":"Point","coordinates":[-34.866605,-7.969241]},"properties":{"kind":"FIXED","limit_kmh":60,"source":"OSM","active":true,"direction_deg":null}},{"type":"Feature","geometry":{"type":"Point","coordinates":[-34.867415,-7.968136]},"properties":{"kind":"FIXED","limit_kmh":60,"source":"OSM","active":true,"direction_deg":null}},{"type":"Feature","geometry":{"type":"Point","coordinates":[-34.916878,-7.965346]},"properties":{"kind":"FIXED","limit_kmh":50,"source":"DNIT+OSM","active":true,"direction_deg":43}},{"type":"Feature","geometry":{"type":"Point","coordinates":[-34.91569,-7.963986]},"properties":{"kind":"FIXED","limit_kmh":60,"source":"OSM","active":true,"direction_deg":null}},{"type":"Feature","geometry":{"type":"Point","coordinates":[-34.915976,-7.963438]},"properties":{"kind":"FIXED","limit_kmh":60,"source":"DNIT+OSM","active":true,"direction_deg":223}},{"type":"Feature","geometry":{"type":"Point","coordinates":[-35.012244,-7.959295]},"properties":{"kind":"FIXED","limit_kmh":40,"source":"OSM","active":true,"direction_deg":null}},{"type":"Feature","geometry":{"type":"Point","coordinates":[-34.872316,-7.948995]},"properties":{"kind":"FIXED","limit_kmh":60,"source":"OSM","active":true,"direction_deg":null}},{"type":"Feature","geometry":{"type":"Point","coordinates":[-34.872363,-7.948876]},"properties":{"kind":"FIXED","limit_kmh":60,"source":"OSM","active":true,"direction_deg":null}},{"type":"Feature","geometry":{"type":"Point","coordinates":[-34.877552,-7.94389]},"properties":{"kind":"FIXED","limit_kmh":40,"source":"OSM","active":true,"direction_deg":null}},{"type":"Feature","geometry":{"type":"Point","coordinates":[-34.877643,-7.942233]},"properties":{"kind":"FIXED","limit_kmh":40,"source":"OSM","active":true,"direction_deg":null}},{"type":"Feature","geometry":{"type":"Point","coordinates":[-34.877963,-7.942183]},"properties":{"kind":"FIXED","limit_kmh":40,"source":"OSM","active":true,"direction_deg":null}},{"type":"Feature","geometry":{"type":"Point","coordinates":[-34.979988,-7.939847]},"properties":{"kind":"FIXED","limit_kmh":null,"source":"OSM","active":true,"direction_deg":null}},{"type":"Feature","geometry":{"type":"Point","coordinates":[-34.880662,-7.93746]},"properties":{"kind":"FIXED","limit_kmh":60,"source":"OSM","active":true,"direction_deg":null}},{"type":"Feature","geometry":{"type":"Point","coordinates":[-34.898938,-7.914179]},"properties":{"kind":"FIXED","limit_kmh":40,"source":"OSM","active":true,"direction_deg":null}},{"type":"Feature","geometry":{"type":"Point","coordinates":[-34.899606,-7.91381]},"properties":{"kind":"FIXED","limit_kmh":50,"source":"DNIT+OSM","active":true,"direction_deg":null}},{"type":"Feature","geometry":{"type":"Point","coordinates":[-34.899611,-7.913216]},"properties":{"kind":"FIXED","limit_kmh":60,"source":"OSM","active":true,"direction_deg":null}},{"type":"Feature","geometry":{"type":"Point","coordinates":[-34.900223,-7.912841]},"properties":{"kind":"FIXED","limit_kmh":60,"source":"OSM","active":true,"direction_deg":null}},{"type":"Feature","geometry":{"type":"Point","coordinates":[-34.902513,-7.897415]},"properties":{"kind":"FIXED","limit_kmh":60,"source":"OSM","active":true,"direction_deg":null}},{"type":"Feature","geometry":{"type":"Point","coordinates":[-34.903005,-7.896513]},"properties":{"kind":"FIXED","limit_kmh":50,"source":"DNIT+OSM","active":true,"direction_deg":171}},{"type":"Feature","geometry":{"type":"Point","coordinates":[-34.902818,-7.896306]},"properties":{"kind":"FIXED","limit_kmh":50,"source":"OSM","active":true,"direction_deg":null}},{"type":"Feature","geometry":{"type":"Point","coordinates":[-34.825836,-7.891469]},"properties":{"kind":"FIXED","limit_kmh":null,"source":"OSM","active":true,"direction_deg":null}},{"type":"Feature","geometry":{"type":"Point","coordinates":[-34.903471,-7.890728]},"properties":{"kind":"FIXED","limit_kmh":40,"source":"OSM","active":true,"direction_deg":null}},{"type":"Feature","geometry":{"type":"Point","coordinates":[-34.903623,-7.890695]},"properties":{"kind":"FIXED","limit_kmh":50,"source":"OSM","active":true,"direction_deg":null}},{"type":"Feature","geometry":{"type":"Point","coordinates":[-34.903881,-7.890484]},"properties":{"kind":"FIXED","limit_kmh":40,"source":"DNIT+OSM","active":true,"direction_deg":null}},{"type":"Feature","geometry":{"type":"Point","coordinates":[-34.903529,-7.890131]},"properties":{"kind":"FIXED","limit_kmh":40,"source":"DNIT","active":true,"direction_deg":352}},{"type":"Feature","geometry":{"type":"Point","coordinates":[-34.903751,-7.88861]},"properties":{"kind":"FIXED","limit_kmh":60,"source":"OSM","active":true,"direction_deg":null}},{"type":"Feature","geometry":{"type":"Point","coordinates":[-34.904071,-7.888416]},"properties":{"kind":"FIXED","limit_kmh":60,"source":"OSM","active":true,"direction_deg":null}},{"type":"Feature","geometry":{"type":"Point","coordinates":[-34.906578,-7.871518]},"properties":{"kind":"FIXED","limit_kmh":40,"source":"DNIT","active":true,"direction_deg":null}},{"type":"Feature","geometry":{"type":"Point","coordinates":[-34.906256,-7.871384]},"properties":{"kind":"FIXED","limit_kmh":60,"source":"OSM","active":true,"direction_deg":null}},{"type":"Feature","geometry":{"type":"Point","coordinates":[-34.906599,-7.870889]},"properties":{"kind":"FIXED","limit_kmh":50,"source":"OSM","active":true,"direction_deg":null}},{"type":"Feature","geometry":{"type":"Point","coordinates":[-34.907616,-7.861958]},"properties":{"kind":"FIXED","limit_kmh":50,"source":"OSM","active":true,"direction_deg":null}},{"type":"Feature","geometry":{"type":"Point","coordinates":[-34.907791,-7.861721]},"properties":{"kind":"FIXED","limit_kmh":50,"source":"OSM","active":true,"direction_deg":null}},{"type":"Feature","geometry":{"type":"Point","coordinates":[-34.908047,-7.861531]},"properties":{"kind":"FIXED","limit_kmh":40,"source":"DNIT+OSM","active":true,"direction_deg":null}},{"type":"Feature","geometry":{"type":"Point","coordinates":[-34.908861,-7.855296]},"properties":{"kind":"FIXED","limit_kmh":50,"source":"OSM","active":true,"direction_deg":null}},{"type":"Feature","geometry":{"type":"Point","coordinates":[-34.908756,-7.855043]},"properties":{"kind":"FIXED","limit_kmh":50,"source":"OSM","active":true,"direction_deg":null}},{"type":"Feature","geometry":{"type":"Point","coordinates":[-34.908757,-7.853942]},"properties":{"kind":"FIXED","limit_kmh":40,"source":"OSM","active":true,"direction_deg":null}},{"type":"Feature","geometry":{"type":"Point","coordinates":[-35.238685,-7.845172]},"properties":{"kind":"FIXED","limit_kmh":null,"source":"DNIT","active":true,"direction_deg":null}},{"type":"Feature","geometry":{"type":"Point","coordinates":[-35.268932,-7.842686]},"properties":{"kind":"FIXED","limit_kmh":40,"source":"OSM","active":true,"direction_deg":null}},{"type":"Feature","geometry":{"type":"Point","coordinates":[-34.916335,-7.82154]},"properties":{"kind":"FIXED","limit_kmh":50,"source":"DNIT+OSM","active":true,"direction_deg":346}},{"type":"Feature","geometry":{"type":"Point","coordinates":[-34.917179,-7.81931]},"properties":{"kind":"FIXED","limit_kmh":50,"source":"DNIT+OSM","active":true,"direction_deg":164}},{"type":"Feature","geometry":{"type":"Point","coordinates":[-34.926382,-7.802461]},"properties":{"kind":"FIXED","limit_kmh":80,"source":"OSM","active":true,"direction_deg":null}},{"type":"Feature","geometry":{"type":"Point","coordinates":[-34.899605,-7.776121]},"properties":{"kind":"FIXED","limit_kmh":40,"source":"OSM","active":true,"direction_deg":null}},{"type":"Feature","geometry":{"type":"Point","coordinates":[-34.891677,-7.773921]},"properties":{"kind":"FIXED","limit_kmh":null,"source":"OSM","active":true,"direction_deg":null}},{"type":"Feature","geometry":{"type":"Point","coordinates":[-34.896845,-7.773528]},"properties":{"kind":"FIXED","limit_kmh":40,"source":"OSM","active":true,"direction_deg":null}},{"type":"Feature","geometry":{"type":"Point","coordinates":[-35.234187,-7.747923]},"properties":{"kind":"FIXED","limit_kmh":null,"source":"DNIT","active":true,"direction_deg":null}},{"type":"Feature","geometry":{"type":"Point","coordinates":[-34.924789,-7.682545]},"properties":{"kind":"FIXED","limit_kmh":80,"source":"OSM","active":true,"direction_deg":null}},{"type":"Feature","geometry":{"type":"Point","coordinates":[-34.983724,-7.596047]},"properties":{"kind":"FIXED","limit_kmh":80,"source":"OSM","active":true,"direction_deg":null}},{"type":"Feature","geometry":{"type":"Point","coordinates":[-40.494341,-7.593422]},"properties":{"kind":"FIXED","limit_kmh":null,"source":"DNIT","active":true,"direction_deg":null}},{"type":"Feature","geometry":{"type":"Point","coordinates":[-35.008303,-7.565696]},"properties":{"kind":"FIXED","limit_kmh":40,"source":"OSM","active":true,"direction_deg":null}},{"type":"Feature","geometry":{"type":"Point","coordinates":[-34.991005,-7.559362]},"properties":{"kind":"FIXED","limit_kmh":60,"source":"DNIT","active":true,"direction_deg":173}},{"type":"Feature","geometry":{"type":"Point","coordinates":[-34.990927,-7.558573]},"properties":{"kind":"FIXED","limit_kmh":80,"source":"OSM","active":true,"direction_deg":null}},{"type":"Feature","geometry":{"type":"Point","coordinates":[-34.995357,-7.521448]},"properties":{"kind":"FIXED","limit_kmh":60,"source":"OSM","active":false,"direction_deg":null}},{"type":"Feature","geometry":{"type":"Point","coordinates":[-34.992257,-7.517011]},"properties":{"kind":"FIXED","limit_kmh":80,"source":"OSM","active":false,"direction_deg":null}},{"type":"Feature","geometry":{"type":"Point","coordinates":[-34.991927,-7.516803]},"properties":{"kind":"FIXED","limit_kmh":100,"source":"OSM","active":false,"direction_deg":null}},{"type":"Feature","geometry":{"type":"Point","coordinates":[-34.985126,-7.500006]},"properties":{"kind":"FIXED","limit_kmh":null,"source":"DNIT","active":true,"direction_deg":187}}]}