<?xml version="1.0" encoding="UTF-8"?>
<kml xmlns="http://www.opengis.net/kml/2.2"><Document>
<name>Pardal — radares — PE</name>
<description>Pardal — © colaboradores do OpenStreetMap (ODbL 1.0) e fontes abertas listadas no README</description>
<Folder><name>Radares de velocidade</name>
<Placemark><name>Radar</name><description>Fonte: OSM</description><Point><coordinates>-40.505697,-9.401460,0</coordinates></Point></Placemark>
<Placemark><name>Radar 60 km/h</name><description>Fonte: OSM</description><Point><coordinates>-40.491653,-9.397562,0</coordinates></Point></Placemark>
<Placemark><name>Radar 60 km/h</name><description>Fonte: OSM</description><Point><coordinates>-40.530553,-9.392854,0</coordinates></Point></Placemark>
<Placemark><name>Radar 60 km/h</name><description>Fonte: OSM</description><Point><coordinates>-40.489275,-9.389333,0</coordinates></Point></Placemark>
<Placemark><name>Radar</name><description>Fonte: OSM</description><Point><coordinates>-40.509968,-9.385029,0</coordinates></Point></Placemark>
<Placemark><name>Radar 40 km/h</name><description>Fonte: OSM</description><Point><coordinates>-40.533245,-9.379984,0</coordinates></Point></Placemark>
<Placemark><name>Radar 40 km/h</name><description>Fonte: OSM</description><Point><coordinates>-40.534759,-9.378796,0</coordinates></Point></Placemark>
<Placemark><name>Radar 60 km/h</name><description>Fonte: OSM</description><Point><coordinates>-40.498895,-9.364473,0</coordinates></Point></Placemark>
<Placemark><name>Radar</name><description>Fonte: OSM</description><Point><coordinates>-40.503163,-9.360992,0</coordinates></Point></Placemark>
<Placemark><name>Radar</name><description>Fonte: DNIT</description><Point><coordinates>-36.762409,-8.962761,0</coordinates></Point></Placemark>
<Placemark><name>Radar</name><description>Fonte: DNIT</description><Point><coordinates>-36.725746,-8.960251,0</coordinates></Point></Placemark>
<Placemark><name>Radar 40 km/h</name><description>Fonte: OSM</description><Point><coordinates>-36.487414,-8.909055,0</coordinates></Point></Placemark>
<Placemark><name>Radar 60 km/h</name><description>Fonte: OSM</description><Point><coordinates>-35.150618,-8.896914,0</coordinates></Point></Placemark>
<Placemark><name>Radar 40 km/h</name><description>Fonte: DNIT+OSM</description><Point><coordinates>-36.504204,-8.891760,0</coordinates></Point></Placemark>
<Placemark><name>Radar</name><description>Fonte: DNIT</description><Point><coordinates>-36.491350,-8.881132,0</coordinates></Point></Placemark>
<Placemark><name>Radar 60 km/h</name><description>Fonte: OSM</description><Point><coordinates>-36.216697,-8.880685,0</coordinates></Point></Placemark>
<Placemark><name>Radar</name><description>Fonte: DNIT</description><Point><coordinates>-36.480634,-8.878816,0</coordinates></Point></Placemark>
<Placemark><name>Radar 60 km/h</name><description>Fonte: OSM</description><Point><coordinates>-36.476670,-8.878260,0</coordinates></Point></Placemark>
<Placemark><name>Radar</name><description>Fonte: OSM</description><Point><coordinates>-36.502130,-8.876371,0</coordinates></Point></Placemark>
<Placemark><name>Radar</name><description>Fonte: OSM</description><Point><coordinates>-36.502541,-8.876283,0</coordinates></Point></Placemark>
<Placemark><name>Radar</name><description>Fonte: DNIT</description><Point><coordinates>-36.461941,-8.851690,0</coordinates></Point></Placemark>
<Placemark><name>Radar</name><description>Fonte: OSM</description><Point><coordinates>-36.452937,-8.830830,0</coordinates></Point></Placemark>
<Placemark><name>Radar</name><description>Fonte: OSM</description><Point><coordinates>-36.452813,-8.830557,0</coordinates></Point></Placemark>
<Placemark><name>Radar 40 km/h</name><description>Fonte: OSM</description><Point><coordinates>-35.186311,-8.805688,0</coordinates></Point></Placemark>
<Placemark><name>Radar</name><description>Fonte: DNIT</description><Point><coordinates>-36.627703,-8.774236,0</coordinates></Point></Placemark>
<Placemark><name>Radar</name><description>Fonte: OSM</description><Point><coordinates>-35.173564,-8.734221,0</coordinates></Point></Placemark>
<Placemark><name>Radar 60 km/h</name><description>Fonte: OSM</description><Point><coordinates>-35.173603,-8.732444,0</coordinates></Point></Placemark>
<Placemark><name>Radar</name><description>Fonte: DNIT</description><Point><coordinates>-36.021072,-8.697975,0</coordinates></Point></Placemark>
<Placemark><name>Radar 40 km/h</name><description>Fonte: OSM</description><Point><coordinates>-36.020811,-8.697643,0</coordinates></Point></Placemark>
<Placemark><name>Radar 40 km/h</name><description>Fonte: DNIT+OSM</description><Point><coordinates>-36.022908,-8.693402,0</coordinates></Point></Placemark>
<Placemark><name>Radar</name><description>Fonte: DNIT · sentido 86° (leste)</description><Point><coordinates>-35.604084,-8.690543,0</coordinates></Point></Placemark>
<Placemark><name>Radar 40 km/h</name><description>Fonte: OSM</description><Point><coordinates>-35.157285,-8.665496,0</coordinates></Point></Placemark>
<Placemark><name>Radar 40 km/h</name><description>Fonte: OSM</description><Point><coordinates>-39.240546,-8.618966,0</coordinates></Point></Placemark>
<Placemark><name>Radar 60 km/h</name><description>Fonte: OSM</description><Point><coordinates>-35.110743,-8.599411,0</coordinates></Point></Placemark>
<Placemark><name>Radar 60 km/h</name><description>Fonte: OSM</description><Point><coordinates>-35.109196,-8.597934,0</coordinates></Point></Placemark>
<Placemark><name>Radar 40 km/h</name><description>Fonte: OSM</description><Point><coordinates>-36.234525,-8.491276,0</coordinates></Point></Placemark>
<Placemark><name>Radar 60 km/h</name><description>Fonte: OSM</description><Point><coordinates>-35.093344,-8.447279,0</coordinates></Point></Placemark>
<Placemark><name>Radar 40 km/h</name><description>Fonte: OSM</description><Point><coordinates>-35.061204,-8.401511,0</coordinates></Point></Placemark>
<Placemark><name>Radar 40 km/h</name><description>Fonte: OSM</description><Point><coordinates>-35.011380,-8.393292,0</coordinates></Point></Placemark>
<Placemark><name>Radar 60 km/h</name><description>Fonte: OSM</description><Point><coordinates>-35.008543,-8.383753,0</coordinates></Point></Placemark>
<Placemark><name>Radar 60 km/h</name><description>Fonte: OSM</description><Point><coordinates>-35.008720,-8.383655,0</coordinates></Point></Placemark>
<Placemark><name>Radar 60 km/h</name><description>Fonte: OSM</description><Point><coordinates>-35.017959,-8.350307,0</coordinates></Point></Placemark>
<Placemark><name>Radar 80 km/h</name><description>Fonte: OSM</description><Point><coordinates>-36.446597,-8.348707,0</coordinates></Point></Placemark>
<Placemark><name>Radar 60 km/h</name><description>Fonte: OSM</description><Point><coordinates>-35.017367,-8.348632,0</coordinates></Point></Placemark>
<Placemark><name>Radar 80 km/h</name><description>Fonte: OSM</description><Point><coordinates>-36.446694,-8.348067,0</coordinates></Point></Placemark>
<Placemark><name>Radar 50 km/h</name><description>Fonte: DNIT+OSM</description><Point><coordinates>-36.420722,-8.343292,0</coordinates></Point></Placemark>
<Placemark><name>Radar</name><description>Fonte: OSM</description><Point><coordinates>-36.124557,-8.330598,0</coordinates></Point></Placemark>
<Placemark><name>Radar</name><description>Fonte: OSM</description><Point><coordinates>-36.124461,-8.330557,0</coordinates></Point></Placemark>
<Placemark><name>Radar</name><description>Fonte: OSM</description><Point><coordinates>-36.150577,-8.327997,0</coordinates></Point></Placemark>
<Placemark><name>Radar</name><description>Fonte: OSM</description><Point><coordinates>-36.058278,-8.318116,0</coordinates></Point></Placemark>
<Placemark><name>Radar 100 km/h</name><description>Fonte: OSM</description><Point><coordinates>-36.032006,-8.310657,0</coordinates></Point></Placemark>
<Placemark><name>Radar</name><description>Fonte: OSM</description><Point><coordinates>-36.031804,-8.310597,0</coordinates></Point></Placemark>
<Placemark><name>Radar</name><description>Fonte: DER-PE+OSM</description><Point><coordinates>-35.960412,-8.306881,0</coordinates></Point></Placemark>
<Placemark><name>Radar 60 km/h</name><description>Fonte: OSM</description><Point><coordinates>-35.960848,-8.306656,0</coordinates></Point></Placemark>
<Placemark><name>Radar 60 km/h</name><description>Fonte: DER-PE+OSM</description><Point><coordinates>-35.961820,-8.306625,0</coordinates></Point></Placemark>
<Placemark><name>Radar 60 km/h</name><description>Fonte: OSM</description><Point><coordinates>-35.977809,-8.302796,0</coordinates></Point></Placemark>
<Placemark><name>Radar 60 km/h</name><description>Fonte: OSM</description><Point><coordinates>-35.977354,-8.302783,0</coordinates></Point></Placemark>
<Placemark><name>Radar</name><description>Fonte: OSM</description><Point><coordinates>-36.003098,-8.302646,0</coordinates></Point></Placemark>
<Placemark><name>Radar 60 km/h</name><description>Fonte: OSM</description><Point><coordinates>-36.003010,-8.302444,0</coordinates></Point></Placemark>
<Placemark><name>Radar</name><description>Fonte: DNIT</description><Point><coordinates>-36.002465,-8.302264,0</coordinates></Point></Placemark>
<Placemark><name>Radar</name><description>Fonte: DER-PE+OSM</description><Point><coordinates>-35.848852,-8.300395,0</coordinates></Point></Placemark>
<Placemark><name>Radar 60 km/h</name><description>Fonte: DER-PE+OSM</description><Point><coordinates>-35.849372,-8.300316,0</coordinates></Point></Placemark>
<Placemark><name>Radar 60 km/h</name><description>Fonte: OSM</description><Point><coordinates>-35.849091,-8.300262,0</coordinates></Point></Placemark>
<Placemark><name>Radar 40 km/h</name><description>Fonte: OSM</description><Point><coordinates>-35.025118,-8.297194,0</coordinates></Point></Placemark>
<Placemark><name>Radar 40 km/h</name><description>Fonte: OSM</description><Point><coordinates>-35.025576,-8.297134,0</coordinates></Point></Placemark>
<Placemark><name>Radar 50 km/h</name><description>Fonte: OSM</description><Point><coordinates>-35.953218,-8.292805,0</coordinates></Point></Placemark>
<Placemark><name>Radar 50 km/h</name><description>Fonte: OSM</description><Point><coordinates>-35.955289,-8.292483,0</coordinates></Point></Placemark>
<Placemark><name>Radar 50 km/h</name><description>Fonte: OSM</description><Point><coordinates>-35.955265,-8.292397,0</coordinates></Point></Placemark>
<Placemark><name>Radar 50 km/h</name><description>Fonte: OSM</description><Point><coordinates>-35.048813,-8.292216,0</coordinates></Point></Placemark>
<Placemark><name>Radar 50 km/h</name><description>Fonte: OSM</description><Point><coordinates>-36.012091,-8.291062,0</coordinates></Point></Placemark>
<Placemark><name>Radar 50 km/h</name><description>Fonte: OSM</description><Point><coordinates>-34.956199,-8.287764,0</coordinates></Point></Placemark>
<Placemark><name>Radar 40 km/h</name><description>Fonte: OSM</description><Point><coordinates>-35.972667,-8.287125,0</coordinates></Point></Placemark>
<Placemark><name>Radar 40 km/h</name><description>Fonte: OSM</description><Point><coordinates>-35.994332,-8.286563,0</coordinates></Point></Placemark>
<Placemark><name>Radar 40 km/h</name><description>Fonte: OSM</description><Point><coordinates>-35.968347,-8.285295,0</coordinates></Point></Placemark>
<Placemark><name>Radar 40 km/h</name><description>Fonte: OSM</description><Point><coordinates>-35.968252,-8.284203,0</coordinates></Point></Placemark>
<Placemark><name>Radar 40 km/h</name><description>Fonte: OSM</description><Point><coordinates>-35.029809,-8.280697,0</coordinates></Point></Placemark>
<Placemark><name>Radar 40 km/h</name><description>Fonte: OSM</description><Point><coordinates>-35.029976,-8.280640,0</coordinates></Point></Placemark>
<Placemark><name>Radar 50 km/h</name><description>Fonte: OSM</description><Point><coordinates>-35.973042,-8.276634,0</coordinates></Point></Placemark>
<Placemark><name>Radar 40 km/h</name><description>Fonte: OSM</description><Point><coordinates>-35.981400,-8.275978,0</coordinates></Point></Placemark>
<Placemark><name>Radar 40 km/h</name><description>Fonte: OSM</description><Point><coordinates>-35.982295,-8.275910,0</coordinates></Point></Placemark>
<Placemark><name>Radar 50 km/h</name><description>Fonte: OSM</description><Point><coordinates>-35.991588,-8.274453,0</coordinates></Point></Placemark>
<Placemark><name>Radar 40 km/h</name><description>Fonte: OSM</description><Point><coordinates>-35.964016,-8.273448,0</coordinates></Point></Placemark>
<Placemark><name>Radar 50 km/h</name><description>Fonte: OSM</description><Point><coordinates>-35.974878,-8.271934,0</coordinates></Point></Placemark>
<Placemark><name>Radar 50 km/h</name><description>Fonte: OSM</description><Point><coordinates>-35.975123,-8.271787,0</coordinates></Point></Placemark>
<Placemark><name>Radar 40 km/h</name><description>Fonte: OSM</description><Point><coordinates>-35.965933,-8.269821,0</coordinates></Point></Placemark>
<Placemark><name>Radar 40 km/h</name><description>Fonte: OSM</description><Point><coordinates>-35.978250,-8.267228,0</coordinates></Point></Placemark>
<Placemark><name>Radar 40 km/h</name><description>Fonte: OSM</description><Point><coordinates>-35.999270,-8.266765,0</coordinates></Point></Placemark>
<Placemark><name>Radar 40 km/h</name><description>Fonte: OSM</description><Point><coordinates>-36.004734,-8.263943,0</coordinates></Point></Placemark>
<Placemark><name>Radar 40 km/h</name><description>Fonte: OSM</description><Point><coordinates>-34.947077,-8.257598,0</coordinates></Point></Placemark>
<Placemark><name>Radar 40 km/h</name><description>Fonte: OSM</description><Point><coordinates>-34.946979,-8.257461,0</coordinates></Point></Placemark>
<Placemark><name>Radar 60 km/h</name><description>Fonte: OSM</description><Point><coordinates>-35.964520,-8.255232,0</coordinates></Point></Placemark>
<Placemark><name>Radar 60 km/h</name><description>Fonte: OSM</description><Point><coordinates>-35.966424,-8.254724,0</coordinates></Point></Placemark>
<Placemark><name>Radar 50 km/h</name><description>Fonte: OSM</description><Point><coordinates>-34.942201,-8.249394,0</coordinates></Point></Placemark>
<Placemark><name>Radar 50 km/h</name><description>Fonte: OSM</description><Point><coordinates>-34.941409,-8.247747,0</coordinates></Point></Placemark>
<Placemark><name>Radar</name><description>Fonte: DNIT · sentido 358° (norte)</description><Point><coordinates>-35.974866,-8.245656,0</coordinates></Point></Placemark>
<Placemark><name>Radar 60 km/h</name><description>Fonte: DNIT+OSM · sentido 178° (sul)</description><Point><coordinates>-35.975485,-8.243181,0</coordinates></Point></Placemark>
<Placemark><name>Radar 60 km/h</name><description>Fonte: OSM</description><Point><coordinates>-35.975340,-8.241617,0</coordinates></Point></Placemark>
<Placemark><name>Radar</name><description>Fonte: OSM</description><Point><coordinates>-35.749942,-8.241364,0</coordinates></Point></Placemark>
<Placemark><name>Radar 60 km/h</name><description>Fonte: DER-PE+OSM</description><Point><coordinates>-35.749741,-8.241097,0</coordinates></Point></Placemark>
<Placemark><name>Radar</name><description>Fonte: DER-PE</description><Point><coordinates>-35.749328,-8.240850,0</coordinates></Point></Placemark>
<Placemark><name>Radar 60 km/h</name><description>Fonte: DER-PE+OSM</description><Point><coordinates>-35.723745,-8.234894,0</coordinates></Point></Placemark>
<Placemark><name>Radar 110 km/h</name><description>Fonte: OSM</description><Point><coordinates>-35.977005,-8.233821,0</coordinates></Point></Placemark>
<Placemark><name>Radar 60 km/h</name><description>Fonte: DER-PE+OSM</description><Point><coordinates>-35.667519,-8.218737,0</coordinates></Point></Placemark>
<Placemark><name>Radar 60 km/h</name><description>Fonte: DER-PE+OSM</description><Point><coordinates>-35.667018,-8.218674,0</coordinates></Point></Placemark>
<Placemark><name>Radar 60 km/h</name><description>Fonte: DER-PE+OSM</description><Point><coordinates>-35.652143,-8.216980,0</coordinates></Point></Placemark>
<Placemark><name>Radar 60 km/h</name><description>Fonte: OSM</description><Point><coordinates>-35.650289,-8.216831,0</coordinates></Point></Placemark>
<Placemark><name>Radar</name><description>Fonte: OSM</description><Point><coordinates>-35.651890,-8.216820,0</coordinates></Point></Placemark>
<Placemark><name>Radar</name><description>Fonte: OSM</description><Point><coordinates>-35.649435,-8.216729,0</coordinates></Point></Placemark>
<Placemark><name>Radar</name><description>Fonte: DER-PE</description><Point><coordinates>-35.648991,-8.216588,0</coordinates></Point></Placemark>
<Placemark><name>Radar 60 km/h</name><description>Fonte: DER-PE+OSM</description><Point><coordinates>-35.575339,-8.196668,0</coordinates></Point></Placemark>
<Placemark><name>Radar 60 km/h</name><description>Fonte: DER-PE+OSM</description><Point><coordinates>-35.574917,-8.196583,0</coordinates></Point></Placemark>
<Placemark><name>Radar</name><description>Fonte: OSM</description><Point><coordinates>-35.535287,-8.195364,0</coordinates></Point></Placemark>
<Placemark><name>Radar 110 km/h</name><description>Fonte: OSM</description><Point><coordinates>-35.535737,-8.195290,0</coordinates></Point></Placemark>
<Placemark><name>Radar 60 km/h</name><description>Fonte: DER-PE+OSM</description><Point><coordinates>-35.544538,-8.193224,0</coordinates></Point></Placemark>
<Placemark><name>Radar 60 km/h</name><description>Fonte: DER-PE+OSM</description><Point><coordinates>-35.545049,-8.193098,0</coordinates></Point></Placemark>
<Placemark><name>Radar</name><description>Fonte: OSM</description><Point><coordinates>-35.498755,-8.186365,0</coordinates></Point></Placemark>
<Placemark><name>Radar 50 km/h</name><description>Fonte: OSM</description><Point><coordinates>-35.770806,-8.178384,0</coordinates></Point></Placemark>
<Placemark><name>Radar 60 km/h</name><description>Fonte: DER-PE+OSM</description><Point><coordinates>-35.465315,-8.172971,0</coordinates></Point></Placemark>
<Placemark><name>Radar</name><description>Fonte: OSM</description><Point><coordinates>-35.465579,-8.172837,0</coordinates></Point></Placemark>
<Placemark><name>Radar</name><description>Fonte: OSM</description><Point><coordinates>-35.977846,-8.167437,0</coordinates></Point></Placemark>
<Placemark><name>Radar</name><description>Fonte: OSM</description><Point><coordinates>-35.443877,-8.163953,0</coordinates></Point></Placemark>
<Placemark><name>Radar 60 km/h</name><description>Fonte: DER-PE+OSM</description><Point><coordinates>-35.443612,-8.163885,0</coordinates></Point></Placemark>
<Placemark><name>Radar 60 km/h</name><description>Fonte: OSM</description><Point><coordinates>-35.437014,-8.161803,0</coordinates></Point></Placemark>
<Placemark><name>Radar</name><description>Fonte: DER-PE</description><Point><coordinates>-35.466325,-8.161793,0</coordinates></Point></Placemark>
<Placemark><name>Radar</name><description>Fonte: OSM</description><Point><coordinates>-35.436540,-8.161732,0</coordinates></Point></Placemark>
<Placemark><name>Radar 40 km/h</name><description>Fonte: OSM</description><Point><coordinates>-34.940717,-8.158244,0</coordinates></Point></Placemark>
<Placemark><name>Radar</name><description>Fonte: OSM</description><Point><coordinates>-35.427523,-8.157047,0</coordinates></Point></Placemark>
<Placemark><name>Radar 40 km/h</name><description>Fonte: OSM</description><Point><coordinates>-34.959718,-8.154264,0</coordinates></Point></Placemark>
<Placemark><name>Radar 40 km/h</name><description>Fonte: OSM</description><Point><coordinates>-34.959400,-8.154170,0</coordinates></Point></Placemark>
<Placemark><name>Radar 40 km/h</name><description>Fonte: DNIT+OSM · sentido 158° (sul)</description><Point><coordinates>-34.942931,-8.151750,0</coordinates></Point></Placemark>
<Placemark><name>Radar 60 km/h</name><description>Fonte: OSM</description><Point><coordinates>-35.399509,-8.147263,0</coordinates></Point></Placemark>
<Placemark><name>Radar 60 km/h</name><description>Fonte: DER-PE+OSM</description><Point><coordinates>-35.393553,-8.146071,0</coordinates></Point></Placemark>
<Placemark><name>Radar</name><description>Fonte: DER-PE</description><Point><coordinates>-35.393005,-8.145858,0</coordinates></Point></Placemark>
<Placemark><name>Radar 60 km/h</name><description>Fonte: OSM</description><Point><coordinates>-35.393277,-8.145831,0</coordinates></Point></Placemark>
<Placemark><name>Radar 60 km/h</name><description>Fonte: PCR</description><Point><coordinates>-34.906482,-8.144380,0</coordinates></Point></Placemark>
<Placemark><name>Radar 60 km/h</name><description>Fonte: OSM</description><Point><coordinates>-34.903738,-8.142257,0</coordinates></Point></Placemark>
<Placemark><name>Radar</name><description>Fonte: OSM</description><Point><coordinates>-35.382346,-8.141418,0</coordinates></Point></Placemark>
<Placemark><name>Radar 60 km/h</name><description>Fonte: PCR</description><Point><coordinates>-34.903219,-8.140890,0</coordinates></Point></Placemark>
<Placemark><name>Radar 60 km/h</name><description>Fonte: OSM</description><Point><coordinates>-34.903072,-8.140588,0</coordinates></Point></Placemark>
<Placemark><name>Radar 40 km/h</name><description>Fonte: DNIT+OSM</description><Point><coordinates>-34.947099,-8.139768,0</coordinates></Point></Placemark>
<Placemark><name>Radar 40 km/h</name><description>Fonte: OSM</description><Point><coordinates>-34.946978,-8.139425,0</coordinates></Point></Placemark>
<Placemark><name>Radar 60 km/h</name><description>Fonte: PCR</description><Point><coordinates>-34.903309,-8.136419,0</coordinates></Point></Placemark>
<Placemark><name>Radar 60 km/h</name><description>Fonte: PCR</description><Point><coordinates>-34.903607,-8.136321,0</coordinates></Point></Placemark>
<Placemark><name>Radar 60 km/h</name><description>Fonte: OSM</description><Point><coordinates>-34.916209,-8.132622,0</coordinates></Point></Placemark>
<Placemark><name>Radar 60 km/h</name><description>Fonte: OSM</description><Point><coordinates>-34.916381,-8.132612,0</coordinates></Point></Placemark>
<Placemark><name>Radar 60 km/h</name><description>Fonte: PCR</description><Point><coordinates>-34.916159,-8.131060,0</coordinates></Point></Placemark>
<Placemark><name>Radar 50 km/h</name><description>Fonte: DNIT+OSM · sentido 218° (sudoeste)</description><Point><coordinates>-34.945033,-8.130669,0</coordinates></Point></Placemark>
<Placemark><name>Radar 60 km/h</name><description>Fonte: PCR+OSM</description><Point><coordinates>-34.915938,-8.130636,0</coordinates></Point></Placemark>
<Placemark><name>Radar 60 km/h</name><description>Fonte: OSM</description><Point><coordinates>-34.898947,-8.129922,0</coordinates></Point></Placemark>
<Placemark><name>Radar 60 km/h</name><description>Fonte: OSM</description><Point><coordinates>-34.915513,-8.128602,0</coordinates></Point></Placemark>
<Placemark><name>Radar 60 km/h</name><description>Fonte: OSM</description><Point><coordinates>-34.915698,-8.128489,0</coordinates></Point></Placemark>
<Placemark><name>Radar 60 km/h</name><description>Fonte: PCR</description><Point><coordinates>-34.900266,-8.128025,0</coordinates></Point></Placemark>
<Placemark><name>Radar 60 km/h</name><description>Fonte: PCR</description><Point><coordinates>-34.915520,-8.127368,0</coordinates></Point></Placemark>
<Placemark><name>Radar 40 km/h</name><description>Fonte: OSM</description><Point><coordinates>-35.282207,-8.122554,0</coordinates></Point></Placemark>
<Placemark><name>Radar 50 km/h</name><description>Fonte: PCR</description><Point><coordinates>-34.918223,-8.121783,0</coordinates></Point></Placemark>
<Placemark><name>Radar 50 km/h</name><description>Fonte: PCR</description><Point><coordinates>-34.918030,-8.121656,0</coordinates></Point></Placemark>
<Placemark><name>Radar 50 km/h</name><description>Fonte: PCR</description><Point><coordinates>-34.909335,-8.121477,0</coordinates></Point></Placemark>
<Placemark><name>Radar 60 km/h</name><description>Fonte: PCR</description><Point><coordinates>-34.898930,-8.121462,0</coordinates></Point></Placemark>
<Placemark><name>Radar 50 km/h</name><description>Fonte: PCR</description><Point><coordinates>-34.909787,-8.121261,0</coordinates></Point></Placemark>
<Placemark><name>Radar</name><description>Fonte: OSM</description><Point><coordinates>-35.265171,-8.120037,0</coordinates></Point></Placemark>
<Placemark><name>Radar</name><description>Fonte: DER-PE</description><Point><coordinates>-35.264913,-8.119879,0</coordinates></Point></Placemark>
<Placemark><name>Radar 60 km/h</name><description>Fonte: OSM</description><Point><coordinates>-35.264688,-8.119709,0</coordinates></Point></Placemark>
<Placemark><name>Radar</name><description>Fonte: DER-PE+OSM</description><Point><coordinates>-35.259221,-8.116983,0</coordinates></Point></Placemark>
<Placemark><name>Radar 40 km/h</name><description>Fonte: OSM</description><Point><coordinates>-35.281862,-8.116797,0</coordinates></Point></Placemark>
<Placemark><name>Radar 60 km/h</name><description>Fonte: OSM</description><Point><coordinates>-35.258224,-8.116685,0</coordinates></Point></Placemark>
<Placemark><name>Radar 50 km/h</name><description>Fonte: PCR</description><Point><coordinates>-34.904362,-8.116362,0</coordinates></Point></Placemark>
<Placemark><name>Radar 50 km/h</name><description>Fonte: PCR</description><Point><coordinates>-34.904324,-8.115720,0</coordinates></Point></Placemark>
<Placemark><name>Radar 60 km/h</name><description>Fonte: PCR</description><Point><coordinates>-34.900601,-8.115078,0</coordinates></Point></Placemark>
<Placemark><name>Radar</name><description>Fonte: DNIT</description><Point><coordinates>-34.945587,-8.113016,0</coordinates></Point></Placemark>
<Placemark><name>Radar 40 km/h</name><description>Fonte: OSM</description><Point><coordinates>-34.945479,-8.112655,0</coordinates></Point></Placemark>
<Placemark><name>Radar</name><description>Fonte: DER-PE</description><Point><coordinates>-35.012590,-8.111597,0</coordinates></Point></Placemark>
<Placemark><name>Radar 40 km/h</name><description>Fonte: OSM</description><Point><coordinates>-35.012150,-8.111422,0</coordinates></Point></Placemark>
<Placemark><name>Radar 60 km/h</name><description>Fonte: OSM</description><Point><coordinates>-35.106885,-8.111365,0</coordinates></Point></Placemark>
<Placemark><name>Radar</name><description>Fonte: DER-PE+OSM</description><Point><coordinates>-35.198104,-8.110266,0</coordinates></Point></Placemark>
<Placemark><name>Radar 60 km/h</name><description>Fonte: DER-PE+OSM</description><Point><coordinates>-35.197569,-8.110103,0</coordinates></Point></Placemark>
<Placemark><name>Radar 60 km/h</name><description>Fonte: DER-PE+OSM</description><Point><coordinates>-35.105624,-8.110062,0</coordinates></Point></Placemark>
<Placemark><name>Radar 60 km/h</name><description>Fonte: OSM</description><Point><coordinates>-35.197938,-8.110045,0</coordinates></Point></Placemark>
<Placemark><name>Radar 60 km/h</name><description>Fonte: OSM</description><Point><coordinates>-34.946721,-8.109959,0</coordinates></Point></Placemark>
<Placemark><name>Radar 60 km/h</name><description>Fonte: OSM</description><Point><coordinates>-34.947332,-8.108700,0</coordinates></Point></Placemark>
<Placemark><name>Radar 50 km/h</name><description>Fonte: OSM</description><Point><coordinates>-34.947166,-8.108619,0</coordinates></Point></Placemark>
<Placemark><name>Radar 60 km/h</name><description>Fonte: PCR</description><Point><coordinates>-34.888161,-8.107843,0</coordinates></Point></Placemark>
<Placemark><name>Radar 50 km/h</name><description>Fonte: DNIT+OSM</description><Point><coordinates>-34.948116,-8.107480,0</coordinates></Point></Placemark>
<Placemark><name>Radar 60 km/h</name><description>Fonte: PCR</description><Point><coordinates>-34.911330,-8.106779,0</coordinates></Point></Placemark>
<Placemark><name>Radar 60 km/h</name><description>Fonte: PCR</description><Point><coordinates>-34.911418,-8.105959,0</coordinates></Point></Placemark>
<Placemark><name>Radar 60 km/h</name><description>Fonte: PCR</description><Point><coordinates>-34.892129,-8.105823,0</coordinates></Point></Placemark>
<Placemark><name>Radar 60 km/h</name><description>Fonte: PCR</description><Point><coordinates>-34.891914,-8.105409,0</coordinates></Point></Placemark>
<Placemark><name>Radar 60 km/h</name><description>Fonte: PCR</description><Point><coordinates>-34.889486,-8.105234,0</coordinates></Point></Placemark>
<Placemark><name>Radar 60 km/h</name><description>Fonte: OSM</description><Point><coordinates>-34.886728,-8.104678,0</coordinates></Point></Placemark>
<Placemark><name>Radar 40 km/h</name><description>Fonte: PCR</description><Point><coordinates>-34.913166,-8.103140,0</coordinates></Point></Placemark>
<Placemark><name>Radar 60 km/h</name><description>Fonte: PCR</description><Point><coordinates>-34.928071,-8.100577,0</coordinates></Point></Placemark>
<Placemark><name>Radar 60 km/h</name><description>Fonte: PCR</description><Point><coordinates>-34.928221,-8.100331,0</coordinates></Point></Placemark>
<Placemark><name>Radar 60 km/h</name><description>Fonte: OSM</description><Point><coordinates>-34.886346,-8.100122,0</coordinates></Point></Placemark>
<Placemark><name>Radar 60 km/h</name><description>Fonte: OSM</description><Point><coordinates>-34.928264,-8.099986,0</coordinates></Point></Placemark>
<Placemark><name>Radar</name><description>Fonte: DNIT · sentido 346° (norte)</description><Point><coordinates>-34.949870,-8.099616,0</coordinates></Point></Placemark>
<Placemark><name>Radar 60 km/h</name><description>Fonte: PCR</description><Point><coordinates>-34.890255,-8.098984,0</coordinates></Point></Placemark>
<Placemark><name>Radar 60 km/h</name><description>Fonte: OSM</description><Point><coordinates>-34.950236,-8.098785,0</coordinates></Point></Placemark>
<Placemark><name>Radar 50 km/h</name><description>Fonte: OSM</description><Point><coordinates>-34.950063,-8.098741,0</coordinates></Point></Placemark>
<Placemark><name>Radar</name><description>Fonte: DNIT · sentido 201° (sul)</description><Point><coordinates>-34.950003,-8.096842,0</coordinates></Point></Placemark>
<Placemark><name>Radar 60 km/h</name><description>Fonte: PCR</description><Point><coordinates>-34.909181,-8.094704,0</coordinates></Point></Placemark>
<Placemark><name>Radar</name><description>Fonte: OSM</description><Point><coordinates>-34.965552,-8.094505,0</coordinates></Point></Placemark>
<Placemark><name>Radar 60 km/h</name><description>Fonte: PCR</description><Point><coordinates>-34.909227,-8.093821,0</coordinates></Point></Placemark>
<Placemark><name>Radar 50 km/h</name><description>Fonte: PCR</description><Point><coordinates>-34.961596,-8.092120,0</coordinates></Point></Placemark>
<Placemark><name>Radar 60 km/h</name><description>Fonte: OSM</description><Point><coordinates>-34.936369,-8.091942,0</coordinates></Point></Placemark>
<Placemark><name>Radar 60 km/h</name><description>Fonte: PCR</description><Point><coordinates>-34.882096,-8.091900,0</coordinates></Point></Placemark>
<Placemark><name>Radar 50 km/h</name><description>Fonte: PCR</description><Point><coordinates>-34.936071,-8.091724,0</coordinates></Point></Placemark>
<Placemark><name>Radar 60 km/h</name><description>Fonte: OSM</description><Point><coordinates>-34.935846,-8.091523,0</coordinates></Point></Placemark>
<Placemark><name>Radar 50 km/h</name><description>Fonte: PCR</description><Point><coordinates>-34.955414,-8.090489,0</coordinates></Point></Placemark>
<Placemark><name>Radar 50 km/h</name><description>Fonte: PCR</description><Point><coordinates>-34.954702,-8.090202,0</coordinates></Point></Placemark>
<Placemark><name>Radar</name><description>Fonte: DNIT · sentido 182° (sul)</description><Point><coordinates>-34.946939,-8.089979,0</coordinates></Point></Placemark>
<Placemark><name>Radar 60 km/h</name><description>Fonte: PCR</description><Point><coordinates>-34.885222,-8.088917,0</coordinates></Point></Placemark>
<Placemark><name>Radar 60 km/h</name><description>Fonte: OSM</description><Point><coordinates>-34.946908,-8.088877,0</coordinates></Point></Placemark>
<Placemark><name>Radar 60 km/h</name><description>Fonte: PCR</description><Point><coordinates>-34.883770,-8.088326,0</coordinates></Point></Placemark>
<Placemark><name>Radar 40 km/h</name><description>Fonte: PCR</description><Point><coordinates>-34.909934,-8.087420,0</coordinates></Point></Placemark>
<Placemark><name>Radar 60 km/h</name><description>Fonte: OSM</description><Point><coordinates>-34.891217,-8.087257,0</coordinates></Point></Placemark>
<Placemark><name>Radar</name><description>Fonte: DNIT · sentido 21° (norte)</description><Point><coordinates>-34.946284,-8.086852,0</coordinates></Point></Placemark>
<Placemark><name>Radar</name><description>Fonte: DNIT</description><Point><coordinates>-37.640264,-8.086088,0</coordinates></Point></Placemark>
<Placemark><name>Radar 50 km/h</name><description>Fonte: PCR</description><Point><coordinates>-34.928018,-8.084653,0</coordinates></Point></Placemark>
<Placemark><name>Radar</name><description>Fonte: OSM</description><Point><coordinates>-34.906977,-8.084485,0</coordinates></Point></Placemark>
<Placemark><name>Radar 60 km/h</name><description>Fonte: OSM</description><Point><coordinates>-34.998434,-8.084069,0</coordinates></Point></Placemark>
<Placemark><name>Radar</name><description>Fonte: OSM</description><Point><coordinates>-34.998179,-8.083909,0</coordinates></Point></Placemark>
<Placemark><name>Radar 60 km/h</name><description>Fonte: DER-PE+OSM</description><Point><coordinates>-34.996406,-8.082805,0</coordinates></Point></Placemark>
<Placemark><name>Radar</name><description>Fonte: OSM</description><Point><coordinates>-34.996147,-8.082629,0</coordinates></Point></Placemark>
<Placemark><name>Radar 50 km/h</name><description>Fonte: PCR</description><Point><coordinates>-34.968347,-8.081067,0</coordinates></Point></Placemark>
<Placemark><name>Radar 50 km/h</name><description>Fonte: PCR</description><Point><coordinates>-34.917056,-8.080834,0</coordinates></Point></Placemark>
<Placemark><name>Radar 60 km/h</name><description>Fonte: PCR</description><Point><coordinates>-34.891213,-8.080763,0</coordinates></Point></Placemark>
<Placemark><name>Radar 50 km/h</name><description>Fonte: PCR</description><Point><coordinates>-34.917566,-8.080743,0</coordinates></Point></Placemark>
<Placemark><name>Radar 50 km/h</name><description>Fonte: OSM</description><Point><coordinates>-34.943045,-8.080398,0</coordinates></Point></Placemark>
<Placemark><name>Radar 50 km/h</name><description>Fonte: OSM</description><Point><coordinates>-34.943220,-8.080372,0</coordinates></Point></Placemark>
<Placemark><name>Radar</name><description>Fonte: DNIT</description><Point><coordinates>-36.043534,-8.080104,0</coordinates></Point></Placemark>
<Placemark><name>Radar 60 km/h</name><description>Fonte: PCR</description><Point><coordinates>-34.892157,-8.080084,0</coordinates></Point></Placemark>
<Placemark><name>Radar 60 km/h</name><description>Fonte: PCR</description><Point><coordinates>-34.892762,-8.079589,0</coordinates></Point></Placemark>
<Placemark><name>Radar</name><description>Fonte: DNIT</description><Point><coordinates>-39.131152,-8.079124,0</coordinates></Point></Placemark>
<Placemark><name>Radar</name><description>Fonte: DNIT</description><Point><coordinates>-34.943226,-8.079112,0</coordinates></Point></Placemark>
<Placemark><name>Radar 60 km/h</name><description>Fonte: OSM</description><Point><coordinates>-34.892062,-8.078603,0</coordinates></Point></Placemark>
<Placemark><name>Radar 60 km/h</name><description>Fonte: OSM</description><Point><coordinates>-34.892231,-8.078456,0</coordinates></Point></Placemark>
<Placemark><name>Radar 40 km/h</name><description>Fonte: PCR</description><Point><coordinates>-34.887832,-8.075645,0</coordinates></Point></Placemark>
<Placemark><name>Radar 50 km/h</name><description>Fonte: OSM</description><Point><coordinates>-34.937033,-8.074423,0</coordinates></Point></Placemark>
<Placemark><name>Radar 50 km/h</name><description>Fonte: OSM</description><Point><coordinates>-34.936925,-8.074344,0</coordinates></Point></Placemark>
<Placemark><name>Radar 40 km/h</name><description>Fonte: PCR</description><Point><coordinates>-34.883305,-8.074039,0</coordinates></Point></Placemark>
<Placemark><name>Radar 40 km/h</name><description>Fonte: PCR</description><Point><coordinates>-34.877906,-8.071734,0</coordinates></Point></Placemark>
<Placemark><name>Radar</name><description>Fonte: DNIT</description><Point><coordinates>-34.939778,-8.070548,0</coordinates></Point></Placemark>
<Placemark><name>Radar 60 km/h</name><description>Fonte: PCR</description><Point><coordinates>-34.896009,-8.070348,0</coordinates></Point></Placemark>
<Placemark><name>Radar 60 km/h</name><description>Fonte: PCR</description><Point><coordinates>-34.896352,-8.070208,0</coordinates></Point></Placemark>
<Placemark><name>Radar 40 km/h</name><description>Fonte: PCR</description><Point><coordinates>-34.927845,-8.067404,0</coordinates></Point></Placemark>
<Placemark><name>Radar 40 km/h</name><description>Fonte: OSM</description><Point><coordinates>-34.927726,-8.067065,0</coordinates></Point></Placemark>
<Placemark><name>Radar 30 km/h</name><description>Fonte: OSM</description><Point><coordinates>-34.871841,-8.064120,0</coordinates></Point></Placemark>
<Placemark><name>Radar 60 km/h</name><description>Fonte: PCR+OSM</description><Point><coordinates>-34.935626,-8.064071,0</coordinates></Point></Placemark>
<Placemark><name>Radar 60 km/h</name><description>Fonte: PCR+OSM</description><Point><coordinates>-34.935763,-8.063998,0</coordinates></Point></Placemark>
<Placemark><name>Radar 40 km/h</name><description>Fonte: OSM</description><Point><coordinates>-34.934835,-8.063733,0</coordinates></Point></Placemark>
<Placemark><name>Radar 60 km/h</name><description>Fonte: PCR+OSM</description><Point><coordinates>-34.917508,-8.062475,0</coordinates></Point></Placemark>
<Placemark><name>Radar 60 km/h</name><description>Fonte: PCR+OSM</description><Point><coordinates>-34.916851,-8.062356,0</coordinates></Point></Placemark>
<Placemark><name>Radar 60 km/h</name><description>Fonte: PCR</description><Point><coordinates>-34.897746,-8.062177,0</coordinates></Point></Placemark>
<Placemark><name>Radar 40 km/h</name><description>Fonte: PCR</description><Point><coordinates>-34.883237,-8.061173,0</coordinates></Point></Placemark>
<Placemark><name>Radar</name><description>Fonte: DNIT</description><Point><coordinates>-39.105957,-8.060006,0</coordinates></Point></Placemark>
<Placemark><name>Radar 50 km/h</name><description>Fonte: PCR</description><Point><coordinates>-34.899694,-8.056833,0</coordinates></Point></Placemark>
<Placemark><name>Radar</name><description>Fonte: OSM</description><Point><coordinates>-34.897925,-8.056681,0</coordinates></Point></Placemark>
<Placemark><name>Radar 50 km/h</name><description>Fonte: PCR</description><Point><coordinates>-34.908972,-8.055130,0</coordinates></Point></Placemark>
<Placemark><name>Radar 40 km/h</name><description>Fonte: PCR+OSM</description><Point><coordinates>-34.902176,-8.052065,0</coordinates></Point></Placemark>
<Placemark><name>Radar 60 km/h</name><description>Fonte: PCR</description><Point><coordinates>-34.895025,-8.051737,0</coordinates></Point></Placemark>
<Placemark><name>Radar 60 km/h</name><description>Fonte: PCR</description><Point><coordinates>-34.885864,-8.043165,0</coordinates></Point></Placemark>
<Placemark><name>Radar 60 km/h</name><description>Fonte: OSM</description><Point><coordinates>-34.883727,-8.041789,0</coordinates></Point></Placemark>
<Placemark><name>Radar 60 km/h</name><description>Fonte: PCR</description><Point><coordinates>-34.883278,-8.041536,0</coordinates></Point></Placemark>
<Placemark><name>Radar 40 km/h</name><description>Fonte: PCR</description><Point><coordinates>-34.903335,-8.041194,0</coordinates></Point></Placemark>
<Placemark><name>Radar</name><description>Fonte: OSM</description><Point><coordinates>-34.942497,-8.040449,0</coordinates></Point></Placemark>
<Placemark><name>Radar 60 km/h</name><description>Fonte: PCR</description><Point><coordinates>-34.878934,-8.039954,0</coordinates></Point></Placemark>
<Placemark><name>Radar 60 km/h</name><description>Fonte: PCR</description><Point><coordinates>-34.878737,-8.039473,0</coordinates></Point></Placemark>
<Placemark><name>Radar 40 km/h</name><description>Fonte: PCR+OSM</description><Point><coordinates>-34.957554,-8.039281,0</coordinates></Point></Placemark>
<Placemark><name>Radar 40 km/h</name><description>Fonte: PCR</description><Point><coordinates>-34.930116,-8.039025,0</coordinates></Point></Placemark>
<Placemark><name>Radar</name><description>Fonte: OSM</description><Point><coordinates>-34.876789,-8.038962,0</coordinates></Point></Placemark>
<Placemark><name>Radar 60 km/h</name><description>Fonte: PCR</description><Point><coordinates>-34.892000,-8.038574,0</coordinates></Point></Placemark>
<Placemark><name>Radar</name><description>Fonte: OSM</description><Point><coordinates>-34.945778,-8.036739,0</coordinates></Point></Placemark>
<Placemark><name>Radar 60 km/h</name><description>Fonte: PCR</description><Point><coordinates>-34.949951,-8.034399,0</coordinates></Point></Placemark>
<Placemark><name>Radar 60 km/h</name><description>Fonte: PCR</description><Point><coordinates>-34.896475,-8.033536,0</coordinates></Point></Placemark>
<Placemark><name>Radar 50 km/h</name><description>Fonte: PCR</description><Point><coordinates>-34.903116,-8.032822,0</coordinates></Point></Placemark>
<Placemark><name>Radar 40 km/h</name><description>Fonte: DNIT+OSM</description><Point><coordinates>-34.943007,-8.030126,0</coordinates></Point></Placemark>
<Placemark><name>Radar 60 km/h</name><description>Fonte: PCR</description><Point><coordinates>-34.900494,-8.029633,0</coordinates></Point></Placemark>
<Placemark><name>Radar 50 km/h</name><description>Fonte: PCR</description><Point><coordinates>-34.892898,-8.027920,0</coordinates></Point></Placemark>
<Placemark><name>Radar 60 km/h</name><description>Fonte: PCR</description><Point><coordinates>-34.897962,-8.026749,0</coordinates></Point></Placemark>
<Placemark><name>Radar 40 km/h</name><description>Fonte: OSM</description><Point><coordinates>-34.863586,-8.025423,0</coordinates></Point></Placemark>
<Placemark><name>Radar 50 km/h</name><description>Fonte: OSM</description><Point><coordinates>-34.862013,-8.022977,0</coordinates></Point></Placemark>
<Placemark><name>Radar 60 km/h</name><description>Fonte: PCR</description><Point><coordinates>-34.928277,-8.018334,0</coordinates></Point></Placemark>
<Placemark><name>Radar</name><description>Fonte: DER-PE</description><Point><coordinates>-35.012556,-8.015750,0</coordinates></Point></Placemark>
<Placemark><name>Radar 50 km/h</name><description>Fonte: PCR</description><Point><coordinates>-34.890163,-8.015031,0</coordinates></Point></Placemark>
<Placemark><name>Radar 50 km/h</name><description>Fonte: PCR</description><Point><coordinates>-34.889432,-8.012925,0</coordinates></Point></Placemark>
<Placemark><name>Radar</name><description>Fonte: DNIT</description><Point><coordinates>-34.938516,-8.012348,0</coordinates></Point></Placemark>
<Placemark><name>Radar 60 km/h</name><description>Fonte: OSM</description><Point><coordinates>-34.937922,-8.011799,0</coordinates></Point></Placemark>
<Placemark><name>Radar 60 km/h</name><description>Fonte: OSM</description><Point><coordinates>-34.938136,-8.011777,0</coordinates></Point></Placemark>
<Placemark><name>Radar 50 km/h</name><description>Fonte: PCR</description><Point><coordinates>-34.889407,-8.011713,0</coordinates></Point></Placemark>
<Placemark><name>Radar 50 km/h</name><description>Fonte: PCR</description><Point><coordinates>-34.891721,-8.006204,0</coordinates></Point></Placemark>
<Placemark><name>Radar 50 km/h</name><description>Fonte: PCR</description><Point><coordinates>-34.893441,-8.005138,0</coordinates></Point></Placemark>
<Placemark><name>Radar</name><description>Fonte: OSM</description><Point><coordinates>-34.937770,-7.994251,0</coordinates></Point></Placemark>
<Placemark><name>Radar 60 km/h</name><description>Fonte: OSM</description><Point><coordinates>-34.937907,-7.994210,0</coordinates></Point></Placemark>
<Placemark><name>Radar 60 km/h</name><description>Fonte: OSM</description><Point><coordinates>-34.938044,-7.994082,0</coordinates></Point></Placemark>
<Placemark><name>Radar</name><description>Fonte: OSM</description><Point><coordinates>-34.936836,-7.993063,0</coordinates></Point></Placemark>
<Placemark><name>Radar 40 km/h</name><description>Fonte: OSM</description><Point><coordinates>-35.052831,-7.988463,0</coordinates></Point></Placemark>
<Placemark><name>Radar 40 km/h</name><description>Fonte: OSM</description><Point><coordinates>-35.053126,-7.988060,0</coordinates></Point></Placemark>
<Placemark><name>Radar 50 km/h</name><description>Fonte: OSM</description><Point><coordinates>-34.933438,-7.987748,0</coordinates></Point></Placemark>
<Placemark><name>Radar 60 km/h</name><description>Fonte: DNIT+OSM</description><Point><coordinates>-34.933788,-7.987322,0</coordinates></Point></Placemark>
<Placemark><name>Radar 40 km/h</name><description>Fonte: OSM</description><Point><coordinates>-38.282787,-7.983266,0</coordinates></Point></Placemark>
<Placemark><name>Radar 50 km/h</name><description>Fonte: DNIT+OSM · sentido 22° (norte)</description><Point><coordinates>-34.931832,-7.981874,0</coordinates></Point></Placemark>
<Placemark><name>Radar</name><description>Fonte: OSM</description><Point><coordinates>-35.073103,-7.979216,0</coordinates></Point></Placemark>
<Placemark><name>Radar 40 km/h</name><description>Fonte: OSM</description><Point><coordinates>-34.980929,-7.976312,0</coordinates></Point></Placemark>
<Placemark><name>Radar</name><description>Fonte: DNIT</description><Point><coordinates>-34.923961,-7.975817,0</coordinates></Point></Placemark>
<Placemark><name>Radar</name><description>Fonte: OSM</description><Point><coordinates>-34.923189,-7.975777,0</coordinates></Point></Placemark>
<Placemark><name>Radar 60 km/h</name><description>Fonte: OSM</description><Point><coordinates>-34.866605,-7.969241,0</coordinates></Point></Placemark>
<Placemark><name>Radar 60 km/h</name><description>Fonte: OSM</description><Point><coordinates>-34.867415,-7.968136,0</coordinates></Point></Placemark>
<Placemark><name>Radar</name><description>Fonte: DNIT+OSM · sentido 43° (nordeste)</description><Point><coordinates>-34.916878,-7.965346,0</coordinates></Point></Placemark>
<Placemark><name>Radar 60 km/h</name><description>Fonte: OSM</description><Point><coordinates>-34.915690,-7.963986,0</coordinates></Point></Placemark>
<Placemark><name>Radar 60 km/h</name><description>Fonte: DNIT+OSM · sentido 223° (sudoeste)</description><Point><coordinates>-34.915976,-7.963438,0</coordinates></Point></Placemark>
<Placemark><name>Radar 40 km/h</name><description>Fonte: OSM</description><Point><coordinates>-35.012244,-7.959295,0</coordinates></Point></Placemark>
<Placemark><name>Radar 60 km/h</name><description>Fonte: OSM</description><Point><coordinates>-34.872316,-7.948995,0</coordinates></Point></Placemark>
<Placemark><name>Radar 60 km/h</name><description>Fonte: OSM</description><Point><coordinates>-34.872363,-7.948876,0</coordinates></Point></Placemark>
<Placemark><name>Radar 40 km/h</name><description>Fonte: OSM</description><Point><coordinates>-34.877552,-7.943890,0</coordinates></Point></Placemark>
<Placemark><name>Radar 40 km/h</name><description>Fonte: OSM</description><Point><coordinates>-34.877643,-7.942233,0</coordinates></Point></Placemark>
<Placemark><name>Radar 40 km/h</name><description>Fonte: OSM</description><Point><coordinates>-34.877963,-7.942183,0</coordinates></Point></Placemark>
<Placemark><name>Radar</name><description>Fonte: OSM</description><Point><coordinates>-34.979988,-7.939847,0</coordinates></Point></Placemark>
<Placemark><name>Radar 60 km/h</name><description>Fonte: OSM</description><Point><coordinates>-34.880662,-7.937460,0</coordinates></Point></Placemark>
<Placemark><name>Radar 40 km/h</name><description>Fonte: OSM</description><Point><coordinates>-34.898938,-7.914179,0</coordinates></Point></Placemark>
<Placemark><name>Radar 50 km/h</name><description>Fonte: DNIT+OSM</description><Point><coordinates>-34.899606,-7.913810,0</coordinates></Point></Placemark>
<Placemark><name>Radar 60 km/h</name><description>Fonte: OSM</description><Point><coordinates>-34.899611,-7.913216,0</coordinates></Point></Placemark>
<Placemark><name>Radar 60 km/h</name><description>Fonte: OSM</description><Point><coordinates>-34.900223,-7.912841,0</coordinates></Point></Placemark>
<Placemark><name>Radar 60 km/h</name><description>Fonte: OSM</description><Point><coordinates>-34.902513,-7.897415,0</coordinates></Point></Placemark>
<Placemark><name>Radar 50 km/h</name><description>Fonte: DNIT+OSM · sentido 171° (sul)</description><Point><coordinates>-34.903005,-7.896513,0</coordinates></Point></Placemark>
<Placemark><name>Radar 50 km/h</name><description>Fonte: OSM</description><Point><coordinates>-34.902818,-7.896306,0</coordinates></Point></Placemark>
<Placemark><name>Radar</name><description>Fonte: OSM</description><Point><coordinates>-34.825836,-7.891469,0</coordinates></Point></Placemark>
<Placemark><name>Radar 40 km/h</name><description>Fonte: OSM</description><Point><coordinates>-34.903471,-7.890728,0</coordinates></Point></Placemark>
<Placemark><name>Radar 50 km/h</name><description>Fonte: OSM</description><Point><coordinates>-34.903623,-7.890695,0</coordinates></Point></Placemark>
<Placemark><name>Radar 40 km/h</name><description>Fonte: DNIT+OSM</description><Point><coordinates>-34.903881,-7.890484,0</coordinates></Point></Placemark>
<Placemark><name>Radar</name><description>Fonte: DNIT · sentido 352° (norte)</description><Point><coordinates>-34.903529,-7.890131,0</coordinates></Point></Placemark>
<Placemark><name>Radar 60 km/h</name><description>Fonte: OSM</description><Point><coordinates>-34.903751,-7.888610,0</coordinates></Point></Placemark>
<Placemark><name>Radar 60 km/h</name><description>Fonte: OSM</description><Point><coordinates>-34.904071,-7.888416,0</coordinates></Point></Placemark>
<Placemark><name>Radar</name><description>Fonte: DNIT</description><Point><coordinates>-34.906578,-7.871518,0</coordinates></Point></Placemark>
<Placemark><name>Radar 60 km/h</name><description>Fonte: OSM</description><Point><coordinates>-34.906256,-7.871384,0</coordinates></Point></Placemark>
<Placemark><name>Radar 50 km/h</name><description>Fonte: OSM</description><Point><coordinates>-34.906599,-7.870889,0</coordinates></Point></Placemark>
<Placemark><name>Radar 50 km/h</name><description>Fonte: OSM</description><Point><coordinates>-34.907616,-7.861958,0</coordinates></Point></Placemark>
<Placemark><name>Radar 50 km/h</name><description>Fonte: OSM</description><Point><coordinates>-34.907791,-7.861721,0</coordinates></Point></Placemark>
<Placemark><name>Radar 40 km/h</name><description>Fonte: DNIT+OSM</description><Point><coordinates>-34.908047,-7.861531,0</coordinates></Point></Placemark>
<Placemark><name>Radar 50 km/h</name><description>Fonte: OSM</description><Point><coordinates>-34.908861,-7.855296,0</coordinates></Point></Placemark>
<Placemark><name>Radar 50 km/h</name><description>Fonte: OSM</description><Point><coordinates>-34.908756,-7.855043,0</coordinates></Point></Placemark>
<Placemark><name>Radar 40 km/h</name><description>Fonte: OSM</description><Point><coordinates>-34.908757,-7.853942,0</coordinates></Point></Placemark>
<Placemark><name>Radar</name><description>Fonte: DNIT</description><Point><coordinates>-35.238685,-7.845172,0</coordinates></Point></Placemark>
<Placemark><name>Radar 40 km/h</name><description>Fonte: OSM</description><Point><coordinates>-35.268932,-7.842686,0</coordinates></Point></Placemark>
<Placemark><name>Radar 50 km/h</name><description>Fonte: DNIT+OSM · sentido 346° (norte)</description><Point><coordinates>-34.916335,-7.821540,0</coordinates></Point></Placemark>
<Placemark><name>Radar 50 km/h</name><description>Fonte: DNIT+OSM · sentido 164° (sul)</description><Point><coordinates>-34.917179,-7.819310,0</coordinates></Point></Placemark>
<Placemark><name>Radar 80 km/h</name><description>Fonte: OSM</description><Point><coordinates>-34.926382,-7.802461,0</coordinates></Point></Placemark>
<Placemark><name>Radar 40 km/h</name><description>Fonte: OSM</description><Point><coordinates>-34.899605,-7.776121,0</coordinates></Point></Placemark>
<Placemark><name>Radar</name><description>Fonte: OSM</description><Point><coordinates>-34.891677,-7.773921,0</coordinates></Point></Placemark>
<Placemark><name>Radar 40 km/h</name><description>Fonte: OSM</description><Point><coordinates>-34.896845,-7.773528,0</coordinates></Point></Placemark>
<Placemark><name>Radar</name><description>Fonte: DNIT</description><Point><coordinates>-35.234187,-7.747923,0</coordinates></Point></Placemark>
<Placemark><name>Radar 80 km/h</name><description>Fonte: OSM</description><Point><coordinates>-34.924789,-7.682545,0</coordinates></Point></Placemark>
<Placemark><name>Radar 80 km/h</name><description>Fonte: OSM</description><Point><coordinates>-34.983724,-7.596047,0</coordinates></Point></Placemark>
<Placemark><name>Radar</name><description>Fonte: DNIT</description><Point><coordinates>-40.494341,-7.593422,0</coordinates></Point></Placemark>
<Placemark><name>Radar 40 km/h</name><description>Fonte: OSM</description><Point><coordinates>-35.008303,-7.565696,0</coordinates></Point></Placemark>
<Placemark><name>Radar</name><description>Fonte: DNIT · sentido 173° (sul)</description><Point><coordinates>-34.991005,-7.559362,0</coordinates></Point></Placemark>
<Placemark><name>Radar 80 km/h</name><description>Fonte: OSM</description><Point><coordinates>-34.990927,-7.558573,0</coordinates></Point></Placemark>
<Placemark><name>Radar</name><description>Fonte: DNIT · sentido 187° (sul)</description><Point><coordinates>-34.985126,-7.500006,0</coordinates></Point></Placemark>
</Folder>
</Document></kml>