<?xml version="1.0" encoding="UTF-8"?>
<gpx version="1.1" creator="Pardal" xmlns="http://www.topografix.com/GPX/1/1">
<metadata><name>Pardal — radares — PE</name><desc>Pardal — © colaboradores do OpenStreetMap (ODbL 1.0) e fontes abertas listadas no README</desc></metadata>
<wpt lat="-9.402398" lon="-40.543201"><name>Radar 60 km/h</name><desc>Fonte: INMETRO</desc><type>FIXED</type></wpt>
<wpt lat="-9.401460" lon="-40.505697"><name>Radar</name><desc>Fonte: OSM</desc><type>FIXED</type></wpt>
<wpt lat="-9.399952" lon="-40.499899"><name>Radar 50 km/h</name><desc>Fonte: INMETRO</desc><type>FIXED</type></wpt>
<wpt lat="-9.399494" lon="-40.502176"><name>Radar 50 km/h</name><desc>Fonte: INMETRO</desc><type>FIXED</type></wpt>
<wpt lat="-9.397562" lon="-40.491653"><name>Radar 60 km/h</name><desc>Fonte: OSM</desc><type>FIXED</type></wpt>
<wpt lat="-9.396217" lon="-40.490600"><name>Radar 50 km/h</name><desc>Fonte: INMETRO</desc><type>FIXED</type></wpt>
<wpt lat="-9.395505" lon="-40.499206"><name>Radar 40 km/h</name><desc>Fonte: INMETRO</desc><type>FIXED</type></wpt>
<wpt lat="-9.395346" lon="-40.500760"><name>Radar 40 km/h</name><desc>Fonte: INMETRO</desc><type>FIXED</type></wpt>
<wpt lat="-9.393400" lon="-40.489860"><name>Radar 50 km/h</name><desc>Fonte: INMETRO</desc><type>FIXED</type></wpt>
<wpt lat="-9.392854" lon="-40.530553"><name>Radar 60 km/h</name><desc>Fonte: OSM</desc><type>FIXED</type></wpt>
<wpt lat="-9.389333" lon="-40.489275"><name>Radar 60 km/h</name><desc>Fonte: OSM</desc><type>FIXED</type></wpt>
<wpt lat="-9.385029" lon="-40.509968"><name>Radar</name><desc>Fonte: OSM</desc><type>FIXED</type></wpt>
<wpt lat="-9.380603" lon="-40.488377"><name>Radar 50 km/h</name><desc>Fonte: INMETRO</desc><type>FIXED</type></wpt>
<wpt lat="-9.379984" lon="-40.533245"><name>Radar 40 km/h</name><desc>Fonte: OSM</desc><type>FIXED</type></wpt>
<wpt lat="-9.378796" lon="-40.534759"><name>Radar 40 km/h</name><desc>Fonte: OSM</desc><type>FIXED</type></wpt>
<wpt lat="-9.370000" lon="-40.532772"><name>Radar 60 km/h</name><desc>Fonte: INMETRO</desc><type>FIXED</type></wpt>
<wpt lat="-9.364473" lon="-40.498895"><name>Radar 60 km/h</name><desc>Fonte: OSM</desc><type>FIXED</type></wpt>
<wpt lat="-9.360992" lon="-40.503163"><name>Radar</name><desc>Fonte: OSM</desc><type>FIXED</type></wpt>
<wpt lat="-8.962761" lon="-36.762409"><name>Radar 60 km/h</name><desc>Fonte: DNIT</desc><type>FIXED</type></wpt>
<wpt lat="-8.960251" lon="-36.725746"><name>Radar 60 km/h</name><desc>Fonte: DNIT</desc><type>FIXED</type></wpt>
<wpt lat="-8.909055" lon="-36.487414"><name>Radar 40 km/h</name><desc>Fonte: OSM</desc><type>FIXED</type></wpt>
<wpt lat="-8.896914" lon="-35.150618"><name>Radar 60 km/h</name><desc>Fonte: OSM</desc><type>FIXED</type></wpt>
<wpt lat="-8.891760" lon="-36.504204"><name>Radar 40 km/h</name><desc>Fonte: DNIT+OSM</desc><type>FIXED</type></wpt>
<wpt lat="-8.881132" lon="-36.491350"><name>Radar 60 km/h</name><desc>Fonte: DNIT</desc><type>FIXED</type></wpt>
<wpt lat="-8.880685" lon="-36.216697"><name>Radar 60 km/h</name><desc>Fonte: OSM</desc><type>FIXED</type></wpt>
<wpt lat="-8.878816" lon="-36.480634"><name>Radar 60 km/h</name><desc>Fonte: DNIT</desc><type>FIXED</type></wpt>
<wpt lat="-8.878260" lon="-36.476670"><name>Radar 60 km/h</name><desc>Fonte: OSM</desc><type>FIXED</type></wpt>
<wpt lat="-8.876371" lon="-36.502130"><name>Radar</name><desc>Fonte: OSM</desc><type>FIXED</type></wpt>
<wpt lat="-8.876283" lon="-36.502541"><name>Radar</name><desc>Fonte: OSM</desc><type>FIXED</type></wpt>
<wpt lat="-8.851690" lon="-36.461941"><name>Radar</name><desc>Fonte: DNIT</desc><type>FIXED</type></wpt>
<wpt lat="-8.830830" lon="-36.452937"><name>Radar</name><desc>Fonte: OSM</desc><type>FIXED</type></wpt>
<wpt lat="-8.830557" lon="-36.452813"><name>Radar</name><desc>Fonte: OSM</desc><type>FIXED</type></wpt>
<wpt lat="-8.805688" lon="-35.186311"><name>Radar 40 km/h</name><desc>Fonte: OSM</desc><type>FIXED</type></wpt>
<wpt lat="-8.774236" lon="-36.627703"><name>Radar 40 km/h</name><desc>Fonte: DNIT</desc><type>FIXED</type></wpt>
<wpt lat="-8.734221" lon="-35.173564"><name>Radar</name><desc>Fonte: OSM</desc><type>FIXED</type></wpt>
<wpt lat="-8.732444" lon="-35.173603"><name>Radar 60 km/h</name><desc>Fonte: OSM</desc><type>FIXED</type></wpt>
<wpt lat="-8.697975" lon="-36.021072"><name>Radar 40 km/h</name><desc>Fonte: DNIT</desc><type>FIXED</type></wpt>
<wpt lat="-8.697643" lon="-36.020811"><name>Radar 40 km/h</name><desc>Fonte: OSM</desc><type>FIXED</type></wpt>
<wpt lat="-8.693402" lon="-36.022908"><name>Radar 40 km/h</name><desc>Fonte: DNIT+OSM</desc><type>FIXED</type></wpt>
<wpt lat="-8.690543" lon="-35.604084"><name>Radar 80 km/h</name><desc>Fonte: DNIT · sentido 86° (leste)</desc><type>FIXED</type></wpt>
<wpt lat="-8.665496" lon="-35.157285"><name>Radar 40 km/h</name><desc>Fonte: OSM</desc><type>FIXED</type></wpt>
<wpt lat="-8.618966" lon="-39.240546"><name>Radar 40 km/h</name><desc>Fonte: OSM</desc><type>FIXED</type></wpt>
<wpt lat="-8.599411" lon="-35.110743"><name>Radar 60 km/h</name><desc>Fonte: OSM</desc><type>FIXED</type></wpt>
<wpt lat="-8.597934" lon="-35.109196"><name>Radar 60 km/h</name><desc>Fonte: OSM</desc><type>FIXED</type></wpt>
<wpt lat="-8.491276" lon="-36.234525"><name>Radar 40 km/h</name><desc>Fonte: OSM</desc><type>FIXED</type></wpt>
<wpt lat="-8.447279" lon="-35.093344"><name>Radar 60 km/h</name><desc>Fonte: OSM</desc><type>FIXED</type></wpt>
<wpt lat="-8.401511" lon="-35.061204"><name>Radar 40 km/h</name><desc>Fonte: OSM</desc><type>FIXED</type></wpt>
<wpt lat="-8.393292" lon="-35.011380"><name>Radar 40 km/h</name><desc>Fonte: OSM</desc><type>FIXED</type></wpt>
<wpt lat="-8.383753" lon="-35.008543"><name>Radar 60 km/h</name><desc>Fonte: OSM</desc><type>FIXED</type></wpt>
<wpt lat="-8.383655" lon="-35.008720"><name>Radar 60 km/h</name><desc>Fonte: OSM</desc><type>FIXED</type></wpt>
<wpt lat="-8.350307" lon="-35.017959"><name>Radar 60 km/h</name><desc>Fonte: OSM</desc><type>FIXED</type></wpt>
<wpt lat="-8.348707" lon="-36.446597"><name>Radar 80 km/h</name><desc>Fonte: OSM</desc><type>FIXED</type></wpt>
<wpt lat="-8.348632" lon="-35.017367"><name>Radar 60 km/h</name><desc>Fonte: OSM</desc><type>FIXED</type></wpt>
<wpt lat="-8.348067" lon="-36.446694"><name>Radar 80 km/h</name><desc>Fonte: OSM</desc><type>FIXED</type></wpt>
<wpt lat="-8.330598" lon="-36.124557"><name>Radar</name><desc>Fonte: OSM</desc><type>FIXED</type></wpt>
<wpt lat="-8.330557" lon="-36.124461"><name>Radar</name><desc>Fonte: OSM</desc><type>FIXED</type></wpt>
<wpt lat="-8.327997" lon="-36.150577"><name>Radar</name><desc>Fonte: OSM</desc><type>FIXED</type></wpt>
<wpt lat="-8.318116" lon="-36.058278"><name>Radar</name><desc>Fonte: OSM</desc><type>FIXED</type></wpt>
<wpt lat="-8.310657" lon="-36.032006"><name>Radar 100 km/h</name><desc>Fonte: OSM</desc><type>FIXED</type></wpt>
<wpt lat="-8.310597" lon="-36.031804"><name>Radar</name><desc>Fonte: OSM</desc><type>FIXED</type></wpt>
<wpt lat="-8.306881" lon="-35.960412"><name>Radar</name><desc>Fonte: DER-PE+OSM</desc><type>FIXED</type></wpt>
<wpt lat="-8.306656" lon="-35.960848"><name>Radar 60 km/h</name><desc>Fonte: OSM</desc><type>FIXED</type></wpt>
<wpt lat="-8.306625" lon="-35.961820"><name>Radar 60 km/h</name><desc>Fonte: DER-PE+OSM</desc><type>FIXED</type></wpt>
<wpt lat="-8.302796" lon="-35.977809"><name>Radar 60 km/h</name><desc>Fonte: OSM</desc><type>FIXED</type></wpt>
<wpt lat="-8.302783" lon="-35.977354"><name>Radar 60 km/h</name><desc>Fonte: OSM</desc><type>FIXED</type></wpt>
<wpt lat="-8.302646" lon="-36.003098"><name>Radar</name><desc>Fonte: OSM</desc><type>FIXED</type></wpt>
<wpt lat="-8.302444" lon="-36.003010"><name>Radar 60 km/h</name><desc>Fonte: OSM</desc><type>FIXED</type></wpt>
<wpt lat="-8.302264" lon="-36.002465"><name>Radar</name><desc>Fonte: DNIT</desc><type>FIXED</type></wpt>
<wpt lat="-8.300395" lon="-35.848852"><name>Radar</name><desc>Fonte: DER-PE+OSM</desc><type>FIXED</type></wpt>
<wpt lat="-8.300316" lon="-35.849372"><name>Radar 60 km/h</name><desc>Fonte: DER-PE+OSM</desc><type>FIXED</type></wpt>
<wpt lat="-8.300262" lon="-35.849091"><name>Radar 60 km/h</name><desc>Fonte: OSM</desc><type>FIXED</type></wpt>
<wpt lat="-8.297194" lon="-35.025118"><name>Radar 40 km/h</name><desc>Fonte: OSM</desc><type>FIXED</type></wpt>
<wpt lat="-8.297134" lon="-35.025576"><name>Radar 40 km/h</name><desc>Fonte: OSM</desc><type>FIXED</type></wpt>
<wpt lat="-8.292805" lon="-35.953218"><name>Radar 50 km/h</name><desc>Fonte: OSM</desc><type>FIXED</type></wpt>
<wpt lat="-8.292483" lon="-35.955289"><name>Radar 50 km/h</name><desc>Fonte: OSM</desc><type>FIXED</type></wpt>
<wpt lat="-8.292397" lon="-35.955265"><name>Radar 50 km/h</name><desc>Fonte: OSM</desc><type>FIXED</type></wpt>
<wpt lat="-8.292216" lon="-35.048813"><name>Radar 50 km/h</name><desc>Fonte: OSM</desc><type>FIXED</type></wpt>
<wpt lat="-8.291062" lon="-36.012091"><name>Radar 50 km/h</name><desc>Fonte: OSM</desc><type>FIXED</type></wpt>
<wpt lat="-8.287764" lon="-34.956199"><name>Radar 50 km/h</name><desc>Fonte: OSM</desc><type>FIXED</type></wpt>
<wpt lat="-8.287125" lon="-35.972667"><name>Radar 40 km/h</name><desc>Fonte: OSM</desc><type>FIXED</type></wpt>
<wpt lat="-8.286563" lon="-35.994332"><name>Radar 40 km/h</name><desc>Fonte: INMETRO+OSM</desc><type>FIXED</type></wpt>
<wpt lat="-8.285295" lon="-35.968347"><name>Radar 40 km/h</name><desc>Fonte: INMETRO+OSM</desc><type>FIXED</type></wpt>
<wpt lat="-8.284203" lon="-35.968252"><name>Radar 40 km/h</name><desc>Fonte: INMETRO+OSM</desc><type>FIXED</type></wpt>
<wpt lat="-8.280697" lon="-35.029809"><name>Radar 40 km/h</name><desc>Fonte: OSM</desc><type>FIXED</type></wpt>
<wpt lat="-8.280640" lon="-35.029976"><name>Radar 40 km/h</name><desc>Fonte: OSM</desc><type>FIXED</type></wpt>
<wpt lat="-8.276634" lon="-35.973042"><name>Radar 50 km/h</name><desc>Fonte: INMETRO+OSM</desc><type>FIXED</type></wpt>
<wpt lat="-8.275978" lon="-35.981400"><name>Radar 40 km/h</name><desc>Fonte: OSM</desc><type>FIXED</type></wpt>
<wpt lat="-8.275910" lon="-35.982295"><name>Radar 40 km/h</name><desc>Fonte: INMETRO+OSM</desc><type>FIXED</type></wpt>
<wpt lat="-8.274453" lon="-35.991588"><name>Radar 50 km/h</name><desc>Fonte: INMETRO+OSM</desc><type>FIXED</type></wpt>
<wpt lat="-8.273448" lon="-35.964016"><name>Radar 40 km/h</name><desc>Fonte: INMETRO+OSM</desc><type>FIXED</type></wpt>
<wpt lat="-8.271934" lon="-35.974878"><name>Radar 50 km/h</name><desc>Fonte: INMETRO+OSM</desc><type>FIXED</type></wpt>
<wpt lat="-8.271787" lon="-35.975123"><name>Radar 50 km/h</name><desc>Fonte: OSM</desc><type>FIXED</type></wpt>
<wpt lat="-8.269821" lon="-35.965933"><name>Radar 40 km/h</name><desc>Fonte: OSM</desc><type>FIXED</type></wpt>
<wpt lat="-8.267228" lon="-35.978250"><name>Radar 40 km/h</name><desc>Fonte: OSM</desc><type>FIXED</type></wpt>
<wpt lat="-8.266765" lon="-35.999270"><name>Radar 40 km/h</name><desc>Fonte: OSM</desc><type>FIXED</type></wpt>
<wpt lat="-8.263943" lon="-36.004734"><name>Radar 40 km/h</name><desc>Fonte: OSM</desc><type>FIXED</type></wpt>
<wpt lat="-8.257598" lon="-34.947077"><name>Radar 40 km/h</name><desc>Fonte: OSM</desc><type>FIXED</type></wpt>
<wpt lat="-8.257461" lon="-34.946979"><name>Radar 40 km/h</name><desc>Fonte: OSM</desc><type>FIXED</type></wpt>
<wpt lat="-8.255232" lon="-35.964520"><name>Radar 60 km/h</name><desc>Fonte: OSM</desc><type>FIXED</type></wpt>
<wpt lat="-8.254724" lon="-35.966424"><name>Radar 60 km/h</name><desc>Fonte: OSM</desc><type>FIXED</type></wpt>
<wpt lat="-8.249394" lon="-34.942201"><name>Radar 50 km/h</name><desc>Fonte: OSM</desc><type>FIXED</type></wpt>
<wpt lat="-8.247747" lon="-34.941409"><name>Radar 50 km/h</name><desc>Fonte: OSM</desc><type>FIXED</type></wpt>
<wpt lat="-8.245656" lon="-35.974866"><name>Radar</name><desc>Fonte: DNIT · sentido 358° (norte)</desc><type>FIXED</type></wpt>
<wpt lat="-8.243181" lon="-35.975485"><name>Radar 60 km/h</name><desc>Fonte: DNIT+OSM · sentido 178° (sul)</desc><type>FIXED</type></wpt>
<wpt lat="-8.241623" lon="-34.983635"><name>Radar 40 km/h</name><desc>Fonte: INMETRO</desc><type>FIXED</type></wpt>
<wpt lat="-8.241617" lon="-35.975340"><name>Radar 60 km/h</name><desc>Fonte: OSM</desc><type>FIXED</type></wpt>
<wpt lat="-8.241364" lon="-35.749942"><name>Radar 60 km/h</name><desc>Fonte: OSM</desc><type>FIXED</type></wpt>
<wpt lat="-8.241097" lon="-35.749741"><name>Radar 60 km/h</name><desc>Fonte: DER-PE+OSM</desc><type>FIXED</type></wpt>
<wpt lat="-8.240850" lon="-35.749328"><name>Radar</name><desc>Fonte: DER-PE</desc><type>FIXED</type></wpt>
<wpt lat="-8.234894" lon="-35.723745"><name>Radar 60 km/h</name><desc>Fonte: DER-PE+OSM</desc><type>FIXED</type></wpt>
<wpt lat="-8.233821" lon="-35.977005"><name>Radar 110 km/h</name><desc>Fonte: OSM</desc><type>FIXED</type></wpt>
<wpt lat="-8.220476" lon="-34.965836"><name>Radar 50 km/h</name><desc>Fonte: INMETRO</desc><type>FIXED</type></wpt>
<wpt lat="-8.218737" lon="-35.667519"><name>Radar 60 km/h</name><desc>Fonte: DER-PE+OSM</desc><type>FIXED</type></wpt>
<wpt lat="-8.218674" lon="-35.667018"><name>Radar 60 km/h</name><desc>Fonte: DER-PE+OSM</desc><type>FIXED</type></wpt>
<wpt lat="-8.216980" lon="-35.652143"><name>Radar 60 km/h</name><desc>Fonte: DER-PE+OSM</desc><type>FIXED</type></wpt>
<wpt lat="-8.216831" lon="-35.650289"><name>Radar 60 km/h</name><desc>Fonte: OSM</desc><type>FIXED</type></wpt>
<wpt lat="-8.216820" lon="-35.651890"><name>Radar 60 km/h</name><desc>Fonte: OSM</desc><type>FIXED</type></wpt>
<wpt lat="-8.216729" lon="-35.649435"><name>Radar 60 km/h</name><desc>Fonte: OSM</desc><type>FIXED</type></wpt>
<wpt lat="-8.216588" lon="-35.648991"><name>Radar</name><desc>Fonte: DER-PE</desc><type>FIXED</type></wpt>
<wpt lat="-8.196668" lon="-35.575339"><name>Radar 60 km/h</name><desc>Fonte: DER-PE+OSM</desc><type>FIXED</type></wpt>
<wpt lat="-8.196583" lon="-35.574917"><name>Radar 60 km/h</name><desc>Fonte: DER-PE+OSM</desc><type>FIXED</type></wpt>
<wpt lat="-8.195364" lon="-35.535287"><name>Radar</name><desc>Fonte: OSM</desc><type>FIXED</type></wpt>
<wpt lat="-8.195290" lon="-35.535737"><name>Radar 110 km/h</name><desc>Fonte: OSM</desc><type>FIXED</type></wpt>
<wpt lat="-8.193224" lon="-35.544538"><name>Radar 60 km/h</name><desc>Fonte: DER-PE+OSM</desc><type>FIXED</type></wpt>
<wpt lat="-8.193098" lon="-35.545049"><name>Radar 60 km/h</name><desc>Fonte: DER-PE+OSM</desc><type>FIXED</type></wpt>
<wpt lat="-8.186365" lon="-35.498755"><name>Radar</name><desc>Fonte: OSM</desc><type>FIXED</type></wpt>
<wpt lat="-8.178384" lon="-35.770806"><name>Radar 50 km/h</name><desc>Fonte: OSM</desc><type>FIXED</type></wpt>
<wpt lat="-8.172971" lon="-35.465315"><name>Radar 60 km/h</name><desc>Fonte: DER-PE+OSM</desc><type>FIXED</type></wpt>
<wpt lat="-8.172837" lon="-35.465579"><name>Radar</name><desc>Fonte: OSM</desc><type>FIXED</type></wpt>
<wpt lat="-8.167437" lon="-35.977846"><name>Radar</name><desc>Fonte: OSM</desc><type>FIXED</type></wpt>
<wpt lat="-8.163953" lon="-35.443877"><name>Radar</name><desc>Fonte: OSM</desc><type>FIXED</type></wpt>
<wpt lat="-8.163885" lon="-35.443612"><name>Radar 60 km/h</name><desc>Fonte: DER-PE+OSM</desc><type>FIXED</type></wpt>
<wpt lat="-8.161803" lon="-35.437014"><name>Radar 60 km/h</name><desc>Fonte: OSM</desc><type>FIXED</type></wpt>
<wpt lat="-8.161793" lon="-35.466325"><name>Radar</name><desc>Fonte: DER-PE</desc><type>FIXED</type></wpt>
<wpt lat="-8.161732" lon="-35.436540"><name>Radar</name><desc>Fonte: OSM</desc><type>FIXED</type></wpt>
<wpt lat="-8.158244" lon="-34.940717"><name>Radar 40 km/h</name><desc>Fonte: OSM</desc><type>FIXED</type></wpt>
<wpt lat="-8.157047" lon="-35.427523"><name>Radar 60 km/h</name><desc>Fonte: OSM</desc><type>FIXED</type></wpt>
<wpt lat="-8.154264" lon="-34.959718"><name>Radar 40 km/h</name><desc>Fonte: OSM</desc><type>FIXED</type></wpt>
<wpt lat="-8.154170" lon="-34.959400"><name>Radar 40 km/h</name><desc>Fonte: OSM</desc><type>FIXED</type></wpt>
<wpt lat="-8.151750" lon="-34.942931"><name>Radar 40 km/h</name><desc>Fonte: DNIT+OSM · sentido 158° (sul)</desc><type>FIXED</type></wpt>
<wpt lat="-8.147263" lon="-35.399509"><name>Radar 60 km/h</name><desc>Fonte: OSM</desc><type>FIXED</type></wpt>
<wpt lat="-8.146071" lon="-35.393553"><name>Radar 60 km/h</name><desc>Fonte: DER-PE+OSM</desc><type>FIXED</type></wpt>
<wpt lat="-8.145858" lon="-35.393005"><name>Radar</name><desc>Fonte: DER-PE</desc><type>FIXED</type></wpt>
<wpt lat="-8.145831" lon="-35.393277"><name>Radar 60 km/h</name><desc>Fonte: OSM</desc><type>FIXED</type></wpt>
<wpt lat="-8.144380" lon="-34.906482"><name>Radar 60 km/h</name><desc>Fonte: PCR</desc><type>FIXED</type></wpt>
<wpt lat="-8.142257" lon="-34.903738"><name>Radar 60 km/h</name><desc>Fonte: OSM</desc><type>FIXED</type></wpt>
<wpt lat="-8.141418" lon="-35.382346"><name>Radar 60 km/h</name><desc>Fonte: OSM</desc><type>FIXED</type></wpt>
<wpt lat="-8.140890" lon="-34.903219"><name>Radar 60 km/h</name><desc>Fonte: PCR</desc><type>FIXED</type></wpt>
<wpt lat="-8.140588" lon="-34.903072"><name>Radar 60 km/h</name><desc>Fonte: OSM</desc><type>FIXED</type></wpt>
<wpt lat="-8.139768" lon="-34.947099"><name>Radar 40 km/h</name><desc>Fonte: DNIT+OSM</desc><type>FIXED</type></wpt>
<wpt lat="-8.139425" lon="-34.946978"><name>Radar 40 km/h</name><desc>Fonte: OSM</desc><type>FIXED</type></wpt>
<wpt lat="-8.136419" lon="-34.903309"><name>Radar 60 km/h</name><desc>Fonte: PCR</desc><type>FIXED</type></wpt>
<wpt lat="-8.136321" lon="-34.903607"><name>Radar 60 km/h</name><desc>Fonte: PCR</desc><type>FIXED</type></wpt>
<wpt lat="-8.132622" lon="-34.916209"><name>Radar 60 km/h</name><desc>Fonte: OSM</desc><type>FIXED</type></wpt>
<wpt lat="-8.132612" lon="-34.916381"><name>Radar 60 km/h</name><desc>Fonte: OSM</desc><type>FIXED</type></wpt>
<wpt lat="-8.131060" lon="-34.916159"><name>Radar 60 km/h</name><desc>Fonte: PCR</desc><type>FIXED</type></wpt>
<wpt lat="-8.130669" lon="-34.945033"><name>Radar 50 km/h</name><desc>Fonte: DNIT+OSM · sentido 218° (sudoeste)</desc><type>FIXED</type></wpt>
<wpt lat="-8.130636" lon="-34.915938"><name>Radar 60 km/h</name><desc>Fonte: PCR+OSM</desc><type>FIXED</type></wpt>
<wpt lat="-8.129922" lon="-34.898947"><name>Radar 60 km/h</name><desc>Fonte: OSM</desc><type>FIXED</type></wpt>
<wpt lat="-8.128602" lon="-34.915513"><name>Radar 60 km/h</name><desc>Fonte: OSM</desc><type>FIXED</type></wpt>
<wpt lat="-8.128489" lon="-34.915698"><name>Radar 60 km/h</name><desc>Fonte: OSM</desc><type>FIXED</type></wpt>
<wpt lat="-8.128025" lon="-34.900266"><name>Radar 60 km/h</name><desc>Fonte: PCR+INMETRO</desc><type>FIXED</type></wpt>
<wpt lat="-8.127368" lon="-34.915520"><name>Radar 60 km/h</name><desc>Fonte: PCR</desc><type>FIXED</type></wpt>
<wpt lat="-8.122832" lon="-34.917466"><name>Radar 50 km/h</name><desc>Fonte: INMETRO</desc><type>FIXED</type></wpt>
<wpt lat="-8.122554" lon="-35.282207"><name>Radar 40 km/h</name><desc>Fonte: OSM</desc><type>FIXED</type></wpt>
<wpt lat="-8.121783" lon="-34.918223"><name>Radar 50 km/h</name><desc>Fonte: PCR</desc><type>FIXED</type></wpt>
<wpt lat="-8.121656" lon="-34.918030"><name>Radar 50 km/h</name><desc>Fonte: PCR</desc><type>FIXED</type></wpt>
<wpt lat="-8.121477" lon="-34.909335"><name>Radar 50 km/h</name><desc>Fonte: PCR</desc><type>FIXED</type></wpt>
<wpt lat="-8.121462" lon="-34.898930"><name>Radar 60 km/h</name><desc>Fonte: PCR</desc><type>FIXED</type></wpt>
<wpt lat="-8.121261" lon="-34.909787"><name>Radar 50 km/h</name><desc>Fonte: PCR</desc><type>FIXED</type></wpt>
<wpt lat="-8.120766" lon="-34.919102"><name>Radar 50 km/h</name><desc>Fonte: INMETRO</desc><type>FIXED</type></wpt>
<wpt lat="-8.120037" lon="-35.265171"><name>Radar 60 km/h</name><desc>Fonte: OSM</desc><type>FIXED</type></wpt>
<wpt lat="-8.119879" lon="-35.264913"><name>Radar</name><desc>Fonte: DER-PE</desc><type>FIXED</type></wpt>
<wpt lat="-8.119709" lon="-35.264688"><name>Radar 60 km/h</name><desc>Fonte: OSM</desc><type>FIXED</type></wpt>
<wpt lat="-8.116983" lon="-35.259221"><name>Radar</name><desc>Fonte: DER-PE+OSM</desc><type>FIXED</type></wpt>
<wpt lat="-8.116797" lon="-35.281862"><name>Radar 40 km/h</name><desc>Fonte: OSM</desc><type>FIXED</type></wpt>
<wpt lat="-8.116685" lon="-35.258224"><name>Radar 60 km/h</name><desc>Fonte: OSM</desc><type>FIXED</type></wpt>
<wpt lat="-8.116362" lon="-34.904362"><name>Radar 50 km/h</name><desc>Fonte: PCR</desc><type>FIXED</type></wpt>
<wpt lat="-8.115720" lon="-34.904324"><name>Radar 50 km/h</name><desc>Fonte: PCR</desc><type>FIXED</type></wpt>
<wpt lat="-8.115078" lon="-34.900601"><name>Radar 60 km/h</name><desc>Fonte: PCR</desc><type>FIXED</type></wpt>
<wpt lat="-8.113016" lon="-34.945587"><name>Radar</name><desc>Fonte: DNIT</desc><type>FIXED</type></wpt>
<wpt lat="-8.112655" lon="-34.945479"><name>Radar 40 km/h</name><desc>Fonte: OSM</desc><type>FIXED</type></wpt>
<wpt lat="-8.111597" lon="-35.012590"><name>Radar</name><desc>Fonte: DER-PE</desc><type>FIXED</type></wpt>
<wpt lat="-8.111422" lon="-35.012150"><name>Radar 40 km/h</name><desc>Fonte: OSM</desc><type>FIXED</type></wpt>
<wpt lat="-8.111365" lon="-35.106885"><name>Radar 60 km/h</name><desc>Fonte: OSM</desc><type>FIXED</type></wpt>
<wpt lat="-8.110266" lon="-35.198104"><name>Radar</name><desc>Fonte: DER-PE+OSM</desc><type>FIXED</type></wpt>
<wpt lat="-8.110103" lon="-35.197569"><name>Radar 60 km/h</name><desc>Fonte: DER-PE+OSM</desc><type>FIXED</type></wpt>
<wpt lat="-8.110062" lon="-35.105624"><name>Radar 60 km/h</name><desc>Fonte: DER-PE+OSM</desc><type>FIXED</type></wpt>
<wpt lat="-8.110045" lon="-35.197938"><name>Radar 60 km/h</name><desc>Fonte: OSM</desc><type>FIXED</type></wpt>
<wpt lat="-8.109959" lon="-34.946721"><name>Radar 60 km/h</name><desc>Fonte: OSM</desc><type>FIXED</type></wpt>
<wpt lat="-8.109292" lon="-34.888895"><name>Radar 60 km/h</name><desc>Fonte: INMETRO</desc><type>FIXED</type></wpt>
<wpt lat="-8.108700" lon="-34.947332"><name>Radar 60 km/h</name><desc>Fonte: OSM</desc><type>FIXED</type></wpt>
<wpt lat="-8.108619" lon="-34.947166"><name>Radar 50 km/h</name><desc>Fonte: OSM</desc><type>FIXED</type></wpt>
<wpt lat="-8.107843" lon="-34.888161"><name>Radar 60 km/h</name><desc>Fonte: PCR</desc><type>FIXED</type></wpt>
<wpt lat="-8.107480" lon="-34.948116"><name>Radar 50 km/h</name><desc>Fonte: DNIT+OSM</desc><type>FIXED</type></wpt>
<wpt lat="-8.106779" lon="-34.911330"><name>Radar 60 km/h</name><desc>Fonte: PCR</desc><type>FIXED</type></wpt>
<wpt lat="-8.105959" lon="-34.911418"><name>Radar 60 km/h</name><desc>Fonte: PCR</desc><type>FIXED</type></wpt>
<wpt lat="-8.105823" lon="-34.892129"><name>Radar 60 km/h</name><desc>Fonte: PCR</desc><type>FIXED</type></wpt>
<wpt lat="-8.105409" lon="-34.891914"><name>Radar 60 km/h</name><desc>Fonte: PCR</desc><type>FIXED</type></wpt>
<wpt lat="-8.105234" lon="-34.889486"><name>Radar 60 km/h</name><desc>Fonte: PCR</desc><type>FIXED</type></wpt>
<wpt lat="-8.104678" lon="-34.886728"><name>Radar 60 km/h</name><desc>Fonte: OSM</desc><type>FIXED</type></wpt>
<wpt lat="-8.103140" lon="-34.913166"><name>Radar 40 km/h</name><desc>Fonte: PCR</desc><type>FIXED</type></wpt>
<wpt lat="-8.100577" lon="-34.928071"><name>Radar 60 km/h</name><desc>Fonte: PCR</desc><type>FIXED</type></wpt>
<wpt lat="-8.100331" lon="-34.928221"><name>Radar 60 km/h</name><desc>Fonte: PCR</desc><type>FIXED</type></wpt>
<wpt lat="-8.100122" lon="-34.886346"><name>Radar 60 km/h</name><desc>Fonte: OSM</desc><type>FIXED</type></wpt>
<wpt lat="-8.099986" lon="-34.928264"><name>Radar 60 km/h</name><desc>Fonte: OSM</desc><type>FIXED</type></wpt>
<wpt lat="-8.099616" lon="-34.949870"><name>Radar 50 km/h</name><desc>Fonte: DNIT · sentido 346° (norte)</desc><type>FIXED</type></wpt>
<wpt lat="-8.098984" lon="-34.890255"><name>Radar 60 km/h</name><desc>Fonte: PCR</desc><type>FIXED</type></wpt>
<wpt lat="-8.098785" lon="-34.950236"><name>Radar 60 km/h</name><desc>Fonte: OSM</desc><type>FIXED</type></wpt>
<wpt lat="-8.098741" lon="-34.950063"><name>Radar 50 km/h</name><desc>Fonte: OSM</desc><type>FIXED</type></wpt>
<wpt lat="-8.096842" lon="-34.950003"><name>Radar 50 km/h</name><desc>Fonte: DNIT · sentido 201° (sul)</desc><type>FIXED</type></wpt>
<wpt lat="-8.094704" lon="-34.909181"><name>Radar 60 km/h</name><desc>Fonte: PCR</desc><type>FIXED</type></wpt>
<wpt lat="-8.094505" lon="-34.965552"><name>Radar</name><desc>Fonte: OSM</desc><type>FIXED</type></wpt>
<wpt lat="-8.093821" lon="-34.909227"><name>Radar 60 km/h</name><desc>Fonte: PCR</desc><type>FIXED</type></wpt>
<wpt lat="-8.092120" lon="-34.961596"><name>Radar 50 km/h</name><desc>Fonte: PCR</desc><type>FIXED</type></wpt>
<wpt lat="-8.091942" lon="-34.936369"><name>Radar 60 km/h</name><desc>Fonte: OSM</desc><type>FIXED</type></wpt>
<wpt lat="-8.091900" lon="-34.882096"><name>Radar 60 km/h</name><desc>Fonte: PCR</desc><type>FIXED</type></wpt>
<wpt lat="-8.091724" lon="-34.936071"><name>Radar 50 km/h</name><desc>Fonte: PCR</desc><type>FIXED</type></wpt>
<wpt lat="-8.091523" lon="-34.935846"><name>Radar 60 km/h</name><desc>Fonte: OSM</desc><type>FIXED</type></wpt>
<wpt lat="-8.090489" lon="-34.955414"><name>Radar 50 km/h</name><desc>Fonte: PCR+INMETRO</desc><type>FIXED</type></wpt>
<wpt lat="-8.090202" lon="-34.954702"><name>Radar 50 km/h</name><desc>Fonte: PCR+INMETRO</desc><type>FIXED</type></wpt>
<wpt lat="-8.089979" lon="-34.946939"><name>Radar 50 km/h</name><desc>Fonte: DNIT · sentido 182° (sul)</desc><type>FIXED</type></wpt>
<wpt lat="-8.088917" lon="-34.885222"><name>Radar 60 km/h</name><desc>Fonte: PCR</desc><type>FIXED</type></wpt>
<wpt lat="-8.088877" lon="-34.946908"><name>Radar 60 km/h</name><desc>Fonte: OSM</desc><type>FIXED</type></wpt>
<wpt lat="-8.088326" lon="-34.883770"><name>Radar 60 km/h</name><desc>Fonte: PCR+INMETRO</desc><type>FIXED</type></wpt>
<wpt lat="-8.087420" lon="-34.909934"><name>Radar 40 km/h</name><desc>Fonte: PCR+INMETRO</desc><type>FIXED</type></wpt>
<wpt lat="-8.087257" lon="-34.891217"><name>Radar 60 km/h</name><desc>Fonte: INMETRO+OSM</desc><type>FIXED</type></wpt>
<wpt lat="-8.086852" lon="-34.946284"><name>Radar 50 km/h</name><desc>Fonte: DNIT · sentido 21° (norte)</desc><type>FIXED</type></wpt>
<wpt lat="-8.086088" lon="-37.640264"><name>Radar 40 km/h</name><desc>Fonte: DNIT</desc><type>FIXED</type></wpt>
<wpt lat="-8.084653" lon="-34.928018"><name>Radar 50 km/h</name><desc>Fonte: PCR</desc><type>FIXED</type></wpt>
<wpt lat="-8.084485" lon="-34.906977"><name>Radar</name><desc>Fonte: OSM</desc><type>FIXED</type></wpt>
<wpt lat="-8.084069" lon="-34.998434"><name>Radar 60 km/h</name><desc>Fonte: OSM</desc><type>FIXED</type></wpt>
<wpt lat="-8.083909" lon="-34.998179"><name>Radar 60 km/h</name><desc>Fonte: OSM</desc><type>FIXED</type></wpt>
<wpt lat="-8.082805" lon="-34.996406"><name>Radar 60 km/h</name><desc>Fonte: DER-PE+OSM</desc><type>FIXED</type></wpt>
<wpt lat="-8.082629" lon="-34.996147"><name>Radar 60 km/h</name><desc>Fonte: OSM</desc><type>FIXED</type></wpt>
<wpt lat="-8.081067" lon="-34.968347"><name>Radar 50 km/h</name><desc>Fonte: PCR</desc><type>FIXED</type></wpt>
<wpt lat="-8.080834" lon="-34.917056"><name>Radar 50 km/h</name><desc>Fonte: PCR+INMETRO</desc><type>FIXED</type></wpt>
<wpt lat="-8.080763" lon="-34.891213"><name>Radar 60 km/h</name><desc>Fonte: PCR</desc><type>FIXED</type></wpt>
<wpt lat="-8.080743" lon="-34.917566"><name>Radar 50 km/h</name><desc>Fonte: PCR+INMETRO</desc><type>FIXED</type></wpt>
<wpt lat="-8.080398" lon="-34.943045"><name>Radar 50 km/h</name><desc>Fonte: OSM</desc><type>FIXED</type></wpt>
<wpt lat="-8.080372" lon="-34.943220"><name>Radar 50 km/h</name><desc>Fonte: OSM</desc><type>FIXED</type></wpt>
<wpt lat="-8.080104" lon="-36.043534"><name>Radar 50 km/h</name><desc>Fonte: DNIT</desc><type>FIXED</type></wpt>
<wpt lat="-8.080084" lon="-34.892157"><name>Radar 60 km/h</name><desc>Fonte: PCR</desc><type>FIXED</type></wpt>
<wpt lat="-8.079589" lon="-34.892762"><name>Radar 60 km/h</name><desc>Fonte: PCR+INMETRO</desc><type>FIXED</type></wpt>
<wpt lat="-8.079112" lon="-34.943226"><name>Radar 50 km/h</name><desc>Fonte: DNIT</desc><type>FIXED</type></wpt>
<wpt lat="-8.078603" lon="-34.892062"><name>Radar 60 km/h</name><desc>Fonte: OSM</desc><type>FIXED</type></wpt>
<wpt lat="-8.078456" lon="-34.892231"><name>Radar 60 km/h</name><desc>Fonte: OSM</desc><type>FIXED</type></wpt>
<wpt lat="-8.075645" lon="-34.887832"><name>Radar 40 km/h</name><desc>Fonte: PCR</desc><type>FIXED</type></wpt>
<wpt lat="-8.074423" lon="-34.937033"><name>Radar 50 km/h</name><desc>Fonte: OSM</desc><type>FIXED</type></wpt>
<wpt lat="-8.074344" lon="-34.936925"><name>Radar 50 km/h</name><desc>Fonte: OSM</desc><type>FIXED</type></wpt>
<wpt lat="-8.074039" lon="-34.883305"><name>Radar 40 km/h</name><desc>Fonte: PCR</desc><type>FIXED</type></wpt>
<wpt lat="-8.071734" lon="-34.877906"><name>Radar 40 km/h</name><desc>Fonte: PCR</desc><type>FIXED</type></wpt>
<wpt lat="-8.070548" lon="-34.939778"><name>Radar 50 km/h</name><desc>Fonte: DNIT</desc><type>FIXED</type></wpt>
<wpt lat="-8.070348" lon="-34.896009"><name>Radar 60 km/h</name><desc>Fonte: PCR</desc><type>FIXED</type></wpt>
<wpt lat="-8.070208" lon="-34.896352"><name>Radar 60 km/h</name><desc>Fonte: PCR</desc><type>FIXED</type></wpt>
<wpt lat="-8.067404" lon="-34.927845"><name>Radar 40 km/h</name><desc>Fonte: PCR+INMETRO</desc><type>FIXED</type></wpt>
<wpt lat="-8.067065" lon="-34.927726"><name>Radar 40 km/h</name><desc>Fonte: OSM</desc><type>FIXED</type></wpt>
<wpt lat="-8.064120" lon="-34.871841"><name>Radar 30 km/h</name><desc>Fonte: OSM</desc><type>FIXED</type></wpt>
<wpt lat="-8.064071" lon="-34.935626"><name>Radar 60 km/h</name><desc>Fonte: PCR+OSM</desc><type>FIXED</type></wpt>
<wpt lat="-8.063998" lon="-34.935763"><name>Radar 60 km/h</name><desc>Fonte: PCR+OSM</desc><type>FIXED</type></wpt>
<wpt lat="-8.063733" lon="-34.934835"><name>Radar 40 km/h</name><desc>Fonte: OSM</desc><type>FIXED</type></wpt>
<wpt lat="-8.062475" lon="-34.917508"><name>Radar 60 km/h</name><desc>Fonte: PCR+OSM</desc><type>FIXED</type></wpt>
<wpt lat="-8.062356" lon="-34.916851"><name>Radar 60 km/h</name><desc>Fonte: PCR+OSM</desc><type>FIXED</type></wpt>
<wpt lat="-8.062177" lon="-34.897746"><name>Radar 60 km/h</name><desc>Fonte: PCR</desc><type>FIXED</type></wpt>
<wpt lat="-8.061173" lon="-34.883237"><name>Radar 40 km/h</name><desc>Fonte: PCR</desc><type>FIXED</type></wpt>
<wpt lat="-8.060006" lon="-39.105957"><name>Radar</name><desc>Fonte: DNIT</desc><type>FIXED</type></wpt>
<wpt lat="-8.056833" lon="-34.899694"><name>Radar 50 km/h</name><desc>Fonte: PCR</desc><type>FIXED</type></wpt>
<wpt lat="-8.056681" lon="-34.897925"><name>Radar</name><desc>Fonte: OSM</desc><type>FIXED</type></wpt>
<wpt lat="-8.055130" lon="-34.908972"><name>Radar 50 km/h</name><desc>Fonte: PCR</desc><type>FIXED</type></wpt>
<wpt lat="-8.052065" lon="-34.902176"><name>Radar 40 km/h</name><desc>Fonte: PCR+OSM</desc><type>FIXED</type></wpt>
<wpt lat="-8.051737" lon="-34.895025"><name>Radar 60 km/h</name><desc>Fonte: PCR</desc><type>FIXED</type></wpt>
<wpt lat="-8.043165" lon="-34.885864"><name>Radar 60 km/h</name><desc>Fonte: PCR+INMETRO</desc><type>FIXED</type></wpt>
<wpt lat="-8.041789" lon="-34.883727"><name>Radar 60 km/h</name><desc>Fonte: OSM</desc><type>FIXED</type></wpt>
<wpt lat="-8.041536" lon="-34.883278"><name>Radar 60 km/h</name><desc>Fonte: PCR</desc><type>FIXED</type></wpt>
<wpt lat="-8.041194" lon="-34.903335"><name>Radar 40 km/h</name><desc>Fonte: PCR+INMETRO</desc><type>FIXED</type></wpt>
<wpt lat="-8.040449" lon="-34.942497"><name>Radar</name><desc>Fonte: OSM</desc><type>FIXED</type></wpt>
<wpt lat="-8.039954" lon="-34.878934"><name>Radar 60 km/h</name><desc>Fonte: PCR</desc><type>FIXED</type></wpt>
<wpt lat="-8.039473" lon="-34.878737"><name>Radar 60 km/h</name><desc>Fonte: PCR</desc><type>FIXED</type></wpt>
<wpt lat="-8.039281" lon="-34.957554"><name>Radar 40 km/h</name><desc>Fonte: PCR+INMETRO+OSM</desc><type>FIXED</type></wpt>
<wpt lat="-8.039025" lon="-34.930116"><name>Radar 40 km/h</name><desc>Fonte: PCR</desc><type>FIXED</type></wpt>
<wpt lat="-8.038962" lon="-34.876789"><name>Radar</name><desc>Fonte: OSM</desc><type>FIXED</type></wpt>
<wpt lat="-8.038574" lon="-34.892000"><name>Radar 60 km/h</name><desc>Fonte: PCR</desc><type>FIXED</type></wpt>
<wpt lat="-8.036739" lon="-34.945778"><name>Radar</name><desc>Fonte: OSM</desc><type>FIXED</type></wpt>
<wpt lat="-8.034399" lon="-34.949951"><name>Radar 60 km/h</name><desc>Fonte: PCR</desc><type>FIXED</type></wpt>
<wpt lat="-8.033536" lon="-34.896475"><name>Radar 60 km/h</name><desc>Fonte: PCR</desc><type>FIXED</type></wpt>
<wpt lat="-8.032822" lon="-34.903116"><name>Radar 50 km/h</name><desc>Fonte: PCR+INMETRO</desc><type>FIXED</type></wpt>
<wpt lat="-8.030126" lon="-34.943007"><name>Radar 40 km/h</name><desc>Fonte: DNIT+OSM</desc><type>FIXED</type></wpt>
<wpt lat="-8.029633" lon="-34.900494"><name>Radar 60 km/h</name><desc>Fonte: PCR</desc><type>FIXED</type></wpt>
<wpt lat="-8.027920" lon="-34.892898"><name>Radar 50 km/h</name><desc>Fonte: PCR</desc><type>FIXED</type></wpt>
<wpt lat="-8.026749" lon="-34.897962"><name>Radar 60 km/h</name><desc>Fonte: PCR</desc><type>FIXED</type></wpt>
<wpt lat="-8.025423" lon="-34.863586"><name>Radar 40 km/h</name><desc>Fonte: OSM</desc><type>FIXED</type></wpt>
<wpt lat="-8.022977" lon="-34.862013"><name>Radar 50 km/h</name><desc>Fonte: OSM</desc><type>FIXED</type></wpt>
<wpt lat="-8.018334" lon="-34.928277"><name>Radar 60 km/h</name><desc>Fonte: PCR</desc><type>FIXED</type></wpt>
<wpt lat="-8.015750" lon="-35.012556"><name>Radar</name><desc>Fonte: DER-PE</desc><type>FIXED</type></wpt>
<wpt lat="-8.015031" lon="-34.890163"><name>Radar 50 km/h</name><desc>Fonte: PCR</desc><type>FIXED</type></wpt>
<wpt lat="-8.012925" lon="-34.889432"><name>Radar 50 km/h</name><desc>Fonte: PCR</desc><type>FIXED</type></wpt>
<wpt lat="-8.012738" lon="-34.843370"><name>Radar 40 km/h</name><desc>Fonte: INMETRO</desc><type>FIXED</type></wpt>
<wpt lat="-8.012348" lon="-34.938516"><name>Radar 50 km/h</name><desc>Fonte: DNIT</desc><type>FIXED</type></wpt>
<wpt lat="-8.011799" lon="-34.937922"><name>Radar 60 km/h</name><desc>Fonte: OSM</desc><type>FIXED</type></wpt>
<wpt lat="-8.011777" lon="-34.938136"><name>Radar 60 km/h</name><desc>Fonte: OSM</desc><type>FIXED</type></wpt>
<wpt lat="-8.011713" lon="-34.889407"><name>Radar 50 km/h</name><desc>Fonte: PCR</desc><type>FIXED</type></wpt>
<wpt lat="-8.006204" lon="-34.891721"><name>Radar 50 km/h</name><desc>Fonte: PCR</desc><type>FIXED</type></wpt>
<wpt lat="-8.005138" lon="-34.893441"><name>Radar 50 km/h</name><desc>Fonte: PCR</desc><type>FIXED</type></wpt>
<wpt lat="-7.994251" lon="-34.937770"><name>Radar 50 km/h</name><desc>Fonte: OSM</desc><type>FIXED</type></wpt>
<wpt lat="-7.994210" lon="-34.937907"><name>Radar 60 km/h</name><desc>Fonte: OSM</desc><type>FIXED</type></wpt>
<wpt lat="-7.994082" lon="-34.938044"><name>Radar 60 km/h</name><desc>Fonte: OSM</desc><type>FIXED</type></wpt>
<wpt lat="-7.993063" lon="-34.936836"><name>Radar 50 km/h</name><desc>Fonte: OSM</desc><type>FIXED</type></wpt>
<wpt lat="-7.988463" lon="-35.052831"><name>Radar 40 km/h</name><desc>Fonte: OSM</desc><type>FIXED</type></wpt>
<wpt lat="-7.988060" lon="-35.053126"><name>Radar 40 km/h</name><desc>Fonte: OSM</desc><type>FIXED</type></wpt>
<wpt lat="-7.987748" lon="-34.933438"><name>Radar 50 km/h</name><desc>Fonte: OSM</desc><type>FIXED</type></wpt>
<wpt lat="-7.987322" lon="-34.933788"><name>Radar 60 km/h</name><desc>Fonte: DNIT+OSM</desc><type>FIXED</type></wpt>
<wpt lat="-7.983266" lon="-38.282787"><name>Radar 40 km/h</name><desc>Fonte: OSM</desc><type>FIXED</type></wpt>
<wpt lat="-7.981874" lon="-34.931832"><name>Radar 50 km/h</name><desc>Fonte: DNIT+OSM · sentido 22° (norte)</desc><type>FIXED</type></wpt>
<wpt lat="-7.979216" lon="-35.073103"><name>Radar</name><desc>Fonte: OSM</desc><type>FIXED</type></wpt>
<wpt lat="-7.976312" lon="-34.980929"><name>Radar 40 km/h</name><desc>Fonte: OSM</desc><type>FIXED</type></wpt>
<wpt lat="-7.975817" lon="-34.923961"><name>Radar 50 km/h</name><desc>Fonte: DNIT</desc><type>FIXED</type></wpt>
<wpt lat="-7.975777" lon="-34.923189"><name>Radar 50 km/h</name><desc>Fonte: OSM</desc><type>FIXED</type></wpt>
<wpt lat="-7.973626" lon="-34.833826"><name>Radar 40 km/h</name><desc>Fonte: INMETRO</desc><type>FIXED</type></wpt>
<wpt lat="-7.969241" lon="-34.866605"><name>Radar 60 km/h</name><desc>Fonte: OSM</desc><type>FIXED</type></wpt>
<wpt lat="-7.968136" lon="-34.867415"><name>Radar 60 km/h</name><desc>Fonte: OSM</desc><type>FIXED</type></wpt>
<wpt lat="-7.965346" lon="-34.916878"><name>Radar 50 km/h</name><desc>Fonte: DNIT+OSM · sentido 43° (nordeste)</desc><type>FIXED</type></wpt>
<wpt lat="-7.963986" lon="-34.915690"><name>Radar 60 km/h</name><desc>Fonte: OSM</desc><type>FIXED</type></wpt>
<wpt lat="-7.963438" lon="-34.915976"><name>Radar 60 km/h</name><desc>Fonte: DNIT+OSM · sentido 223° (sudoeste)</desc><type>FIXED</type></wpt>
<wpt lat="-7.959295" lon="-35.012244"><name>Radar 40 km/h</name><desc>Fonte: OSM</desc><type>FIXED</type></wpt>
<wpt lat="-7.948995" lon="-34.872316"><name>Radar 60 km/h</name><desc>Fonte: OSM</desc><type>FIXED</type></wpt>
<wpt lat="-7.948876" lon="-34.872363"><name>Radar 60 km/h</name><desc>Fonte: OSM</desc><type>FIXED</type></wpt>
<wpt lat="-7.943890" lon="-34.877552"><name>Radar 40 km/h</name><desc>Fonte: OSM</desc><type>FIXED</type></wpt>
<wpt lat="-7.942233" lon="-34.877643"><name>Radar 40 km/h</name><desc>Fonte: OSM</desc><type>FIXED</type></wpt>
<wpt lat="-7.942183" lon="-34.877963"><name>Radar 40 km/h</name><desc>Fonte: OSM</desc><type>FIXED</type></wpt>
<wpt lat="-7.939847" lon="-34.979988"><name>Radar</name><desc>Fonte: OSM</desc><type>FIXED</type></wpt>
<wpt lat="-7.937460" lon="-34.880662"><name>Radar 60 km/h</name><desc>Fonte: OSM</desc><type>FIXED</type></wpt>
<wpt lat="-7.914179" lon="-34.898938"><name>Radar 40 km/h</name><desc>Fonte: OSM</desc><type>FIXED</type></wpt>
<wpt lat="-7.913810" lon="-34.899606"><name>Radar 50 km/h</name><desc>Fonte: DNIT+OSM</desc><type>FIXED</type></wpt>
<wpt lat="-7.913216" lon="-34.899611"><name>Radar 60 km/h</name><desc>Fonte: OSM</desc><type>FIXED</type></wpt>
<wpt lat="-7.912841" lon="-34.900223"><name>Radar 60 km/h</name><desc>Fonte: OSM</desc><type>FIXED</type></wpt>
<wpt lat="-7.897415" lon="-34.902513"><name>Radar 60 km/h</name><desc>Fonte: OSM</desc><type>FIXED</type></wpt>
<wpt lat="-7.896513" lon="-34.903005"><name>Radar 50 km/h</name><desc>Fonte: DNIT+OSM · sentido 171° (sul)</desc><type>FIXED</type></wpt>
<wpt lat="-7.896306" lon="-34.902818"><name>Radar 50 km/h</name><desc>Fonte: OSM</desc><type>FIXED</type></wpt>
<wpt lat="-7.891469" lon="-34.825836"><name>Radar</name><desc>Fonte: OSM</desc><type>FIXED</type></wpt>
<wpt lat="-7.890728" lon="-34.903471"><name>Radar 40 km/h</name><desc>Fonte: OSM</desc><type>FIXED</type></wpt>
<wpt lat="-7.890695" lon="-34.903623"><name>Radar 50 km/h</name><desc>Fonte: OSM</desc><type>FIXED</type></wpt>
<wpt lat="-7.890484" lon="-34.903881"><name>Radar 40 km/h</name><desc>Fonte: DNIT+OSM</desc><type>FIXED</type></wpt>
<wpt lat="-7.890131" lon="-34.903529"><name>Radar 40 km/h</name><desc>Fonte: DNIT · sentido 352° (norte)</desc><type>FIXED</type></wpt>
<wpt lat="-7.888610" lon="-34.903751"><name>Radar 60 km/h</name><desc>Fonte: OSM</desc><type>FIXED</type></wpt>
<wpt lat="-7.888416" lon="-34.904071"><name>Radar 60 km/h</name><desc>Fonte: OSM</desc><type>FIXED</type></wpt>
<wpt lat="-7.871518" lon="-34.906578"><name>Radar 40 km/h</name><desc>Fonte: DNIT</desc><type>FIXED</type></wpt>
<wpt lat="-7.871384" lon="-34.906256"><name>Radar 60 km/h</name><desc>Fonte: OSM</desc><type>FIXED</type></wpt>
<wpt lat="-7.870889" lon="-34.906599"><name>Radar 50 km/h</name><desc>Fonte: OSM</desc><type>FIXED</type></wpt>
<wpt lat="-7.861958" lon="-34.907616"><name>Radar 50 km/h</name><desc>Fonte: OSM</desc><type>FIXED</type></wpt>
<wpt lat="-7.861721" lon="-34.907791"><name>Radar 50 km/h</name><desc>Fonte: OSM</desc><type>FIXED</type></wpt>
<wpt lat="-7.861531" lon="-34.908047"><name>Radar 40 km/h</name><desc>Fonte: DNIT+OSM</desc><type>FIXED</type></wpt>
<wpt lat="-7.855296" lon="-34.908861"><name>Radar 50 km/h</name><desc>Fonte: OSM</desc><type>FIXED</type></wpt>
<wpt lat="-7.855043" lon="-34.908756"><name>Radar 50 km/h</name><desc>Fonte: OSM</desc><type>FIXED</type></wpt>
<wpt lat="-7.853942" lon="-34.908757"><name>Radar 40 km/h</name><desc>Fonte: OSM</desc><type>FIXED</type></wpt>
<wpt lat="-7.845172" lon="-35.238685"><name>Radar</name><desc>Fonte: DNIT</desc><type>FIXED</type></wpt>
<wpt lat="-7.842686" lon="-35.268932"><name>Radar 40 km/h</name><desc>Fonte: OSM</desc><type>FIXED</type></wpt>
<wpt lat="-7.821540" lon="-34.916335"><name>Radar 50 km/h</name><desc>Fonte: DNIT+OSM · sentido 346° (norte)</desc><type>FIXED</type></wpt>
<wpt lat="-7.819310" lon="-34.917179"><name>Radar 50 km/h</name><desc>Fonte: DNIT+OSM · sentido 164° (sul)</desc><type>FIXED</type></wpt>
<wpt lat="-7.802461" lon="-34.926382"><name>Radar 80 km/h</name><desc>Fonte: OSM</desc><type>FIXED</type></wpt>
<wpt lat="-7.776121" lon="-34.899605"><name>Radar 40 km/h</name><desc>Fonte: OSM</desc><type>FIXED</type></wpt>
<wpt lat="-7.773921" lon="-34.891677"><name>Radar</name><desc>Fonte: OSM</desc><type>FIXED</type></wpt>
<wpt lat="-7.773528" lon="-34.896845"><name>Radar 40 km/h</name><desc>Fonte: OSM</desc><type>FIXED</type></wpt>
<wpt lat="-7.747923" lon="-35.234187"><name>Radar</name><desc>Fonte: DNIT</desc><type>FIXED</type></wpt>
<wpt lat="-7.682545" lon="-34.924789"><name>Radar 80 km/h</name><desc>Fonte: OSM</desc><type>FIXED</type></wpt>
<wpt lat="-7.596047" lon="-34.983724"><name>Radar 80 km/h</name><desc>Fonte: OSM</desc><type>FIXED</type></wpt>
<wpt lat="-7.593422" lon="-40.494341"><name>Radar</name><desc>Fonte: DNIT</desc><type>FIXED</type></wpt>
<wpt lat="-7.565696" lon="-35.008303"><name>Radar 40 km/h</name><desc>Fonte: OSM</desc><type>FIXED</type></wpt>
<wpt lat="-7.559362" lon="-34.991005"><name>Radar 60 km/h</name><desc>Fonte: DNIT · sentido 173° (sul)</desc><type>FIXED</type></wpt>
<wpt lat="-7.558573" lon="-34.990927"><name>Radar 80 km/h</name><desc>Fonte: OSM</desc><type>FIXED</type></wpt>
<wpt lat="-7.500006" lon="-34.985126"><name>Radar</name><desc>Fonte: DNIT · sentido 187° (sul)</desc><type>FIXED</type></wpt>
</gpx>