<?xml version="1.0" encoding="UTF-8"?>
<kml xmlns="http://www.opengis.net/kml/2.2"><Document>
<name>Pardal — radares — AP</name>
<description>Pardal — © colaboradores do OpenStreetMap (ODbL 1.0) e fontes abertas listadas no README</description>
<Folder><name>Radares de velocidade</name>
<Placemark><name>Radar 60 km/h</name><description>Fonte: INMETRO</description><Point><coordinates>-51.061256,0.021497,0</coordinates></Point></Placemark>
<Placemark><name>Radar 60 km/h</name><description>Fonte: INMETRO</description><Point><coordinates>-51.060518,0.028903,0</coordinates></Point></Placemark>
<Placemark><name>Radar 60 km/h</name><description>Fonte: INMETRO</description><Point><coordinates>-51.052132,0.030812,0</coordinates></Point></Placemark>
<Placemark><name>Radar 60 km/h</name><description>Fonte: INMETRO</description><Point><coordinates>-51.053590,0.034630,0</coordinates></Point></Placemark>
<Placemark><name>Radar 60 km/h</name><description>Fonte: INMETRO</description><Point><coordinates>-51.082774,0.037122,0</coordinates></Point></Placemark>
<Placemark><name>Radar 60 km/h</name><description>Fonte: INMETRO</description><Point><coordinates>-51.054704,0.040239,0</coordinates></Point></Placemark>
<Placemark><name>Radar 60 km/h</name><description>Fonte: INMETRO</description><Point><coordinates>-51.059669,0.041223,0</coordinates></Point></Placemark>
<Placemark><name>Radar 60 km/h</name><description>Fonte: INMETRO</description><Point><coordinates>-51.069964,0.041233,0</coordinates></Point></Placemark>
<Placemark><name>Radar 60 km/h</name><description>Fonte: INMETRO</description><Point><coordinates>-51.063961,0.041323,0</coordinates></Point></Placemark>
<Placemark><name>Radar</name><description>Fonte: DNIT</description><Point><coordinates>-51.068730,0.077810,0</coordinates></Point></Placemark>
<Placemark><name>Radar</name><description>Fonte: DNIT</description><Point><coordinates>-51.076290,0.081930,0</coordinates></Point></Placemark>
<Placemark><name>Radar</name><description>Fonte: DNIT</description><Point><coordinates>-51.076583,0.082013,0</coordinates></Point></Placemark>
</Folder>
</Document></kml>