{"type":"FeatureCollection","attribution":"Pardal — © colaboradores do OpenStreetMap (ODbL 1.0) e fontes abertas listadas no README","features":[{"type":"Feature","geometry":{"type":"Point","coordinates":[-51.06873,0.07781]},"properties":{"kind":"FIXED","limit_kmh":null,"source":"DNIT","active":true}},{"type":"Feature","geometry":{"type":"Point","coordinates":[-51.07629,0.08193]},"properties":{"kind":"FIXED","limit_kmh":null,"source":"DNIT","active":true}},{"type":"Feature","geometry":{"type":"Point","coordinates":[-51.076583,0.082013]},"properties":{"kind":"FIXED","limit_kmh":null,"source":"DNIT","active":true}}]}