<?xml version="1.0" encoding="UTF-8"?>
<gpx version="1.1" creator="Pardal" xmlns="http://www.topografix.com/GPX/1/1">
<metadata><name>Pardal — radares — PA</name><desc>Pardal — © colaboradores do OpenStreetMap (ODbL 1.0) e fontes abertas listadas no README</desc></metadata>
<wpt lat="-8.730286" lon="-54.978188"><name>Radar 40 km/h</name><desc>Fonte: ANTT · sentido 291° (oeste)</desc><type>FIXED</type></wpt>
<wpt lat="-8.727819" lon="-54.973903"><name>Radar 40 km/h</name><desc>Fonte: ANTT · sentido 97° (leste)</desc><type>FIXED</type></wpt>
<wpt lat="-8.323412" lon="-55.097691"><name>Radar 40 km/h</name><desc>Fonte: ANTT · sentido 352° (norte)</desc><type>FIXED</type></wpt>
<wpt lat="-8.304428" lon="-55.105084"><name>Radar 40 km/h</name><desc>Fonte: ANTT · sentido 176° (sul)</desc><type>FIXED</type></wpt>
<wpt lat="-7.470285" lon="-55.291586"><name>Radar 40 km/h</name><desc>Fonte: ANTT · sentido 17° (norte)</desc><type>FIXED</type></wpt>
<wpt lat="-7.427801" lon="-55.292411"><name>Radar 60 km/h</name><desc>Fonte: ANTT · sentido 7° (norte)</desc><type>FIXED</type></wpt>
<wpt lat="-7.046954" lon="-55.411937"><name>Radar 40 km/h</name><desc>Fonte: ANTT · sentido 338° (norte)</desc><type>FIXED</type></wpt>
<wpt lat="-6.272195" lon="-55.595871"><name>Radar 40 km/h</name><desc>Fonte: ANTT · sentido 137° (sudeste)</desc><type>FIXED</type></wpt>
<wpt lat="-6.228432" lon="-55.625008"><name>Radar 40 km/h</name><desc>Fonte: ANTT · sentido 340° (norte)</desc><type>FIXED</type></wpt>
<wpt lat="-6.057238" lon="-55.669755"><name>Radar 40 km/h</name><desc>Fonte: ANTT · sentido 310° (noroeste)</desc><type>FIXED</type></wpt>
<wpt lat="-5.447167" lon="-48.904223"><name>Radar</name><desc>Fonte: DNIT</desc><type>FIXED</type></wpt>
<wpt lat="-5.446628" lon="-48.905255"><name>Radar</name><desc>Fonte: DNIT</desc><type>FIXED</type></wpt>
<wpt lat="-5.413387" lon="-48.942590"><name>Radar</name><desc>Fonte: DNIT</desc><type>FIXED</type></wpt>
<wpt lat="-5.376759" lon="-49.141266"><name>Radar</name><desc>Fonte: DNIT</desc><type>FIXED</type></wpt>
<wpt lat="-5.370194" lon="-49.044944"><name>Radar</name><desc>Fonte: DNIT</desc><type>FIXED</type></wpt>
<wpt lat="-5.365307" lon="-49.064224"><name>Radar</name><desc>Fonte: DNIT</desc><type>FIXED</type></wpt>
<wpt lat="-5.364077" lon="-49.124670"><name>Radar 60 km/h</name><desc>Fonte: DNIT+OSM · sentido 21° (norte)</desc><type>FIXED</type></wpt>
<wpt lat="-5.363908" lon="-49.068988"><name>Radar</name><desc>Fonte: DNIT</desc><type>FIXED</type></wpt>
<wpt lat="-5.350220" lon="-49.102220"><name>Radar 60 km/h</name><desc>Fonte: DNIT+OSM</desc><type>FIXED</type></wpt>
<wpt lat="-5.207814" lon="-56.041769"><name>Radar 60 km/h</name><desc>Fonte: ANTT · sentido 43° (nordeste)</desc><type>FIXED</type></wpt>
<wpt lat="-5.000201" lon="-56.180519"><name>Radar 60 km/h</name><desc>Fonte: ANTT · sentido 114° (sudeste)</desc><type>FIXED</type></wpt>
<wpt lat="-4.900009" lon="-56.184737"><name>Radar 60 km/h</name><desc>Fonte: ANTT · sentido 238° (sudoeste)</desc><type>FIXED</type></wpt>
<wpt lat="-4.735565" lon="-56.049832"><name>Radar 40 km/h</name><desc>Fonte: ANTT · sentido 19° (norte)</desc><type>FIXED</type></wpt>
<wpt lat="-4.719982" lon="-56.015812"><name>Radar 60 km/h</name><desc>Fonte: ANTT · sentido 87° (leste)</desc><type>FIXED</type></wpt>
<wpt lat="-4.626418" lon="-55.953822"><name>Radar 60 km/h</name><desc>Fonte: ANTT · sentido 350° (norte)</desc><type>FIXED</type></wpt>
<wpt lat="-4.513621" lon="-55.865035"><name>Radar 60 km/h</name><desc>Fonte: ANTT · sentido 45° (nordeste)</desc><type>FIXED</type></wpt>
<wpt lat="-4.508500" lon="-55.864485"><name>Radar 60 km/h</name><desc>Fonte: ANTT · sentido 150° (sudeste)</desc><type>FIXED</type></wpt>
<wpt lat="-4.398723" lon="-55.917297"><name>Radar 40 km/h</name><desc>Fonte: ANTT · sentido 79° (leste)</desc><type>FIXED</type></wpt>
<wpt lat="-4.397866" lon="-55.920226"><name>Radar 40 km/h</name><desc>Fonte: ANTT · sentido 319° (noroeste)</desc><type>FIXED</type></wpt>
<wpt lat="-4.393014" lon="-55.890060"><name>Radar 40 km/h</name><desc>Fonte: ANTT · sentido 239° (sudoeste)</desc><type>FIXED</type></wpt>
<wpt lat="-4.299944" lon="-47.555944"><name>Radar</name><desc>Fonte: DNIT</desc><type>FIXED</type></wpt>
<wpt lat="-3.196957" lon="-52.198024"><name>Radar 60 km/h</name><desc>Fonte: OSM</desc><type>FIXED</type></wpt>
<wpt lat="-3.196316" lon="-52.197400"><name>Radar 60 km/h</name><desc>Fonte: OSM</desc><type>FIXED</type></wpt>
<wpt lat="-3.188998" lon="-52.191316"><name>Radar 60 km/h</name><desc>Fonte: OSM</desc><type>FIXED</type></wpt>
<wpt lat="-3.174498" lon="-52.179551"><name>Radar 40 km/h</name><desc>Fonte: OSM</desc><type>FIXED</type></wpt>
<wpt lat="-3.171318" lon="-52.126544"><name>Radar 60 km/h</name><desc>Fonte: OSM</desc><type>FIXED</type></wpt>
<wpt lat="-2.481633" lon="-54.799319"><name>Radar 60 km/h</name><desc>Fonte: OSM</desc><type>FIXED</type></wpt>
<wpt lat="-2.481540" lon="-54.799016"><name>Radar 60 km/h</name><desc>Fonte: OSM</desc><type>FIXED</type></wpt>
<wpt lat="-2.468625" lon="-54.752025"><name>Radar 60 km/h</name><desc>Fonte: OSM</desc><type>FIXED</type></wpt>
<wpt lat="-2.454038" lon="-54.718855"><name>Radar 40 km/h</name><desc>Fonte: INMETRO</desc><type>FIXED</type></wpt>
<wpt lat="-2.450741" lon="-54.700875"><name>Radar 50 km/h</name><desc>Fonte: OSM</desc><type>FIXED</type></wpt>
<wpt lat="-2.450487" lon="-54.700967"><name>Radar 40 km/h</name><desc>Fonte: OSM</desc><type>FIXED</type></wpt>
<wpt lat="-2.447837" lon="-54.783112"><name>Radar 60 km/h</name><desc>Fonte: OSM</desc><type>FIXED</type></wpt>
<wpt lat="-2.447752" lon="-54.783334"><name>Radar 60 km/h</name><desc>Fonte: OSM</desc><type>FIXED</type></wpt>
<wpt lat="-2.447238" lon="-54.749853"><name>Radar 40 km/h</name><desc>Fonte: OSM</desc><type>FIXED</type></wpt>
<wpt lat="-2.447114" lon="-54.749757"><name>Radar 40 km/h</name><desc>Fonte: OSM</desc><type>FIXED</type></wpt>
<wpt lat="-2.435712" lon="-54.705766"><name>Radar 50 km/h</name><desc>Fonte: OSM</desc><type>FIXED</type></wpt>
<wpt lat="-2.430303" lon="-54.716736"><name>Radar 40 km/h</name><desc>Fonte: INMETRO+OSM</desc><type>FIXED</type></wpt>
<wpt lat="-2.429751" lon="-54.707484"><name>Radar 50 km/h</name><desc>Fonte: OSM</desc><type>FIXED</type></wpt>
<wpt lat="-2.426257" lon="-54.708055"><name>Radar 50 km/h</name><desc>Fonte: OSM</desc><type>FIXED</type></wpt>
<wpt lat="-2.137423" lon="-47.560740"><name>Radar 60 km/h</name><desc>Fonte: OSM</desc><type>FIXED</type></wpt>
<wpt lat="-2.054750" lon="-47.553472"><name>Radar</name><desc>Fonte: DNIT</desc><type>FIXED</type></wpt>
<wpt lat="-1.887052" lon="-48.766104"><name>Radar 50 km/h</name><desc>Fonte: INMETRO</desc><type>FIXED</type></wpt>
<wpt lat="-1.883645" lon="-48.765373"><name>Radar 50 km/h</name><desc>Fonte: INMETRO</desc><type>FIXED</type></wpt>
<wpt lat="-1.810862" lon="-47.514400"><name>Radar</name><desc>Fonte: DNIT</desc><type>FIXED</type></wpt>
<wpt lat="-1.710118" lon="-47.502427"><name>Radar</name><desc>Fonte: DNIT</desc><type>FIXED</type></wpt>
<wpt lat="-1.627238" lon="-47.481444"><name>Radar</name><desc>Fonte: DNIT</desc><type>FIXED</type></wpt>
<wpt lat="-1.613245" lon="-47.481914"><name>Radar 60 km/h</name><desc>Fonte: OSM</desc><type>FIXED</type></wpt>
<wpt lat="-1.605338" lon="-47.485035"><name>Radar</name><desc>Fonte: DNIT</desc><type>FIXED</type></wpt>
<wpt lat="-1.456509" lon="-48.475693"><name>Radar 50 km/h</name><desc>Fonte: INMETRO</desc><type>FIXED</type></wpt>
<wpt lat="-1.456447" lon="-48.480740"><name>Radar 50 km/h</name><desc>Fonte: INMETRO</desc><type>FIXED</type></wpt>
<wpt lat="-1.456359" lon="-48.472582"><name>Radar 50 km/h</name><desc>Fonte: INMETRO</desc><type>FIXED</type></wpt>
<wpt lat="-1.451332" lon="-48.487195"><name>Radar 50 km/h</name><desc>Fonte: INMETRO</desc><type>FIXED</type></wpt>
<wpt lat="-1.449584" lon="-48.481468"><name>Radar 50 km/h</name><desc>Fonte: INMETRO</desc><type>FIXED</type></wpt>
<wpt lat="-1.448453" lon="-48.469249"><name>Radar 50 km/h</name><desc>Fonte: INMETRO</desc><type>FIXED</type></wpt>
<wpt lat="-1.448286" lon="-48.473637"><name>Radar 50 km/h</name><desc>Fonte: INMETRO</desc><type>FIXED</type></wpt>
<wpt lat="-1.447726" lon="-48.475807"><name>Radar 50 km/h</name><desc>Fonte: INMETRO</desc><type>FIXED</type></wpt>
<wpt lat="-1.445609" lon="-48.447185"><name>Radar 50 km/h</name><desc>Fonte: OSM</desc><type>FIXED</type></wpt>
<wpt lat="-1.445588" lon="-48.447026"><name>Radar 50 km/h</name><desc>Fonte: OSM</desc><type>FIXED</type></wpt>
<wpt lat="-1.438817" lon="-48.456284"><name>Radar 60 km/h</name><desc>Fonte: INMETRO+OSM</desc><type>FIXED</type></wpt>
<wpt lat="-1.438460" lon="-48.456276"><name>Radar 60 km/h</name><desc>Fonte: OSM</desc><type>FIXED</type></wpt>
<wpt lat="-1.437450" lon="-48.466380"><name>Radar 60 km/h</name><desc>Fonte: INMETRO</desc><type>FIXED</type></wpt>
<wpt lat="-1.435612" lon="-48.491367"><name>Radar 60 km/h</name><desc>Fonte: INMETRO</desc><type>FIXED</type></wpt>
<wpt lat="-1.433754" lon="-48.464582"><name>Radar 60 km/h</name><desc>Fonte: INMETRO</desc><type>FIXED</type></wpt>
<wpt lat="-1.433414" lon="-48.455444"><name>Radar 50 km/h</name><desc>Fonte: INMETRO</desc><type>FIXED</type></wpt>
<wpt lat="-1.429939" lon="-48.461392"><name>Radar 60 km/h</name><desc>Fonte: INMETRO</desc><type>FIXED</type></wpt>
<wpt lat="-1.429076" lon="-48.447040"><name>Radar 60 km/h</name><desc>Fonte: OSM</desc><type>FIXED</type></wpt>
<wpt lat="-1.427977" lon="-48.445980"><name>Radar 60 km/h</name><desc>Fonte: OSM</desc><type>FIXED</type></wpt>
<wpt lat="-1.426576" lon="-48.489202"><name>Radar 60 km/h</name><desc>Fonte: INMETRO</desc><type>FIXED</type></wpt>
<wpt lat="-1.423944" lon="-48.450288"><name>Radar 50 km/h</name><desc>Fonte: OSM</desc><type>FIXED</type></wpt>
<wpt lat="-1.414091" lon="-48.468424"><name>Radar 50 km/h</name><desc>Fonte: INMETRO</desc><type>FIXED</type></wpt>
<wpt lat="-1.412411" lon="-48.442353"><name>Radar 50 km/h</name><desc>Fonte: INMETRO</desc><type>FIXED</type></wpt>
<wpt lat="-1.411155" lon="-48.469433"><name>Radar de trecho 60 km/h</name><desc>Fonte: OSM</desc><type>SECTION</type></wpt>
<wpt lat="-1.407890" lon="-48.458071"><name>Radar 60 km/h</name><desc>Fonte: OSM</desc><type>FIXED</type></wpt>
<wpt lat="-1.407768" lon="-48.458086"><name>Radar 60 km/h</name><desc>Fonte: OSM</desc><type>FIXED</type></wpt>
<wpt lat="-1.398030" lon="-48.475085"><name>Radar 40 km/h</name><desc>Fonte: OSM</desc><type>FIXED</type></wpt>
<wpt lat="-1.397994" lon="-48.474938"><name>Radar 40 km/h</name><desc>Fonte: OSM</desc><type>FIXED</type></wpt>
<wpt lat="-1.394922" lon="-48.465855"><name>Radar 60 km/h</name><desc>Fonte: OSM</desc><type>FIXED</type></wpt>
<wpt lat="-1.394875" lon="-48.465984"><name>Radar 60 km/h</name><desc>Fonte: OSM</desc><type>FIXED</type></wpt>
<wpt lat="-1.394291" lon="-48.465733"><name>Radar de trecho 60 km/h</name><desc>Fonte: OSM</desc><type>SECTION</type></wpt>
<wpt lat="-1.391523" lon="-48.435195"><name>Radar 60 km/h</name><desc>Fonte: OSM</desc><type>FIXED</type></wpt>
<wpt lat="-1.391355" lon="-48.435342"><name>Radar 60 km/h</name><desc>Fonte: OSM</desc><type>FIXED</type></wpt>
<wpt lat="-1.390364" lon="-48.434411"><name>Radar 60 km/h</name><desc>Fonte: INMETRO</desc><type>FIXED</type></wpt>
<wpt lat="-1.380893" lon="-48.455657"><name>Radar 50 km/h</name><desc>Fonte: OSM</desc><type>FIXED</type></wpt>
<wpt lat="-1.380586" lon="-48.455347"><name>Radar 50 km/h</name><desc>Fonte: OSM</desc><type>FIXED</type></wpt>
<wpt lat="-1.373110" lon="-48.385722"><name>Radar 40 km/h</name><desc>Fonte: OSM</desc><type>FIXED</type></wpt>
<wpt lat="-1.372893" lon="-48.385861"><name>Radar 40 km/h</name><desc>Fonte: OSM</desc><type>FIXED</type></wpt>
<wpt lat="-1.366259" lon="-48.330956"><name>Radar 70 km/h</name><desc>Fonte: OSM</desc><type>FIXED</type></wpt>
<wpt lat="-1.365448" lon="-48.338602"><name>Radar 40 km/h</name><desc>Fonte: OSM</desc><type>FIXED</type></wpt>
<wpt lat="-1.365440" lon="-48.346006"><name>Radar 70 km/h</name><desc>Fonte: OSM</desc><type>FIXED</type></wpt>
<wpt lat="-1.365232" lon="-48.338595"><name>Radar 40 km/h</name><desc>Fonte: OSM</desc><type>FIXED</type></wpt>
<wpt lat="-1.365222" lon="-48.310961"><name>Radar 40 km/h</name><desc>Fonte: OSM</desc><type>FIXED</type></wpt>
<wpt lat="-1.365185" lon="-48.346043"><name>Radar 70 km/h</name><desc>Fonte: OSM</desc><type>FIXED</type></wpt>
<wpt lat="-1.364904" lon="-48.303097"><name>Radar 60 km/h</name><desc>Fonte: OSM</desc><type>FIXED</type></wpt>
<wpt lat="-1.364674" lon="-48.303030"><name>Radar 40 km/h</name><desc>Fonte: OSM</desc><type>FIXED</type></wpt>
<wpt lat="-1.364398" lon="-48.273605"><name>Radar</name><desc>Fonte: DNIT · sentido 89° (leste)</desc><type>FIXED</type></wpt>
<wpt lat="-1.364261" lon="-48.273028"><name>Radar</name><desc>Fonte: DNIT · sentido 269° (oeste)</desc><type>FIXED</type></wpt>
<wpt lat="-1.361805" lon="-48.263111"><name>Radar</name><desc>Fonte: DNIT · sentido 36° (nordeste)</desc><type>FIXED</type></wpt>
<wpt lat="-1.361598" lon="-48.262869"><name>Radar 40 km/h</name><desc>Fonte: OSM</desc><type>FIXED</type></wpt>
<wpt lat="-1.361148" lon="-48.476904"><name>Radar 50 km/h</name><desc>Fonte: INMETRO</desc><type>FIXED</type></wpt>
<wpt lat="-1.360967" lon="-48.262718"><name>Radar 40 km/h</name><desc>Fonte: OSM</desc><type>FIXED</type></wpt>
<wpt lat="-1.360702" lon="-48.262469"><name>Radar</name><desc>Fonte: DNIT · sentido 215° (sudoeste)</desc><type>FIXED</type></wpt>
<wpt lat="-1.357913" lon="-48.260368"><name>Radar</name><desc>Fonte: DNIT · sentido 36° (nordeste)</desc><type>FIXED</type></wpt>
<wpt lat="-1.356559" lon="-48.259540"><name>Radar</name><desc>Fonte: DNIT · sentido 214° (sudoeste)</desc><type>FIXED</type></wpt>
<wpt lat="-1.350258" lon="-48.254729"><name>Radar</name><desc>Fonte: DNIT · sentido 36° (nordeste)</desc><type>FIXED</type></wpt>
<wpt lat="-1.348086" lon="-48.253253"><name>Radar</name><desc>Fonte: DNIT · sentido 216° (sudoeste)</desc><type>FIXED</type></wpt>
<wpt lat="-1.341861" lon="-48.245944"><name>Radar</name><desc>Fonte: DNIT · sentido 60° (nordeste)</desc><type>FIXED</type></wpt>
<wpt lat="-1.340460" lon="-48.244450"><name>Radar</name><desc>Fonte: DNIT · sentido 218° (sudoeste)</desc><type>FIXED</type></wpt>
<wpt lat="-1.316431" lon="-47.508716"><name>Radar</name><desc>Fonte: DNIT</desc><type>FIXED</type></wpt>
<wpt lat="-1.302658" lon="-47.990454"><name>Radar</name><desc>Fonte: DNIT · sentido 253° (oeste)</desc><type>FIXED</type></wpt>
<wpt lat="-1.298194" lon="-47.938722"><name>Radar 60 km/h</name><desc>Fonte: DNIT+OSM · sentido 79° (leste)</desc><type>FIXED</type></wpt>
<wpt lat="-1.298036" lon="-47.958812"><name>Radar 60 km/h</name><desc>Fonte: DNIT+OSM</desc><type>FIXED</type></wpt>
<wpt lat="-1.297882" lon="-47.938229"><name>Radar 60 km/h</name><desc>Fonte: DNIT+OSM · sentido 256° (oeste)</desc><type>FIXED</type></wpt>
<wpt lat="-1.297306" lon="-47.951083"><name>Radar</name><desc>Fonte: DNIT · sentido 83° (leste)</desc><type>FIXED</type></wpt>
<wpt lat="-1.297131" lon="-47.950477"><name>Radar 60 km/h</name><desc>Fonte: OSM</desc><type>FIXED</type></wpt>
<wpt lat="-1.296917" lon="-47.950083"><name>Radar</name><desc>Fonte: DNIT · sentido 264° (oeste)</desc><type>FIXED</type></wpt>
<wpt lat="-1.296917" lon="-47.930306"><name>Radar</name><desc>Fonte: DNIT · sentido 87° (leste)</desc><type>FIXED</type></wpt>
<wpt lat="-1.296699" lon="-47.929762"><name>Radar</name><desc>Fonte: DNIT · sentido 267° (oeste)</desc><type>FIXED</type></wpt>
<wpt lat="-1.296694" lon="-47.927500"><name>Radar 60 km/h</name><desc>Fonte: DNIT+OSM · sentido 87° (leste)</desc><type>FIXED</type></wpt>
<wpt lat="-1.296639" lon="-47.926944"><name>Radar 60 km/h</name><desc>Fonte: DNIT+OSM · sentido 267° (oeste)</desc><type>FIXED</type></wpt>
<wpt lat="-1.296472" lon="-47.924583"><name>Radar</name><desc>Fonte: DNIT · sentido 87° (leste)</desc><type>FIXED</type></wpt>
<wpt lat="-1.296470" lon="-47.924111"><name>Radar</name><desc>Fonte: DNIT · sentido 267° (oeste)</desc><type>FIXED</type></wpt>
<wpt lat="-1.296333" lon="-47.921417"><name>Radar</name><desc>Fonte: DNIT · sentido 87° (leste)</desc><type>FIXED</type></wpt>
<wpt lat="-1.296306" lon="-47.920917"><name>Radar</name><desc>Fonte: DNIT · sentido 267° (oeste)</desc><type>FIXED</type></wpt>
<wpt lat="-1.295952" lon="-47.913174"><name>Radar</name><desc>Fonte: DNIT · sentido 87° (leste)</desc><type>FIXED</type></wpt>
<wpt lat="-1.295761" lon="-47.912685"><name>Radar</name><desc>Fonte: DNIT · sentido 268° (oeste)</desc><type>FIXED</type></wpt>
<wpt lat="-1.295155" lon="-47.897688"><name>Radar 60 km/h</name><desc>Fonte: DNIT+OSM · sentido 87° (leste)</desc><type>FIXED</type></wpt>
<wpt lat="-1.294960" lon="-47.897198"><name>Radar 60 km/h</name><desc>Fonte: DNIT+OSM · sentido 268° (oeste)</desc><type>FIXED</type></wpt>
<wpt lat="-1.294587" lon="-48.172663"><name>Radar 40 km/h</name><desc>Fonte: DNIT+OSM · sentido 44° (nordeste)</desc><type>FIXED</type></wpt>
<wpt lat="-1.291867" lon="-48.168397"><name>Radar</name><desc>Fonte: DNIT · sentido 66° (nordeste)</desc><type>FIXED</type></wpt>
<wpt lat="-1.291848" lon="-47.871888"><name>Radar</name><desc>Fonte: DNIT</desc><type>FIXED</type></wpt>
<wpt lat="-1.291787" lon="-48.168084"><name>Radar 40 km/h</name><desc>Fonte: OSM</desc><type>FIXED</type></wpt>
<wpt lat="-1.291779" lon="-48.161515"><name>Radar 40 km/h</name><desc>Fonte: DNIT+OSM · sentido 276° (oeste)</desc><type>FIXED</type></wpt>
<wpt lat="-1.291393" lon="-48.164779"><name>Radar 40 km/h</name><desc>Fonte: DNIT+OSM · sentido 96° (leste)</desc><type>FIXED</type></wpt>
<wpt lat="-1.291292" lon="-48.167018"><name>Radar</name><desc>Fonte: DNIT · sentido 253° (oeste)</desc><type>FIXED</type></wpt>
<wpt lat="-1.290924" lon="-48.158065"><name>Radar 40 km/h</name><desc>Fonte: DNIT+OSM · sentido 248° (oeste)</desc><type>FIXED</type></wpt>
<wpt lat="-1.290350" lon="-48.057280"><name>Radar 40 km/h</name><desc>Fonte: DNIT+OSM</desc><type>FIXED</type></wpt>
<wpt lat="-1.288722" lon="-48.153055"><name>Radar 40 km/h</name><desc>Fonte: DNIT+OSM · sentido 243° (sudoeste)</desc><type>FIXED</type></wpt>
<wpt lat="-1.276000" lon="-48.097190"><name>Radar</name><desc>Fonte: DNIT · sentido 86° (leste)</desc><type>FIXED</type></wpt>
<wpt lat="-1.275889" lon="-48.096813"><name>Radar 40 km/h</name><desc>Fonte: OSM</desc><type>FIXED</type></wpt>
<wpt lat="-1.275684" lon="-48.095753"><name>Radar 40 km/h</name><desc>Fonte: DNIT+OSM · sentido 266° (oeste)</desc><type>FIXED</type></wpt>
<wpt lat="-1.219247" lon="-47.172305"><name>Radar</name><desc>Fonte: DNIT</desc><type>FIXED</type></wpt>
</gpx>