{"type":"FeatureCollection","attribution":"Pardal — © colaboradores do OpenStreetMap (ODbL 1.0) e fontes abertas listadas no README","features":[{"type":"Feature","geometry":{"type":"Point","coordinates":[-54.978188,-8.730286]},"properties":{"kind":"FIXED","limit_kmh":40,"source":"ANTT","active":true,"direction_deg":291}},{"type":"Feature","geometry":{"type":"Point","coordinates":[-54.973903,-8.727819]},"properties":{"kind":"FIXED","limit_kmh":40,"source":"ANTT","active":true,"direction_deg":97}},{"type":"Feature","geometry":{"type":"Point","coordinates":[-55.097691,-8.323412]},"properties":{"kind":"FIXED","limit_kmh":40,"source":"ANTT","active":true,"direction_deg":352}},{"type":"Feature","geometry":{"type":"Point","coordinates":[-55.105084,-8.304428]},"properties":{"kind":"FIXED","limit_kmh":40,"source":"ANTT","active":true,"direction_deg":176}},{"type":"Feature","geometry":{"type":"Point","coordinates":[-55.291586,-7.470285]},"properties":{"kind":"FIXED","limit_kmh":40,"source":"ANTT","active":true,"direction_deg":17}},{"type":"Feature","geometry":{"type":"Point","coordinates":[-55.292411,-7.427801]},"properties":{"kind":"FIXED","limit_kmh":60,"source":"ANTT","active":true,"direction_deg":7}},{"type":"Feature","geometry":{"type":"Point","coordinates":[-55.411937,-7.046954]},"properties":{"kind":"FIXED","limit_kmh":40,"source":"ANTT","active":true,"direction_deg":338}},{"type":"Feature","geometry":{"type":"Point","coordinates":[-55.595871,-6.272195]},"properties":{"kind":"FIXED","limit_kmh":40,"source":"ANTT","active":true,"direction_deg":137}},{"type":"Feature","geometry":{"type":"Point","coordinates":[-55.625008,-6.228432]},"properties":{"kind":"FIXED","limit_kmh":40,"source":"ANTT","active":true,"direction_deg":340}},{"type":"Feature","geometry":{"type":"Point","coordinates":[-55.669755,-6.057238]},"properties":{"kind":"FIXED","limit_kmh":40,"source":"ANTT","active":true,"direction_deg":310}},{"type":"Feature","geometry":{"type":"Point","coordinates":[-48.904223,-5.447167]},"properties":{"kind":"FIXED","limit_kmh":null,"source":"DNIT","active":true,"direction_deg":null}},{"type":"Feature","geometry":{"type":"Point","coordinates":[-48.905255,-5.446628]},"properties":{"kind":"FIXED","limit_kmh":null,"source":"DNIT","active":true,"direction_deg":null}},{"type":"Feature","geometry":{"type":"Point","coordinates":[-48.94259,-5.413387]},"properties":{"kind":"FIXED","limit_kmh":null,"source":"DNIT","active":true,"direction_deg":null}},{"type":"Feature","geometry":{"type":"Point","coordinates":[-49.141266,-5.376759]},"properties":{"kind":"FIXED","limit_kmh":null,"source":"DNIT","active":true,"direction_deg":null}},{"type":"Feature","geometry":{"type":"Point","coordinates":[-49.044944,-5.370194]},"properties":{"kind":"FIXED","limit_kmh":null,"source":"DNIT","active":true,"direction_deg":null}},{"type":"Feature","geometry":{"type":"Point","coordinates":[-49.064224,-5.365307]},"properties":{"kind":"FIXED","limit_kmh":null,"source":"DNIT","active":true,"direction_deg":null}},{"type":"Feature","geometry":{"type":"Point","coordinates":[-49.12467,-5.364077]},"properties":{"kind":"FIXED","limit_kmh":60,"source":"DNIT+OSM","active":true,"direction_deg":21}},{"type":"Feature","geometry":{"type":"Point","coordinates":[-49.068988,-5.363908]},"properties":{"kind":"FIXED","limit_kmh":null,"source":"DNIT","active":true,"direction_deg":null}},{"type":"Feature","geometry":{"type":"Point","coordinates":[-49.10222,-5.35022]},"properties":{"kind":"FIXED","limit_kmh":60,"source":"DNIT+OSM","active":true,"direction_deg":null}},{"type":"Feature","geometry":{"type":"Point","coordinates":[-56.041769,-5.207814]},"properties":{"kind":"FIXED","limit_kmh":60,"source":"ANTT","active":true,"direction_deg":43}},{"type":"Feature","geometry":{"type":"Point","coordinates":[-56.180519,-5.000201]},"properties":{"kind":"FIXED","limit_kmh":60,"source":"ANTT","active":true,"direction_deg":114}},{"type":"Feature","geometry":{"type":"Point","coordinates":[-56.184737,-4.900009]},"properties":{"kind":"FIXED","limit_kmh":60,"source":"ANTT","active":true,"direction_deg":238}},{"type":"Feature","geometry":{"type":"Point","coordinates":[-56.049832,-4.735565]},"properties":{"kind":"FIXED","limit_kmh":40,"source":"ANTT","active":true,"direction_deg":19}},{"type":"Feature","geometry":{"type":"Point","coordinates":[-56.015812,-4.719982]},"properties":{"kind":"FIXED","limit_kmh":60,"source":"ANTT","active":true,"direction_deg":87}},{"type":"Feature","geometry":{"type":"Point","coordinates":[-55.953822,-4.626418]},"properties":{"kind":"FIXED","limit_kmh":60,"source":"ANTT","active":true,"direction_deg":350}},{"type":"Feature","geometry":{"type":"Point","coordinates":[-55.865035,-4.513621]},"properties":{"kind":"FIXED","limit_kmh":60,"source":"ANTT","active":true,"direction_deg":45}},{"type":"Feature","geometry":{"type":"Point","coordinates":[-55.864485,-4.5085]},"properties":{"kind":"FIXED","limit_kmh":60,"source":"ANTT","active":true,"direction_deg":150}},{"type":"Feature","geometry":{"type":"Point","coordinates":[-55.917297,-4.398723]},"properties":{"kind":"FIXED","limit_kmh":40,"source":"ANTT","active":true,"direction_deg":79}},{"type":"Feature","geometry":{"type":"Point","coordinates":[-55.920226,-4.397866]},"properties":{"kind":"FIXED","limit_kmh":40,"source":"ANTT","active":true,"direction_deg":319}},{"type":"Feature","geometry":{"type":"Point","coordinates":[-55.89006,-4.393014]},"properties":{"kind":"FIXED","limit_kmh":40,"source":"ANTT","active":true,"direction_deg":239}},{"type":"Feature","geometry":{"type":"Point","coordinates":[-47.555944,-4.299944]},"properties":{"kind":"FIXED","limit_kmh":null,"source":"DNIT","active":true,"direction_deg":null}},{"type":"Feature","geometry":{"type":"Point","coordinates":[-52.198024,-3.196957]},"properties":{"kind":"FIXED","limit_kmh":60,"source":"OSM","active":true,"direction_deg":null}},{"type":"Feature","geometry":{"type":"Point","coordinates":[-52.1974,-3.196316]},"properties":{"kind":"FIXED","limit_kmh":60,"source":"OSM","active":true,"direction_deg":null}},{"type":"Feature","geometry":{"type":"Point","coordinates":[-52.191316,-3.188998]},"properties":{"kind":"FIXED","limit_kmh":60,"source":"OSM","active":true,"direction_deg":null}},{"type":"Feature","geometry":{"type":"Point","coordinates":[-52.179551,-3.174498]},"properties":{"kind":"FIXED","limit_kmh":40,"source":"OSM","active":true,"direction_deg":null}},{"type":"Feature","geometry":{"type":"Point","coordinates":[-52.126544,-3.171318]},"properties":{"kind":"FIXED","limit_kmh":60,"source":"OSM","active":true,"direction_deg":null}},{"type":"Feature","geometry":{"type":"Point","coordinates":[-54.799319,-2.481633]},"properties":{"kind":"FIXED","limit_kmh":60,"source":"OSM","active":true,"direction_deg":null}},{"type":"Feature","geometry":{"type":"Point","coordinates":[-54.799016,-2.48154]},"properties":{"kind":"FIXED","limit_kmh":60,"source":"OSM","active":true,"direction_deg":null}},{"type":"Feature","geometry":{"type":"Point","coordinates":[-54.752025,-2.468625]},"properties":{"kind":"FIXED","limit_kmh":60,"source":"OSM","active":true,"direction_deg":null}},{"type":"Feature","geometry":{"type":"Point","coordinates":[-54.700875,-2.450741]},"properties":{"kind":"FIXED","limit_kmh":50,"source":"OSM","active":true,"direction_deg":null}},{"type":"Feature","geometry":{"type":"Point","coordinates":[-54.700967,-2.450487]},"properties":{"kind":"FIXED","limit_kmh":40,"source":"OSM","active":true,"direction_deg":null}},{"type":"Feature","geometry":{"type":"Point","coordinates":[-54.783112,-2.447837]},"properties":{"kind":"FIXED","limit_kmh":60,"source":"OSM","active":true,"direction_deg":null}},{"type":"Feature","geometry":{"type":"Point","coordinates":[-54.783334,-2.447752]},"properties":{"kind":"FIXED","limit_kmh":60,"source":"OSM","active":true,"direction_deg":null}},{"type":"Feature","geometry":{"type":"Point","coordinates":[-54.749853,-2.447238]},"properties":{"kind":"FIXED","limit_kmh":40,"source":"OSM","active":true,"direction_deg":null}},{"type":"Feature","geometry":{"type":"Point","coordinates":[-54.749757,-2.447114]},"properties":{"kind":"FIXED","limit_kmh":40,"source":"OSM","active":true,"direction_deg":null}},{"type":"Feature","geometry":{"type":"Point","coordinates":[-54.705766,-2.435712]},"properties":{"kind":"FIXED","limit_kmh":50,"source":"OSM","active":true,"direction_deg":null}},{"type":"Feature","geometry":{"type":"Point","coordinates":[-54.716736,-2.430303]},"properties":{"kind":"FIXED","limit_kmh":40,"source":"OSM","active":true,"direction_deg":null}},{"type":"Feature","geometry":{"type":"Point","coordinates":[-54.707484,-2.429751]},"properties":{"kind":"FIXED","limit_kmh":50,"source":"OSM","active":true,"direction_deg":null}},{"type":"Feature","geometry":{"type":"Point","coordinates":[-54.708055,-2.426257]},"properties":{"kind":"FIXED","limit_kmh":50,"source":"OSM","active":true,"direction_deg":null}},{"type":"Feature","geometry":{"type":"Point","coordinates":[-47.56074,-2.137423]},"properties":{"kind":"FIXED","limit_kmh":60,"source":"OSM","active":true,"direction_deg":null}},{"type":"Feature","geometry":{"type":"Point","coordinates":[-47.553472,-2.05475]},"properties":{"kind":"FIXED","limit_kmh":null,"source":"DNIT","active":true,"direction_deg":null}},{"type":"Feature","geometry":{"type":"Point","coordinates":[-47.5144,-1.810862]},"properties":{"kind":"FIXED","limit_kmh":null,"source":"DNIT","active":true,"direction_deg":null}},{"type":"Feature","geometry":{"type":"Point","coordinates":[-47.502427,-1.710118]},"properties":{"kind":"FIXED","limit_kmh":null,"source":"DNIT","active":true,"direction_deg":null}},{"type":"Feature","geometry":{"type":"Point","coordinates":[-47.481444,-1.627238]},"properties":{"kind":"FIXED","limit_kmh":null,"source":"DNIT","active":true,"direction_deg":null}},{"type":"Feature","geometry":{"type":"Point","coordinates":[-47.481914,-1.613245]},"properties":{"kind":"FIXED","limit_kmh":60,"source":"OSM","active":true,"direction_deg":null}},{"type":"Feature","geometry":{"type":"Point","coordinates":[-47.485035,-1.605338]},"properties":{"kind":"FIXED","limit_kmh":null,"source":"DNIT","active":true,"direction_deg":null}},{"type":"Feature","geometry":{"type":"Point","coordinates":[-48.447185,-1.445609]},"properties":{"kind":"FIXED","limit_kmh":50,"source":"OSM","active":true,"direction_deg":null}},{"type":"Feature","geometry":{"type":"Point","coordinates":[-48.447026,-1.445588]},"properties":{"kind":"FIXED","limit_kmh":50,"source":"OSM","active":true,"direction_deg":null}},{"type":"Feature","geometry":{"type":"Point","coordinates":[-48.456284,-1.438817]},"properties":{"kind":"FIXED","limit_kmh":60,"source":"OSM","active":true,"direction_deg":null}},{"type":"Feature","geometry":{"type":"Point","coordinates":[-48.456276,-1.43846]},"properties":{"kind":"FIXED","limit_kmh":60,"source":"OSM","active":true,"direction_deg":null}},{"type":"Feature","geometry":{"type":"Point","coordinates":[-48.44704,-1.429076]},"properties":{"kind":"FIXED","limit_kmh":60,"source":"OSM","active":true,"direction_deg":null}},{"type":"Feature","geometry":{"type":"Point","coordinates":[-48.44598,-1.427977]},"properties":{"kind":"FIXED","limit_kmh":60,"source":"OSM","active":true,"direction_deg":null}},{"type":"Feature","geometry":{"type":"Point","coordinates":[-48.450288,-1.423944]},"properties":{"kind":"FIXED","limit_kmh":50,"source":"OSM","active":true,"direction_deg":null}},{"type":"Feature","geometry":{"type":"Point","coordinates":[-48.469433,-1.411155]},"properties":{"kind":"SECTION","limit_kmh":60,"source":"OSM","active":true,"end":[-48.469634,-1.411246],"direction_deg":null}},{"type":"Feature","geometry":{"type":"Point","coordinates":[-48.458071,-1.40789]},"properties":{"kind":"FIXED","limit_kmh":60,"source":"OSM","active":true,"direction_deg":null}},{"type":"Feature","geometry":{"type":"Point","coordinates":[-48.458086,-1.407768]},"properties":{"kind":"FIXED","limit_kmh":60,"source":"OSM","active":true,"direction_deg":null}},{"type":"Feature","geometry":{"type":"Point","coordinates":[-48.475085,-1.39803]},"properties":{"kind":"FIXED","limit_kmh":40,"source":"OSM","active":true,"direction_deg":null}},{"type":"Feature","geometry":{"type":"Point","coordinates":[-48.474938,-1.397994]},"properties":{"kind":"FIXED","limit_kmh":40,"source":"OSM","active":true,"direction_deg":null}},{"type":"Feature","geometry":{"type":"Point","coordinates":[-48.465855,-1.394922]},"properties":{"kind":"FIXED","limit_kmh":60,"source":"OSM","active":true,"direction_deg":null}},{"type":"Feature","geometry":{"type":"Point","coordinates":[-48.465984,-1.394875]},"properties":{"kind":"FIXED","limit_kmh":60,"source":"OSM","active":true,"direction_deg":null}},{"type":"Feature","geometry":{"type":"Point","coordinates":[-48.465733,-1.394291]},"properties":{"kind":"SECTION","limit_kmh":60,"source":"OSM","active":true,"end":[-48.466038,-1.394992],"direction_deg":null}},{"type":"Feature","geometry":{"type":"Point","coordinates":[-48.435195,-1.391523]},"properties":{"kind":"FIXED","limit_kmh":60,"source":"OSM","active":true,"direction_deg":null}},{"type":"Feature","geometry":{"type":"Point","coordinates":[-48.435342,-1.391355]},"properties":{"kind":"FIXED","limit_kmh":60,"source":"OSM","active":true,"direction_deg":null}},{"type":"Feature","geometry":{"type":"Point","coordinates":[-48.455657,-1.380893]},"properties":{"kind":"FIXED","limit_kmh":50,"source":"OSM","active":true,"direction_deg":null}},{"type":"Feature","geometry":{"type":"Point","coordinates":[-48.455347,-1.380586]},"properties":{"kind":"FIXED","limit_kmh":50,"source":"OSM","active":true,"direction_deg":null}},{"type":"Feature","geometry":{"type":"Point","coordinates":[-48.385722,-1.37311]},"properties":{"kind":"FIXED","limit_kmh":40,"source":"OSM","active":true,"direction_deg":null}},{"type":"Feature","geometry":{"type":"Point","coordinates":[-48.385861,-1.372893]},"properties":{"kind":"FIXED","limit_kmh":40,"source":"OSM","active":true,"direction_deg":null}},{"type":"Feature","geometry":{"type":"Point","coordinates":[-48.330956,-1.366259]},"properties":{"kind":"FIXED","limit_kmh":70,"source":"OSM","active":true,"direction_deg":null}},{"type":"Feature","geometry":{"type":"Point","coordinates":[-48.338602,-1.365448]},"properties":{"kind":"FIXED","limit_kmh":40,"source":"OSM","active":true,"direction_deg":null}},{"type":"Feature","geometry":{"type":"Point","coordinates":[-48.346006,-1.36544]},"properties":{"kind":"FIXED","limit_kmh":70,"source":"OSM","active":true,"direction_deg":null}},{"type":"Feature","geometry":{"type":"Point","coordinates":[-48.338595,-1.365232]},"properties":{"kind":"FIXED","limit_kmh":40,"source":"OSM","active":true,"direction_deg":null}},{"type":"Feature","geometry":{"type":"Point","coordinates":[-48.310961,-1.365222]},"properties":{"kind":"FIXED","limit_kmh":40,"source":"OSM","active":true,"direction_deg":null}},{"type":"Feature","geometry":{"type":"Point","coordinates":[-48.346043,-1.365185]},"properties":{"kind":"FIXED","limit_kmh":70,"source":"OSM","active":true,"direction_deg":null}},{"type":"Feature","geometry":{"type":"Point","coordinates":[-48.303097,-1.364904]},"properties":{"kind":"FIXED","limit_kmh":60,"source":"OSM","active":true,"direction_deg":null}},{"type":"Feature","geometry":{"type":"Point","coordinates":[-48.30303,-1.364674]},"properties":{"kind":"FIXED","limit_kmh":40,"source":"OSM","active":true,"direction_deg":null}},{"type":"Feature","geometry":{"type":"Point","coordinates":[-48.273605,-1.364398]},"properties":{"kind":"FIXED","limit_kmh":null,"source":"DNIT","active":true,"direction_deg":89}},{"type":"Feature","geometry":{"type":"Point","coordinates":[-48.273028,-1.364261]},"properties":{"kind":"FIXED","limit_kmh":null,"source":"DNIT","active":true,"direction_deg":269}},{"type":"Feature","geometry":{"type":"Point","coordinates":[-48.263111,-1.361805]},"properties":{"kind":"FIXED","limit_kmh":null,"source":"DNIT","active":true,"direction_deg":36}},{"type":"Feature","geometry":{"type":"Point","coordinates":[-48.262869,-1.361598]},"properties":{"kind":"FIXED","limit_kmh":40,"source":"OSM","active":true,"direction_deg":null}},{"type":"Feature","geometry":{"type":"Point","coordinates":[-48.262718,-1.360967]},"properties":{"kind":"FIXED","limit_kmh":40,"source":"OSM","active":true,"direction_deg":null}},{"type":"Feature","geometry":{"type":"Point","coordinates":[-48.262469,-1.360702]},"properties":{"kind":"FIXED","limit_kmh":null,"source":"DNIT","active":true,"direction_deg":215}},{"type":"Feature","geometry":{"type":"Point","coordinates":[-48.260368,-1.357913]},"properties":{"kind":"FIXED","limit_kmh":null,"source":"DNIT","active":true,"direction_deg":36}},{"type":"Feature","geometry":{"type":"Point","coordinates":[-48.25954,-1.356559]},"properties":{"kind":"FIXED","limit_kmh":null,"source":"DNIT","active":true,"direction_deg":214}},{"type":"Feature","geometry":{"type":"Point","coordinates":[-48.254729,-1.350258]},"properties":{"kind":"FIXED","limit_kmh":null,"source":"DNIT","active":true,"direction_deg":36}},{"type":"Feature","geometry":{"type":"Point","coordinates":[-48.253253,-1.348086]},"properties":{"kind":"FIXED","limit_kmh":null,"source":"DNIT","active":true,"direction_deg":216}},{"type":"Feature","geometry":{"type":"Point","coordinates":[-48.245944,-1.341861]},"properties":{"kind":"FIXED","limit_kmh":null,"source":"DNIT","active":true,"direction_deg":60}},{"type":"Feature","geometry":{"type":"Point","coordinates":[-48.24445,-1.34046]},"properties":{"kind":"FIXED","limit_kmh":null,"source":"DNIT","active":true,"direction_deg":218}},{"type":"Feature","geometry":{"type":"Point","coordinates":[-47.508716,-1.316431]},"properties":{"kind":"FIXED","limit_kmh":null,"source":"DNIT","active":true,"direction_deg":null}},{"type":"Feature","geometry":{"type":"Point","coordinates":[-47.990454,-1.302658]},"properties":{"kind":"FIXED","limit_kmh":null,"source":"DNIT","active":true,"direction_deg":253}},{"type":"Feature","geometry":{"type":"Point","coordinates":[-47.938722,-1.298194]},"properties":{"kind":"FIXED","limit_kmh":60,"source":"DNIT+OSM","active":true,"direction_deg":79}},{"type":"Feature","geometry":{"type":"Point","coordinates":[-47.958812,-1.298036]},"properties":{"kind":"FIXED","limit_kmh":60,"source":"DNIT+OSM","active":true,"direction_deg":null}},{"type":"Feature","geometry":{"type":"Point","coordinates":[-47.938229,-1.297882]},"properties":{"kind":"FIXED","limit_kmh":60,"source":"DNIT+OSM","active":true,"direction_deg":256}},{"type":"Feature","geometry":{"type":"Point","coordinates":[-47.951083,-1.297306]},"properties":{"kind":"FIXED","limit_kmh":null,"source":"DNIT","active":true,"direction_deg":83}},{"type":"Feature","geometry":{"type":"Point","coordinates":[-47.950477,-1.297131]},"properties":{"kind":"FIXED","limit_kmh":60,"source":"OSM","active":true,"direction_deg":null}},{"type":"Feature","geometry":{"type":"Point","coordinates":[-47.950083,-1.296917]},"properties":{"kind":"FIXED","limit_kmh":null,"source":"DNIT","active":true,"direction_deg":264}},{"type":"Feature","geometry":{"type":"Point","coordinates":[-47.930306,-1.296917]},"properties":{"kind":"FIXED","limit_kmh":null,"source":"DNIT","active":true,"direction_deg":87}},{"type":"Feature","geometry":{"type":"Point","coordinates":[-47.929762,-1.296699]},"properties":{"kind":"FIXED","limit_kmh":null,"source":"DNIT","active":true,"direction_deg":267}},{"type":"Feature","geometry":{"type":"Point","coordinates":[-47.9275,-1.296694]},"properties":{"kind":"FIXED","limit_kmh":60,"source":"DNIT+OSM","active":true,"direction_deg":87}},{"type":"Feature","geometry":{"type":"Point","coordinates":[-47.926944,-1.296639]},"properties":{"kind":"FIXED","limit_kmh":60,"source":"DNIT+OSM","active":true,"direction_deg":267}},{"type":"Feature","geometry":{"type":"Point","coordinates":[-47.924583,-1.296472]},"properties":{"kind":"FIXED","limit_kmh":null,"source":"DNIT","active":true,"direction_deg":87}},{"type":"Feature","geometry":{"type":"Point","coordinates":[-47.924111,-1.29647]},"properties":{"kind":"FIXED","limit_kmh":null,"source":"DNIT","active":true,"direction_deg":267}},{"type":"Feature","geometry":{"type":"Point","coordinates":[-47.921417,-1.296333]},"properties":{"kind":"FIXED","limit_kmh":null,"source":"DNIT","active":true,"direction_deg":87}},{"type":"Feature","geometry":{"type":"Point","coordinates":[-47.920917,-1.296306]},"properties":{"kind":"FIXED","limit_kmh":null,"source":"DNIT","active":true,"direction_deg":267}},{"type":"Feature","geometry":{"type":"Point","coordinates":[-47.913174,-1.295952]},"properties":{"kind":"FIXED","limit_kmh":null,"source":"DNIT","active":true,"direction_deg":87}},{"type":"Feature","geometry":{"type":"Point","coordinates":[-47.912685,-1.295761]},"properties":{"kind":"FIXED","limit_kmh":null,"source":"DNIT","active":true,"direction_deg":268}},{"type":"Feature","geometry":{"type":"Point","coordinates":[-47.897688,-1.295155]},"properties":{"kind":"FIXED","limit_kmh":60,"source":"DNIT+OSM","active":true,"direction_deg":87}},{"type":"Feature","geometry":{"type":"Point","coordinates":[-47.897198,-1.29496]},"properties":{"kind":"FIXED","limit_kmh":60,"source":"DNIT+OSM","active":true,"direction_deg":268}},{"type":"Feature","geometry":{"type":"Point","coordinates":[-48.172663,-1.294587]},"properties":{"kind":"FIXED","limit_kmh":40,"source":"DNIT+OSM","active":true,"direction_deg":44}},{"type":"Feature","geometry":{"type":"Point","coordinates":[-48.168397,-1.291867]},"properties":{"kind":"FIXED","limit_kmh":null,"source":"DNIT","active":true,"direction_deg":66}},{"type":"Feature","geometry":{"type":"Point","coordinates":[-47.871888,-1.291848]},"properties":{"kind":"FIXED","limit_kmh":null,"source":"DNIT","active":true,"direction_deg":null}},{"type":"Feature","geometry":{"type":"Point","coordinates":[-48.168084,-1.291787]},"properties":{"kind":"FIXED","limit_kmh":40,"source":"OSM","active":true,"direction_deg":null}},{"type":"Feature","geometry":{"type":"Point","coordinates":[-48.161515,-1.291779]},"properties":{"kind":"FIXED","limit_kmh":40,"source":"DNIT+OSM","active":true,"direction_deg":276}},{"type":"Feature","geometry":{"type":"Point","coordinates":[-48.164779,-1.291393]},"properties":{"kind":"FIXED","limit_kmh":40,"source":"DNIT+OSM","active":true,"direction_deg":96}},{"type":"Feature","geometry":{"type":"Point","coordinates":[-48.167018,-1.291292]},"properties":{"kind":"FIXED","limit_kmh":null,"source":"DNIT","active":true,"direction_deg":253}},{"type":"Feature","geometry":{"type":"Point","coordinates":[-48.158065,-1.290924]},"properties":{"kind":"FIXED","limit_kmh":40,"source":"DNIT+OSM","active":true,"direction_deg":248}},{"type":"Feature","geometry":{"type":"Point","coordinates":[-48.05728,-1.29035]},"properties":{"kind":"FIXED","limit_kmh":40,"source":"DNIT+OSM","active":true,"direction_deg":null}},{"type":"Feature","geometry":{"type":"Point","coordinates":[-48.153055,-1.288722]},"properties":{"kind":"FIXED","limit_kmh":40,"source":"DNIT+OSM","active":true,"direction_deg":243}},{"type":"Feature","geometry":{"type":"Point","coordinates":[-48.09719,-1.276]},"properties":{"kind":"FIXED","limit_kmh":null,"source":"DNIT","active":true,"direction_deg":86}},{"type":"Feature","geometry":{"type":"Point","coordinates":[-48.096813,-1.275889]},"properties":{"kind":"FIXED","limit_kmh":40,"source":"OSM","active":true,"direction_deg":null}},{"type":"Feature","geometry":{"type":"Point","coordinates":[-48.095753,-1.275684]},"properties":{"kind":"FIXED","limit_kmh":40,"source":"DNIT+OSM","active":true,"direction_deg":266}},{"type":"Feature","geometry":{"type":"Point","coordinates":[-47.172305,-1.219247]},"properties":{"kind":"FIXED","limit_kmh":null,"source":"DNIT","active":true,"direction_deg":null}}]}