<?xml version="1.0" encoding="UTF-8"?>
<kml xmlns="http://www.opengis.net/kml/2.2"><Document>
<name>Pardal — radares — MT</name>
<description>Pardal — © colaboradores do OpenStreetMap (ODbL 1.0) e fontes abertas listadas no README</description>
<Folder><name>Radares de velocidade</name>
<Placemark><name>Radar 50 km/h</name><description>Fonte: ANTT</description><Point><coordinates>-54.739928,-17.482949,0</coordinates></Point></Placemark>
<Placemark><name>Radar 80 km/h</name><description>Fonte: ANTT · sentido 185° (sul)</description><Point><coordinates>-54.757556,-17.383148,0</coordinates></Point></Placemark>
<Placemark><name>Radar 80 km/h</name><description>Fonte: ANTT · sentido 5° (norte)</description><Point><coordinates>-54.756445,-17.373189,0</coordinates></Point></Placemark>
<Placemark><name>Radar 80 km/h</name><description>Fonte: ANTT · sentido 175° (sul)</description><Point><coordinates>-54.756770,-17.366535,0</coordinates></Point></Placemark>
<Placemark><name>Radar</name><description>Fonte: DNIT · sentido 316° (noroeste)</description><Point><coordinates>-53.212899,-17.317414,0</coordinates></Point></Placemark>
<Placemark><name>Radar 40 km/h</name><description>Fonte: OSM</description><Point><coordinates>-53.213645,-17.316876,0</coordinates></Point></Placemark>
<Placemark><name>Radar</name><description>Fonte: DNIT · sentido 136° (sudeste)</description><Point><coordinates>-53.213698,-17.316695,0</coordinates></Point></Placemark>
<Placemark><name>Radar</name><description>Fonte: DNIT · sentido 316° (noroeste)</description><Point><coordinates>-53.214996,-17.315372,0</coordinates></Point></Placemark>
<Placemark><name>Radar</name><description>Fonte: OSM</description><Point><coordinates>-53.220617,-17.310064,0</coordinates></Point></Placemark>
<Placemark><name>Radar</name><description>Fonte: DNIT · sentido 307° (noroeste)</description><Point><coordinates>-53.220180,-17.310000,0</coordinates></Point></Placemark>
<Placemark><name>Radar</name><description>Fonte: DNIT · sentido 103° (leste)</description><Point><coordinates>-53.220795,-17.309866,0</coordinates></Point></Placemark>
<Placemark><name>Radar 60 km/h</name><description>Fonte: OSM</description><Point><coordinates>-53.234722,-17.302593,0</coordinates></Point></Placemark>
<Placemark><name>Radar</name><description>Fonte: DNIT · sentido 280° (oeste)</description><Point><coordinates>-53.353537,-17.212458,0</coordinates></Point></Placemark>
<Placemark><name>Radar</name><description>Fonte: DNIT · sentido 156° (sudeste)</description><Point><coordinates>-53.356061,-17.210783,0</coordinates></Point></Placemark>
<Placemark><name>Radar 80 km/h</name><description>Fonte: OSM</description><Point><coordinates>-53.519215,-16.965587,0</coordinates></Point></Placemark>
<Placemark><name>Radar 60 km/h</name><description>Fonte: OSM</description><Point><coordinates>-53.520370,-16.958758,0</coordinates></Point></Placemark>
<Placemark><name>Radar</name><description>Fonte: DNIT</description><Point><coordinates>-53.521203,-16.958247,0</coordinates></Point></Placemark>
<Placemark><name>Radar 40 km/h</name><description>Fonte: OSM</description><Point><coordinates>-53.525529,-16.953688,0</coordinates></Point></Placemark>
<Placemark><name>Radar</name><description>Fonte: DNIT</description><Point><coordinates>-53.525757,-16.953453,0</coordinates></Point></Placemark>
<Placemark><name>Radar 40 km/h</name><description>Fonte: OSM</description><Point><coordinates>-53.531011,-16.942489,0</coordinates></Point></Placemark>
<Placemark><name>Radar</name><description>Fonte: DNIT · sentido 293° (noroeste)</description><Point><coordinates>-54.160825,-16.783588,0</coordinates></Point></Placemark>
<Placemark><name>Radar 40 km/h</name><description>Fonte: OSM</description><Point><coordinates>-54.462821,-16.613486,0</coordinates></Point></Placemark>
<Placemark><name>Radar 80 km/h</name><description>Fonte: ANTT · sentido 22° (norte)</description><Point><coordinates>-54.690641,-16.587894,0</coordinates></Point></Placemark>
<Placemark><name>Radar 80 km/h</name><description>Fonte: OSM</description><Point><coordinates>-54.528773,-16.579625,0</coordinates></Point></Placemark>
<Placemark><name>Radar 80 km/h</name><description>Fonte: ANTT · sentido 200° (sul)</description><Point><coordinates>-54.685300,-16.574520,0</coordinates></Point></Placemark>
<Placemark><name>Radar 80 km/h</name><description>Fonte: OSM</description><Point><coordinates>-54.579300,-16.539846,0</coordinates></Point></Placemark>
<Placemark><name>Radar</name><description>Fonte: DNIT · sentido 124° (sudeste)</description><Point><coordinates>-54.624428,-16.505295,0</coordinates></Point></Placemark>
<Placemark><name>Radar 40 km/h</name><description>Fonte: OSM</description><Point><coordinates>-54.631709,-16.500298,0</coordinates></Point></Placemark>
<Placemark><name>Radar</name><description>Fonte: DNIT · sentido 304° (noroeste)</description><Point><coordinates>-54.642069,-16.493672,0</coordinates></Point></Placemark>
<Placemark><name>Radar 60 km/h</name><description>Fonte: OSM</description><Point><coordinates>-54.653897,-16.474476,0</coordinates></Point></Placemark>
<Placemark><name>Radar 60 km/h</name><description>Fonte: OSM</description><Point><coordinates>-54.654194,-16.474192,0</coordinates></Point></Placemark>
<Placemark><name>Radar 40 km/h</name><description>Fonte: OSM</description><Point><coordinates>-54.656071,-16.469805,0</coordinates></Point></Placemark>
<Placemark><name>Radar 40 km/h</name><description>Fonte: ANTT · sentido 155° (sudeste)</description><Point><coordinates>-54.656214,-16.469739,0</coordinates></Point></Placemark>
<Placemark><name>Radar 40 km/h</name><description>Fonte: OSM</description><Point><coordinates>-54.656277,-16.469629,0</coordinates></Point></Placemark>
<Placemark><name>Radar 50 km/h</name><description>Fonte: OSM</description><Point><coordinates>-54.647530,-16.469105,0</coordinates></Point></Placemark>
<Placemark><name>Radar 40 km/h</name><description>Fonte: ANTT · sentido 148° (sudeste)</description><Point><coordinates>-54.659422,-16.462925,0</coordinates></Point></Placemark>
<Placemark><name>Radar 40 km/h</name><description>Fonte: OSM</description><Point><coordinates>-54.663700,-16.453352,0</coordinates></Point></Placemark>
<Placemark><name>Radar 40 km/h</name><description>Fonte: OSM</description><Point><coordinates>-54.663903,-16.453124,0</coordinates></Point></Placemark>
<Placemark><name>Radar 40 km/h</name><description>Fonte: OSM</description><Point><coordinates>-54.669084,-16.445711,0</coordinates></Point></Placemark>
<Placemark><name>Radar 40 km/h</name><description>Fonte: ANTT · sentido 126° (sudeste)</description><Point><coordinates>-54.669254,-16.445539,0</coordinates></Point></Placemark>
<Placemark><name>Radar 60 km/h</name><description>Fonte: OSM</description><Point><coordinates>-54.678453,-16.439018,0</coordinates></Point></Placemark>
<Placemark><name>Radar 60 km/h</name><description>Fonte: ANTT · sentido 306° (noroeste)</description><Point><coordinates>-54.683081,-16.436026,0</coordinates></Point></Placemark>
<Placemark><name>Radar 60 km/h</name><description>Fonte: ANTT · sentido 127° (sudeste)</description><Point><coordinates>-54.694709,-16.428308,0</coordinates></Point></Placemark>
<Placemark><name>Radar 40 km/h</name><description>Fonte: ANTT · sentido 8° (norte)</description><Point><coordinates>-54.714015,-16.393699,0</coordinates></Point></Placemark>
<Placemark><name>Radar</name><description>Fonte: DNIT · sentido 104° (leste)</description><Point><coordinates>-57.462030,-16.253610,0</coordinates></Point></Placemark>
<Placemark><name>Radar</name><description>Fonte: DNIT</description><Point><coordinates>-57.470156,-16.248889,0</coordinates></Point></Placemark>
<Placemark><name>Radar</name><description>Fonte: DNIT · sentido 107° (leste)</description><Point><coordinates>-57.488883,-16.245091,0</coordinates></Point></Placemark>
<Placemark><name>Radar 80 km/h</name><description>Fonte: OSM</description><Point><coordinates>-54.787993,-16.182094,0</coordinates></Point></Placemark>
<Placemark><name>Radar 40 km/h</name><description>Fonte: OSM</description><Point><coordinates>-54.795465,-16.162809,0</coordinates></Point></Placemark>
<Placemark><name>Radar 40 km/h</name><description>Fonte: OSM</description><Point><coordinates>-54.852125,-16.121093,0</coordinates></Point></Placemark>
<Placemark><name>Radar</name><description>Fonte: OSM</description><Point><coordinates>-54.863629,-16.103645,0</coordinates></Point></Placemark>
<Placemark><name>Radar</name><description>Fonte: DNIT · sentido 349° (norte)</description><Point><coordinates>-57.677784,-16.100056,0</coordinates></Point></Placemark>
<Placemark><name>Radar</name><description>Fonte: DNIT · sentido 170° (sul)</description><Point><coordinates>-57.678150,-16.099030,0</coordinates></Point></Placemark>
<Placemark><name>Radar</name><description>Fonte: DNIT</description><Point><coordinates>-57.678481,-16.097170,0</coordinates></Point></Placemark>
<Placemark><name>Radar</name><description>Fonte: DNIT · sentido 33° (nordeste)</description><Point><coordinates>-57.286847,-16.089350,0</coordinates></Point></Placemark>
<Placemark><name>Radar</name><description>Fonte: DNIT · sentido 213° (sudoeste)</description><Point><coordinates>-57.285482,-16.087098,0</coordinates></Point></Placemark>
<Placemark><name>Radar 80 km/h</name><description>Fonte: OSM</description><Point><coordinates>-54.911846,-16.012059,0</coordinates></Point></Placemark>
<Placemark><name>Radar 40 km/h</name><description>Fonte: OSM</description><Point><coordinates>-54.917426,-16.006824,0</coordinates></Point></Placemark>
<Placemark><name>Radar 60 km/h</name><description>Fonte: ANTT</description><Point><coordinates>-54.939550,-15.972171,0</coordinates></Point></Placemark>
<Placemark><name>Radar 40 km/h</name><description>Fonte: OSM</description><Point><coordinates>-54.965541,-15.961787,0</coordinates></Point></Placemark>
<Placemark><name>Radar 40 km/h</name><description>Fonte: OSM</description><Point><coordinates>-54.977809,-15.953354,0</coordinates></Point></Placemark>
<Placemark><name>Radar 60 km/h</name><description>Fonte: ANTT</description><Point><coordinates>-54.994747,-15.952476,0</coordinates></Point></Placemark>
<Placemark><name>Radar 60 km/h</name><description>Fonte: ANTT · sentido 145° (sudeste)</description><Point><coordinates>-55.004495,-15.948487,0</coordinates></Point></Placemark>
<Placemark><name>Radar 80 km/h</name><description>Fonte: ANTT · sentido 127° (sudeste)</description><Point><coordinates>-55.043769,-15.909710,0</coordinates></Point></Placemark>
<Placemark><name>Radar 40 km/h</name><description>Fonte: OSM</description><Point><coordinates>-52.259488,-15.893180,0</coordinates></Point></Placemark>
<Placemark><name>Radar 40 km/h</name><description>Fonte: OSM</description><Point><coordinates>-52.259557,-15.893134,0</coordinates></Point></Placemark>
<Placemark><name>Radar 40 km/h</name><description>Fonte: OSM</description><Point><coordinates>-52.259497,-15.893122,0</coordinates></Point></Placemark>
<Placemark><name>Radar 40 km/h</name><description>Fonte: OSM</description><Point><coordinates>-52.260713,-15.892412,0</coordinates></Point></Placemark>
<Placemark><name>Radar 40 km/h</name><description>Fonte: OSM</description><Point><coordinates>-52.260661,-15.892401,0</coordinates></Point></Placemark>
<Placemark><name>Radar 40 km/h</name><description>Fonte: OSM</description><Point><coordinates>-52.260721,-15.892360,0</coordinates></Point></Placemark>
<Placemark><name>Radar 40 km/h</name><description>Fonte: OSM</description><Point><coordinates>-52.263022,-15.890870,0</coordinates></Point></Placemark>
<Placemark><name>Radar 40 km/h</name><description>Fonte: OSM</description><Point><coordinates>-52.262972,-15.890857,0</coordinates></Point></Placemark>
<Placemark><name>Radar</name><description>Fonte: OSM</description><Point><coordinates>-52.263033,-15.890817,0</coordinates></Point></Placemark>
<Placemark><name>Radar 40 km/h</name><description>Fonte: OSM</description><Point><coordinates>-52.264112,-15.890100,0</coordinates></Point></Placemark>
<Placemark><name>Radar 40 km/h</name><description>Fonte: OSM</description><Point><coordinates>-52.264152,-15.890073,0</coordinates></Point></Placemark>
<Placemark><name>Radar 40 km/h</name><description>Fonte: OSM</description><Point><coordinates>-52.264105,-15.890047,0</coordinates></Point></Placemark>
<Placemark><name>Radar 40 km/h</name><description>Fonte: OSM</description><Point><coordinates>-52.266427,-15.888606,0</coordinates></Point></Placemark>
<Placemark><name>Radar 40 km/h</name><description>Fonte: OSM</description><Point><coordinates>-52.266386,-15.888594,0</coordinates></Point></Placemark>
<Placemark><name>Radar 40 km/h</name><description>Fonte: OSM</description><Point><coordinates>-52.266460,-15.888545,0</coordinates></Point></Placemark>
<Placemark><name>Radar 40 km/h</name><description>Fonte: OSM</description><Point><coordinates>-52.266423,-15.888526,0</coordinates></Point></Placemark>
<Placemark><name>Radar</name><description>Fonte: DNIT</description><Point><coordinates>-52.318147,-15.878183,0</coordinates></Point></Placemark>
<Placemark><name>Radar 40 km/h</name><description>Fonte: OSM</description><Point><coordinates>-52.295159,-15.878084,0</coordinates></Point></Placemark>
<Placemark><name>Radar 40 km/h</name><description>Fonte: OSM</description><Point><coordinates>-52.311987,-15.878064,0</coordinates></Point></Placemark>
<Placemark><name>Radar</name><description>Fonte: DNIT</description><Point><coordinates>-52.311210,-15.878030,0</coordinates></Point></Placemark>
<Placemark><name>Radar</name><description>Fonte: DNIT</description><Point><coordinates>-52.312343,-15.877984,0</coordinates></Point></Placemark>
<Placemark><name>Radar 40 km/h</name><description>Fonte: OSM</description><Point><coordinates>-52.311609,-15.877933,0</coordinates></Point></Placemark>
<Placemark><name>Radar</name><description>Fonte: DNIT</description><Point><coordinates>-52.294806,-15.877905,0</coordinates></Point></Placemark>
<Placemark><name>Radar 40 km/h</name><description>Fonte: OSM</description><Point><coordinates>-52.295009,-15.877845,0</coordinates></Point></Placemark>
<Placemark><name>Radar</name><description>Fonte: DNIT</description><Point><coordinates>-57.863574,-15.842572,0</coordinates></Point></Placemark>
<Placemark><name>Radar 80 km/h</name><description>Fonte: ANTT · sentido 225° (sudoeste)</description><Point><coordinates>-55.436408,-15.829871,0</coordinates></Point></Placemark>
<Placemark><name>Radar 40 km/h</name><description>Fonte: OSM</description><Point><coordinates>-55.418763,-15.822748,0</coordinates></Point></Placemark>
<Placemark><name>Radar 40 km/h</name><description>Fonte: OSM</description><Point><coordinates>-55.417754,-15.822640,0</coordinates></Point></Placemark>
<Placemark><name>Radar</name><description>Fonte: OSM</description><Point><coordinates>-55.523237,-15.819649,0</coordinates></Point></Placemark>
<Placemark><name>Radar 40 km/h</name><description>Fonte: ANTT · sentido 235° (sudoeste)</description><Point><coordinates>-55.309428,-15.811844,0</coordinates></Point></Placemark>
<Placemark><name>Radar 60 km/h</name><description>Fonte: OSM</description><Point><coordinates>-55.542851,-15.808416,0</coordinates></Point></Placemark>
<Placemark><name>Radar 60 km/h</name><description>Fonte: OSM</description><Point><coordinates>-55.615024,-15.802642,0</coordinates></Point></Placemark>
<Placemark><name>Radar 80 km/h</name><description>Fonte: OSM</description><Point><coordinates>-55.575015,-15.800981,0</coordinates></Point></Placemark>
<Placemark><name>Radar 50 km/h</name><description>Fonte: ANTT</description><Point><coordinates>-55.561033,-15.796117,0</coordinates></Point></Placemark>
<Placemark><name>Radar 50 km/h</name><description>Fonte: ANTT</description><Point><coordinates>-55.554869,-15.796013,0</coordinates></Point></Placemark>
<Placemark><name>Radar 50 km/h</name><description>Fonte: ANTT</description><Point><coordinates>-55.571656,-15.793378,0</coordinates></Point></Placemark>
<Placemark><name>Radar 50 km/h</name><description>Fonte: ANTT</description><Point><coordinates>-55.579288,-15.792933,0</coordinates></Point></Placemark>
<Placemark><name>Radar</name><description>Fonte: DNIT · sentido 134° (sudeste)</description><Point><coordinates>-53.827886,-15.702759,0</coordinates></Point></Placemark>
<Placemark><name>Radar 50 km/h</name><description>Fonte: OSM</description><Point><coordinates>-55.796881,-15.702594,0</coordinates></Point></Placemark>
<Placemark><name>Radar 40 km/h</name><description>Fonte: ANTT · sentido 271° (oeste)</description><Point><coordinates>-55.829515,-15.701865,0</coordinates></Point></Placemark>
<Placemark><name>Radar 50 km/h</name><description>Fonte: OSM</description><Point><coordinates>-52.793697,-15.699042,0</coordinates></Point></Placemark>
<Placemark><name>Radar</name><description>Fonte: DNIT · sentido 289° (oeste)</description><Point><coordinates>-52.794001,-15.698914,0</coordinates></Point></Placemark>
<Placemark><name>Radar 60 km/h</name><description>Fonte: OSM</description><Point><coordinates>-52.689149,-15.694553,0</coordinates></Point></Placemark>
<Placemark><name>Radar</name><description>Fonte: DNIT · sentido 304° (noroeste)</description><Point><coordinates>-52.689926,-15.693970,0</coordinates></Point></Placemark>
<Placemark><name>Radar</name><description>Fonte: DNIT · sentido 315° (noroeste)</description><Point><coordinates>-53.847781,-15.683779,0</coordinates></Point></Placemark>
<Placemark><name>Radar</name><description>Fonte: DNIT · sentido 91° (leste)</description><Point><coordinates>-56.297317,-15.679222,0</coordinates></Point></Placemark>
<Placemark><name>Radar</name><description>Fonte: DNIT · sentido 271° (oeste)</description><Point><coordinates>-56.293342,-15.679181,0</coordinates></Point></Placemark>
<Placemark><name>Radar</name><description>Fonte: DNIT</description><Point><coordinates>-52.803397,-15.670646,0</coordinates></Point></Placemark>
<Placemark><name>Radar 40 km/h</name><description>Fonte: ANTT · sentido 326° (noroeste)</description><Point><coordinates>-56.184515,-15.664013,0</coordinates></Point></Placemark>
<Placemark><name>Radar 40 km/h</name><description>Fonte: ANTT · sentido 146° (sudeste)</description><Point><coordinates>-56.184613,-15.663936,0</coordinates></Point></Placemark>
<Placemark><name>Radar</name><description>Fonte: DNIT</description><Point><coordinates>-56.210374,-15.656133,0</coordinates></Point></Placemark>
<Placemark><name>Radar 60 km/h</name><description>Fonte: ANTT</description><Point><coordinates>-56.191106,-15.654771,0</coordinates></Point></Placemark>
<Placemark><name>Radar</name><description>Fonte: OSM</description><Point><coordinates>-56.115300,-15.638461,0</coordinates></Point></Placemark>
<Placemark><name>Radar 40 km/h</name><description>Fonte: OSM</description><Point><coordinates>-56.076252,-15.625564,0</coordinates></Point></Placemark>
<Placemark><name>Radar 60 km/h</name><description>Fonte: OSM</description><Point><coordinates>-56.038404,-15.623415,0</coordinates></Point></Placemark>
<Placemark><name>Radar 60 km/h</name><description>Fonte: OSM</description><Point><coordinates>-56.038640,-15.623288,0</coordinates></Point></Placemark>
<Placemark><name>Radar</name><description>Fonte: DNIT · sentido 326° (noroeste)</description><Point><coordinates>-54.039170,-15.616604,0</coordinates></Point></Placemark>
<Placemark><name>Radar</name><description>Fonte: DNIT · sentido 80° (leste)</description><Point><coordinates>-54.042458,-15.615302,0</coordinates></Point></Placemark>
<Placemark><name>Radar 40 km/h</name><description>Fonte: OSM</description><Point><coordinates>-56.052632,-15.611387,0</coordinates></Point></Placemark>
<Placemark><name>Radar 40 km/h</name><description>Fonte: OSM</description><Point><coordinates>-56.053166,-15.611199,0</coordinates></Point></Placemark>
<Placemark><name>Radar</name><description>Fonte: OSM</description><Point><coordinates>-56.038452,-15.608856,0</coordinates></Point></Placemark>
<Placemark><name>Radar</name><description>Fonte: OSM</description><Point><coordinates>-56.038143,-15.608757,0</coordinates></Point></Placemark>
<Placemark><name>Radar 40 km/h</name><description>Fonte: OSM</description><Point><coordinates>-56.098863,-15.606757,0</coordinates></Point></Placemark>
<Placemark><name>Radar 40 km/h</name><description>Fonte: OSM</description><Point><coordinates>-56.098731,-15.606692,0</coordinates></Point></Placemark>
<Placemark><name>Radar 60 km/h</name><description>Fonte: OSM</description><Point><coordinates>-56.126420,-15.600620,0</coordinates></Point></Placemark>
<Placemark><name>Radar 60 km/h</name><description>Fonte: OSM</description><Point><coordinates>-56.126494,-15.600553,0</coordinates></Point></Placemark>
<Placemark><name>Radar</name><description>Fonte: OSM</description><Point><coordinates>-56.092203,-15.595418,0</coordinates></Point></Placemark>
<Placemark><name>Radar</name><description>Fonte: DNIT · sentido 52° (nordeste)</description><Point><coordinates>-53.219809,-15.590149,0</coordinates></Point></Placemark>
<Placemark><name>Radar</name><description>Fonte: DNIT · sentido 319° (noroeste)</description><Point><coordinates>-53.215036,-15.590039,0</coordinates></Point></Placemark>
<Placemark><name>Radar 40 km/h</name><description>Fonte: OSM</description><Point><coordinates>-56.096077,-15.589797,0</coordinates></Point></Placemark>
<Placemark><name>Radar 60 km/h</name><description>Fonte: OSM</description><Point><coordinates>-56.118203,-15.589607,0</coordinates></Point></Placemark>
<Placemark><name>Radar 60 km/h</name><description>Fonte: OSM</description><Point><coordinates>-56.118294,-15.589549,0</coordinates></Point></Placemark>
<Placemark><name>Radar 40 km/h</name><description>Fonte: OSM</description><Point><coordinates>-56.096569,-15.589425,0</coordinates></Point></Placemark>
<Placemark><name>Radar 60 km/h</name><description>Fonte: OSM</description><Point><coordinates>-56.052142,-15.586143,0</coordinates></Point></Placemark>
<Placemark><name>Radar 60 km/h</name><description>Fonte: OSM</description><Point><coordinates>-56.109844,-15.579298,0</coordinates></Point></Placemark>
<Placemark><name>Radar 60 km/h</name><description>Fonte: OSM</description><Point><coordinates>-56.109940,-15.579234,0</coordinates></Point></Placemark>
<Placemark><name>Radar 60 km/h</name><description>Fonte: OSM</description><Point><coordinates>-56.093347,-15.579158,0</coordinates></Point></Placemark>
<Placemark><name>Radar 60 km/h</name><description>Fonte: OSM</description><Point><coordinates>-56.094081,-15.578768,0</coordinates></Point></Placemark>
<Placemark><name>Radar 60 km/h</name><description>Fonte: OSM</description><Point><coordinates>-56.103421,-15.574914,0</coordinates></Point></Placemark>
<Placemark><name>Radar</name><description>Fonte: DNIT · sentido 86° (leste)</description><Point><coordinates>-54.333132,-15.574473,0</coordinates></Point></Placemark>
<Placemark><name>Radar</name><description>Fonte: DNIT · sentido 69° (leste)</description><Point><coordinates>-54.316744,-15.573010,0</coordinates></Point></Placemark>
<Placemark><name>Radar</name><description>Fonte: DNIT · sentido 242° (sudoeste)</description><Point><coordinates>-54.314963,-15.572046,0</coordinates></Point></Placemark>
<Placemark><name>Radar 60 km/h</name><description>Fonte: OSM</description><Point><coordinates>-56.086267,-15.572006,0</coordinates></Point></Placemark>
<Placemark><name>Radar 60 km/h</name><description>Fonte: OSM</description><Point><coordinates>-56.086091,-15.571558,0</coordinates></Point></Placemark>
<Placemark><name>Radar</name><description>Fonte: DNIT · sentido 62° (nordeste)</description><Point><coordinates>-54.305956,-15.567525,0</coordinates></Point></Placemark>
<Placemark><name>Radar</name><description>Fonte: DNIT · sentido 242° (sudoeste)</description><Point><coordinates>-54.304346,-15.566531,0</coordinates></Point></Placemark>
<Placemark><name>Radar</name><description>Fonte: DNIT · sentido 79° (leste)</description><Point><coordinates>-54.280672,-15.557612,0</coordinates></Point></Placemark>
<Placemark><name>Radar</name><description>Fonte: DNIT · sentido 259° (oeste)</description><Point><coordinates>-54.278547,-15.557085,0</coordinates></Point></Placemark>
<Placemark><name>Radar</name><description>Fonte: DNIT</description><Point><coordinates>-54.258525,-15.551877,0</coordinates></Point></Placemark>
<Placemark><name>Radar 60 km/h</name><description>Fonte: OSM</description><Point><coordinates>-56.097932,-15.549277,0</coordinates></Point></Placemark>
<Placemark><name>Radar 60 km/h</name><description>Fonte: OSM</description><Point><coordinates>-56.097776,-15.549235,0</coordinates></Point></Placemark>
<Placemark><name>Radar</name><description>Fonte: OSM</description><Point><coordinates>-56.079217,-15.541981,0</coordinates></Point></Placemark>
<Placemark><name>Radar</name><description>Fonte: OSM</description><Point><coordinates>-56.079286,-15.541750,0</coordinates></Point></Placemark>
<Placemark><name>Radar 40 km/h</name><description>Fonte: OSM</description><Point><coordinates>-59.324092,-15.249360,0</coordinates></Point></Placemark>
<Placemark><name>Radar</name><description>Fonte: DNIT</description><Point><coordinates>-59.312091,-15.247512,0</coordinates></Point></Placemark>
<Placemark><name>Radar</name><description>Fonte: DNIT</description><Point><coordinates>-59.316759,-15.244815,0</coordinates></Point></Placemark>
<Placemark><name>Radar 40 km/h</name><description>Fonte: OSM</description><Point><coordinates>-59.334039,-15.241944,0</coordinates></Point></Placemark>
<Placemark><name>Radar</name><description>Fonte: DNIT</description><Point><coordinates>-59.334442,-15.241640,0</coordinates></Point></Placemark>
<Placemark><name>Radar</name><description>Fonte: DNIT</description><Point><coordinates>-59.317733,-15.232543,0</coordinates></Point></Placemark>
<Placemark><name>Radar 40 km/h</name><description>Fonte: OSM</description><Point><coordinates>-59.318383,-15.228082,0</coordinates></Point></Placemark>
<Placemark><name>Radar</name><description>Fonte: DNIT</description><Point><coordinates>-59.349106,-15.227206,0</coordinates></Point></Placemark>
<Placemark><name>Radar</name><description>Fonte: DNIT</description><Point><coordinates>-59.349856,-15.225833,0</coordinates></Point></Placemark>
<Placemark><name>Radar 40 km/h</name><description>Fonte: OSM</description><Point><coordinates>-59.318886,-15.224300,0</coordinates></Point></Placemark>
<Placemark><name>Radar</name><description>Fonte: DNIT</description><Point><coordinates>-59.319451,-15.220639,0</coordinates></Point></Placemark>
<Placemark><name>Radar 40 km/h</name><description>Fonte: OSM</description><Point><coordinates>-57.182995,-15.074395,0</coordinates></Point></Placemark>
<Placemark><name>Radar 40 km/h</name><description>Fonte: OSM</description><Point><coordinates>-57.182809,-15.069454,0</coordinates></Point></Placemark>
<Placemark><name>Radar 40 km/h</name><description>Fonte: OSM</description><Point><coordinates>-57.182626,-15.064115,0</coordinates></Point></Placemark>
<Placemark><name>Radar 40 km/h</name><description>Fonte: OSM</description><Point><coordinates>-57.175000,-14.878376,0</coordinates></Point></Placemark>
<Placemark><name>Radar 40 km/h</name><description>Fonte: OSM</description><Point><coordinates>-57.176976,-14.873145,0</coordinates></Point></Placemark>
<Placemark><name>Radar 40 km/h</name><description>Fonte: OSM</description><Point><coordinates>-57.287261,-14.780097,0</coordinates></Point></Placemark>
<Placemark><name>Radar 40 km/h</name><description>Fonte: OSM</description><Point><coordinates>-57.286965,-14.780033,0</coordinates></Point></Placemark>
<Placemark><name>Radar 40 km/h</name><description>Fonte: OSM</description><Point><coordinates>-57.285341,-14.777414,0</coordinates></Point></Placemark>
<Placemark><name>Radar 40 km/h</name><description>Fonte: OSM</description><Point><coordinates>-57.282377,-14.773541,0</coordinates></Point></Placemark>
<Placemark><name>Radar 80 km/h</name><description>Fonte: OSM</description><Point><coordinates>-56.340257,-14.757429,0</coordinates></Point></Placemark>
<Placemark><name>Radar 80 km/h</name><description>Fonte: OSM</description><Point><coordinates>-56.334298,-14.752251,0</coordinates></Point></Placemark>
<Placemark><name>Radar</name><description>Fonte: DNIT · sentido 312° (noroeste)</description><Point><coordinates>-52.355393,-14.680727,0</coordinates></Point></Placemark>
<Placemark><name>Radar 40 km/h</name><description>Fonte: OSM</description><Point><coordinates>-57.283333,-14.680172,0</coordinates></Point></Placemark>
<Placemark><name>Radar</name><description>Fonte: DNIT · sentido 131° (sudeste)</description><Point><coordinates>-52.356621,-14.680081,0</coordinates></Point></Placemark>
<Placemark><name>Radar 40 km/h</name><description>Fonte: OSM</description><Point><coordinates>-57.283901,-14.678398,0</coordinates></Point></Placemark>
<Placemark><name>Radar 40 km/h</name><description>Fonte: OSM</description><Point><coordinates>-57.361167,-14.661338,0</coordinates></Point></Placemark>
<Placemark><name>Radar</name><description>Fonte: OSM</description><Point><coordinates>-57.434711,-14.653031,0</coordinates></Point></Placemark>
<Placemark><name>Radar 40 km/h</name><description>Fonte: OSM</description><Point><coordinates>-57.434552,-14.652772,0</coordinates></Point></Placemark>
<Placemark><name>Radar 40 km/h</name><description>Fonte: OSM</description><Point><coordinates>-57.447194,-14.645460,0</coordinates></Point></Placemark>
<Placemark><name>Radar 40 km/h</name><description>Fonte: OSM</description><Point><coordinates>-57.447124,-14.645365,0</coordinates></Point></Placemark>
<Placemark><name>Radar 40 km/h</name><description>Fonte: OSM</description><Point><coordinates>-57.463027,-14.635893,0</coordinates></Point></Placemark>
<Placemark><name>Radar 40 km/h</name><description>Fonte: OSM</description><Point><coordinates>-57.465466,-14.634557,0</coordinates></Point></Placemark>
<Placemark><name>Radar 40 km/h</name><description>Fonte: ANTT · sentido 228° (sudoeste)</description><Point><coordinates>-56.240942,-14.599294,0</coordinates></Point></Placemark>
<Placemark><name>Radar</name><description>Fonte: DNIT · sentido 340° (norte)</description><Point><coordinates>-59.542408,-14.546063,0</coordinates></Point></Placemark>
<Placemark><name>Radar 60 km/h</name><description>Fonte: OSM</description><Point><coordinates>-56.078188,-13.823342,0</coordinates></Point></Placemark>
<Placemark><name>Radar 40 km/h</name><description>Fonte: OSM</description><Point><coordinates>-56.041776,-13.309036,0</coordinates></Point></Placemark>
<Placemark><name>Radar 40 km/h</name><description>Fonte: OSM</description><Point><coordinates>-56.040796,-13.306801,0</coordinates></Point></Placemark>
<Placemark><name>Radar 60 km/h</name><description>Fonte: ANTT</description><Point><coordinates>-55.942035,-13.085958,0</coordinates></Point></Placemark>
<Placemark><name>Radar 50 km/h</name><description>Fonte: ANTT</description><Point><coordinates>-55.925153,-13.067560,0</coordinates></Point></Placemark>
<Placemark><name>Radar 60 km/h</name><description>Fonte: OSM</description><Point><coordinates>-55.912906,-13.055593,0</coordinates></Point></Placemark>
<Placemark><name>Radar 60 km/h</name><description>Fonte: ANTT</description><Point><coordinates>-55.912815,-13.055465,0</coordinates></Point></Placemark>
<Placemark><name>Radar 60 km/h</name><description>Fonte: ANTT</description><Point><coordinates>-55.897971,-13.029173,0</coordinates></Point></Placemark>
<Placemark><name>Radar 40 km/h</name><description>Fonte: OSM</description><Point><coordinates>-55.833410,-12.862880,0</coordinates></Point></Placemark>
<Placemark><name>Radar 40 km/h</name><description>Fonte: ANTT · sentido 21° (norte)</description><Point><coordinates>-55.833343,-12.862742,0</coordinates></Point></Placemark>
<Placemark><name>Radar 40 km/h</name><description>Fonte: OSM</description><Point><coordinates>-55.832139,-12.859552,0</coordinates></Point></Placemark>
<Placemark><name>Radar 40 km/h</name><description>Fonte: ANTT · sentido 201° (sul)</description><Point><coordinates>-55.832187,-12.859497,0</coordinates></Point></Placemark>
<Placemark><name>Radar 60 km/h</name><description>Fonte: OSM</description><Point><coordinates>-55.830334,-12.730540,0</coordinates></Point></Placemark>
<Placemark><name>Radar 60 km/h</name><description>Fonte: OSM</description><Point><coordinates>-55.794604,-12.675663,0</coordinates></Point></Placemark>
<Placemark><name>Radar 60 km/h</name><description>Fonte: ANTT · sentido 39° (nordeste)</description><Point><coordinates>-55.749739,-12.601219,0</coordinates></Point></Placemark>
<Placemark><name>Radar 60 km/h</name><description>Fonte: OSM</description><Point><coordinates>-55.749780,-12.601142,0</coordinates></Point></Placemark>
<Placemark><name>Radar 60 km/h</name><description>Fonte: ANTT · sentido 32° (nordeste)</description><Point><coordinates>-55.727220,-12.572691,0</coordinates></Point></Placemark>
<Placemark><name>Radar 60 km/h</name><description>Fonte: ANTT · sentido 212° (sudoeste)</description><Point><coordinates>-55.727181,-12.572183,0</coordinates></Point></Placemark>
<Placemark><name>Radar 50 km/h</name><description>Fonte: ANTT</description><Point><coordinates>-55.719497,-12.560517,0</coordinates></Point></Placemark>
<Placemark><name>Radar 40 km/h</name><description>Fonte: OSM</description><Point><coordinates>-55.729546,-12.560376,0</coordinates></Point></Placemark>
<Placemark><name>Radar 50 km/h</name><description>Fonte: ANTT · sentido 34° (nordeste)</description><Point><coordinates>-55.714197,-12.552292,0</coordinates></Point></Placemark>
<Placemark><name>Radar 50 km/h</name><description>Fonte: ANTT · sentido 211° (sudoeste)</description><Point><coordinates>-55.712584,-12.549260,0</coordinates></Point></Placemark>
<Placemark><name>Radar 50 km/h</name><description>Fonte: ANTT · sentido 32° (nordeste)</description><Point><coordinates>-55.709854,-12.545764,0</coordinates></Point></Placemark>
<Placemark><name>Radar 50 km/h</name><description>Fonte: ANTT · sentido 212° (sudoeste)</description><Point><coordinates>-55.710001,-12.545302,0</coordinates></Point></Placemark>
<Placemark><name>Radar 40 km/h</name><description>Fonte: OSM</description><Point><coordinates>-55.711551,-12.541223,0</coordinates></Point></Placemark>
<Placemark><name>Radar 40 km/h</name><description>Fonte: OSM</description><Point><coordinates>-55.725999,-12.538656,0</coordinates></Point></Placemark>
<Placemark><name>Radar 80 km/h</name><description>Fonte: ANTT · sentido 28° (nordeste)</description><Point><coordinates>-55.703627,-12.528071,0</coordinates></Point></Placemark>
<Placemark><name>Radar 40 km/h</name><description>Fonte: ANTT · sentido 37° (nordeste)</description><Point><coordinates>-55.653758,-12.441795,0</coordinates></Point></Placemark>
<Placemark><name>Radar 40 km/h</name><description>Fonte: ANTT</description><Point><coordinates>-55.562297,-12.287022,0</coordinates></Point></Placemark>
<Placemark><name>Radar 40 km/h</name><description>Fonte: OSM</description><Point><coordinates>-55.562159,-12.287022,0</coordinates></Point></Placemark>
<Placemark><name>Radar</name><description>Fonte: DNIT · sentido 56° (nordeste)</description><Point><coordinates>-51.697727,-12.192682,0</coordinates></Point></Placemark>
<Placemark><name>Radar</name><description>Fonte: DNIT · sentido 189° (sul)</description><Point><coordinates>-51.696065,-12.189604,0</coordinates></Point></Placemark>
<Placemark><name>Radar 60 km/h</name><description>Fonte: ANTT · sentido 0° (norte)</description><Point><coordinates>-55.516853,-11.962062,0</coordinates></Point></Placemark>
<Placemark><name>Radar 60 km/h</name><description>Fonte: ANTT · sentido 180° (sul)</description><Point><coordinates>-55.517092,-11.958226,0</coordinates></Point></Placemark>
<Placemark><name>Radar 60 km/h</name><description>Fonte: ANTT</description><Point><coordinates>-55.504829,-11.897853,0</coordinates></Point></Placemark>
<Placemark><name>Radar 60 km/h</name><description>Fonte: ANTT · sentido 14° (norte)</description><Point><coordinates>-55.501339,-11.884887,0</coordinates></Point></Placemark>
<Placemark><name>Radar 60 km/h</name><description>Fonte: ANTT · sentido 14° (norte)</description><Point><coordinates>-55.497154,-11.868907,0</coordinates></Point></Placemark>
<Placemark><name>Radar 60 km/h</name><description>Fonte: ANTT</description><Point><coordinates>-55.495108,-11.860489,0</coordinates></Point></Placemark>
<Placemark><name>Radar 60 km/h</name><description>Fonte: ANTT · sentido 15° (norte)</description><Point><coordinates>-55.492633,-11.851150,0</coordinates></Point></Placemark>
<Placemark><name>Radar 60 km/h</name><description>Fonte: ANTT</description><Point><coordinates>-55.492209,-11.849721,0</coordinates></Point></Placemark>
<Placemark><name>Radar 40 km/h</name><description>Fonte: ANTT · sentido 194° (sul)</description><Point><coordinates>-55.490409,-11.842430,0</coordinates></Point></Placemark>
<Placemark><name>Radar 60 km/h</name><description>Fonte: ANTT</description><Point><coordinates>-55.452044,-11.695381,0</coordinates></Point></Placemark>
<Placemark><name>Radar 40 km/h</name><description>Fonte: ANTT · sentido 350° (norte)</description><Point><coordinates>-55.310202,-11.176991,0</coordinates></Point></Placemark>
<Placemark><name>Radar 40 km/h</name><description>Fonte: ANTT · sentido 31° (nordeste)</description><Point><coordinates>-55.251918,-11.011351,0</coordinates></Point></Placemark>
<Placemark><name>Radar 60 km/h</name><description>Fonte: ANTT · sentido 23° (nordeste)</description><Point><coordinates>-55.188227,-10.850435,0</coordinates></Point></Placemark>
<Placemark><name>Radar 80 km/h</name><description>Fonte: ANTT · sentido 191° (sul)</description><Point><coordinates>-55.129791,-10.724973,0</coordinates></Point></Placemark>
<Placemark><name>Radar 60 km/h</name><description>Fonte: ANTT · sentido 40° (nordeste)</description><Point><coordinates>-54.997766,-10.255392,0</coordinates></Point></Placemark>
<Placemark><name>Radar 60 km/h</name><description>Fonte: ANTT · sentido 214° (sudoeste)</description><Point><coordinates>-54.968787,-10.217980,0</coordinates></Point></Placemark>
<Placemark><name>Radar 60 km/h</name><description>Fonte: ANTT · sentido 214° (sudoeste)</description><Point><coordinates>-54.951762,-10.193424,0</coordinates></Point></Placemark>
<Placemark><name>Radar 40 km/h</name><description>Fonte: ANTT · sentido 4° (norte)</description><Point><coordinates>-54.904962,-9.965051,0</coordinates></Point></Placemark>
<Placemark><name>Radar 40 km/h</name><description>Fonte: ANTT · sentido 184° (sul)</description><Point><coordinates>-54.905037,-9.964610,0</coordinates></Point></Placemark>
<Placemark><name>Radar 40 km/h</name><description>Fonte: ANTT · sentido 178° (sul)</description><Point><coordinates>-54.903335,-9.938937,0</coordinates></Point></Placemark>
<Placemark><name>Radar 60 km/h</name><description>Fonte: ANTT · sentido 23° (nordeste)</description><Point><coordinates>-54.896517,-9.761681,0</coordinates></Point></Placemark>
<Placemark><name>Radar 40 km/h</name><description>Fonte: ANTT · sentido 258° (oeste)</description><Point><coordinates>-54.889358,-9.601294,0</coordinates></Point></Placemark>
<Placemark><name>Radar 40 km/h</name><description>Fonte: ANTT · sentido 56° (nordeste)</description><Point><coordinates>-54.884539,-9.580576,0</coordinates></Point></Placemark>
</Folder>
<Folder><name>Avanço de sinal vermelho</name>
<Placemark><name>Avanço de sinal</name><description>Fonte: OSM</description><Point><coordinates>-56.076293,-15.625490,0</coordinates></Point></Placemark>
<Placemark><name>Avanço de sinal 50 km/h</name><description>Fonte: OSM</description><Point><coordinates>-56.076394,-15.625489,0</coordinates></Point></Placemark>
<Placemark><name>Avanço de sinal</name><description>Fonte: OSM</description><Point><coordinates>-56.076412,-15.625298,0</coordinates></Point></Placemark>
<Placemark><name>Avanço de sinal 50 km/h</name><description>Fonte: OSM</description><Point><coordinates>-56.076386,-15.625139,0</coordinates></Point></Placemark>
</Folder>
</Document></kml>