{"type":"FeatureCollection","attribution":"Pardal — © colaboradores do OpenStreetMap (ODbL 1.0) e fontes abertas listadas no README","features":[{"type":"Feature","geometry":{"type":"Point","coordinates":[-54.739928,-17.482949]},"properties":{"kind":"FIXED","limit_kmh":50,"source":"ANTT","active":true,"direction_deg":null}},{"type":"Feature","geometry":{"type":"Point","coordinates":[-54.757556,-17.383148]},"properties":{"kind":"FIXED","limit_kmh":80,"source":"ANTT","active":true,"direction_deg":185}},{"type":"Feature","geometry":{"type":"Point","coordinates":[-54.756445,-17.373189]},"properties":{"kind":"FIXED","limit_kmh":80,"source":"ANTT","active":true,"direction_deg":5}},{"type":"Feature","geometry":{"type":"Point","coordinates":[-54.75677,-17.366535]},"properties":{"kind":"FIXED","limit_kmh":80,"source":"ANTT","active":true,"direction_deg":175}},{"type":"Feature","geometry":{"type":"Point","coordinates":[-53.212899,-17.317414]},"properties":{"kind":"FIXED","limit_kmh":null,"source":"DNIT","active":true,"direction_deg":316}},{"type":"Feature","geometry":{"type":"Point","coordinates":[-53.213698,-17.316695]},"properties":{"kind":"FIXED","limit_kmh":40,"source":"DNIT+OSM","active":true,"direction_deg":136}},{"type":"Feature","geometry":{"type":"Point","coordinates":[-53.214996,-17.315372]},"properties":{"kind":"FIXED","limit_kmh":null,"source":"DNIT","active":true,"direction_deg":316}},{"type":"Feature","geometry":{"type":"Point","coordinates":[-53.22018,-17.31]},"properties":{"kind":"FIXED","limit_kmh":null,"source":"DNIT","active":true,"direction_deg":307}},{"type":"Feature","geometry":{"type":"Point","coordinates":[-53.220795,-17.309866]},"properties":{"kind":"FIXED","limit_kmh":null,"source":"DNIT+OSM","active":true,"direction_deg":103}},{"type":"Feature","geometry":{"type":"Point","coordinates":[-53.234722,-17.302593]},"properties":{"kind":"FIXED","limit_kmh":60,"source":"OSM","active":true,"direction_deg":null}},{"type":"Feature","geometry":{"type":"Point","coordinates":[-53.353537,-17.212458]},"properties":{"kind":"FIXED","limit_kmh":null,"source":"DNIT","active":true,"direction_deg":280}},{"type":"Feature","geometry":{"type":"Point","coordinates":[-53.356061,-17.210783]},"properties":{"kind":"FIXED","limit_kmh":null,"source":"DNIT","active":true,"direction_deg":156}},{"type":"Feature","geometry":{"type":"Point","coordinates":[-53.519215,-16.965587]},"properties":{"kind":"FIXED","limit_kmh":80,"source":"OSM","active":true,"direction_deg":null}},{"type":"Feature","geometry":{"type":"Point","coordinates":[-53.52037,-16.958758]},"properties":{"kind":"FIXED","limit_kmh":60,"source":"OSM","active":true,"direction_deg":null}},{"type":"Feature","geometry":{"type":"Point","coordinates":[-53.521203,-16.958247]},"properties":{"kind":"FIXED","limit_kmh":null,"source":"DNIT","active":true,"direction_deg":null}},{"type":"Feature","geometry":{"type":"Point","coordinates":[-53.525529,-16.953688]},"properties":{"kind":"FIXED","limit_kmh":40,"source":"OSM","active":true,"direction_deg":null}},{"type":"Feature","geometry":{"type":"Point","coordinates":[-53.525757,-16.953453]},"properties":{"kind":"FIXED","limit_kmh":null,"source":"DNIT","active":true,"direction_deg":null}},{"type":"Feature","geometry":{"type":"Point","coordinates":[-53.531011,-16.942489]},"properties":{"kind":"FIXED","limit_kmh":40,"source":"OSM","active":true,"direction_deg":null}},{"type":"Feature","geometry":{"type":"Point","coordinates":[-54.160825,-16.783588]},"properties":{"kind":"FIXED","limit_kmh":null,"source":"DNIT","active":true,"direction_deg":293}},{"type":"Feature","geometry":{"type":"Point","coordinates":[-54.462821,-16.613486]},"properties":{"kind":"FIXED","limit_kmh":40,"source":"OSM","active":true,"direction_deg":null}},{"type":"Feature","geometry":{"type":"Point","coordinates":[-54.690641,-16.587894]},"properties":{"kind":"FIXED","limit_kmh":80,"source":"ANTT","active":true,"direction_deg":22}},{"type":"Feature","geometry":{"type":"Point","coordinates":[-54.528773,-16.579625]},"properties":{"kind":"FIXED","limit_kmh":80,"source":"OSM","active":true,"direction_deg":null}},{"type":"Feature","geometry":{"type":"Point","coordinates":[-54.6853,-16.57452]},"properties":{"kind":"FIXED","limit_kmh":80,"source":"ANTT","active":true,"direction_deg":200}},{"type":"Feature","geometry":{"type":"Point","coordinates":[-54.5793,-16.539846]},"properties":{"kind":"FIXED","limit_kmh":80,"source":"OSM","active":true,"direction_deg":null}},{"type":"Feature","geometry":{"type":"Point","coordinates":[-54.624428,-16.505295]},"properties":{"kind":"FIXED","limit_kmh":null,"source":"DNIT","active":true,"direction_deg":124}},{"type":"Feature","geometry":{"type":"Point","coordinates":[-54.631709,-16.500298]},"properties":{"kind":"FIXED","limit_kmh":40,"source":"OSM","active":true,"direction_deg":null}},{"type":"Feature","geometry":{"type":"Point","coordinates":[-54.642069,-16.493672]},"properties":{"kind":"FIXED","limit_kmh":null,"source":"DNIT","active":true,"direction_deg":304}},{"type":"Feature","geometry":{"type":"Point","coordinates":[-54.653897,-16.474476]},"properties":{"kind":"FIXED","limit_kmh":60,"source":"OSM","active":true,"direction_deg":null}},{"type":"Feature","geometry":{"type":"Point","coordinates":[-54.654194,-16.474192]},"properties":{"kind":"FIXED","limit_kmh":60,"source":"OSM","active":true,"direction_deg":null}},{"type":"Feature","geometry":{"type":"Point","coordinates":[-54.656214,-16.469739]},"properties":{"kind":"FIXED","limit_kmh":40,"source":"ANTT+OSM","active":true,"direction_deg":155}},{"type":"Feature","geometry":{"type":"Point","coordinates":[-54.64753,-16.469105]},"properties":{"kind":"FIXED","limit_kmh":50,"source":"OSM","active":true,"direction_deg":null}},{"type":"Feature","geometry":{"type":"Point","coordinates":[-54.659422,-16.462925]},"properties":{"kind":"FIXED","limit_kmh":40,"source":"ANTT","active":true,"direction_deg":148}},{"type":"Feature","geometry":{"type":"Point","coordinates":[-54.6637,-16.453352]},"properties":{"kind":"FIXED","limit_kmh":40,"source":"OSM","active":true,"direction_deg":null}},{"type":"Feature","geometry":{"type":"Point","coordinates":[-54.663903,-16.453124]},"properties":{"kind":"FIXED","limit_kmh":40,"source":"OSM","active":true,"direction_deg":null}},{"type":"Feature","geometry":{"type":"Point","coordinates":[-54.669254,-16.445539]},"properties":{"kind":"FIXED","limit_kmh":40,"source":"ANTT+OSM","active":true,"direction_deg":126}},{"type":"Feature","geometry":{"type":"Point","coordinates":[-54.678453,-16.439018]},"properties":{"kind":"FIXED","limit_kmh":60,"source":"OSM","active":true,"direction_deg":null}},{"type":"Feature","geometry":{"type":"Point","coordinates":[-54.683081,-16.436026]},"properties":{"kind":"FIXED","limit_kmh":60,"source":"ANTT","active":true,"direction_deg":306}},{"type":"Feature","geometry":{"type":"Point","coordinates":[-54.694709,-16.428308]},"properties":{"kind":"FIXED","limit_kmh":60,"source":"ANTT","active":true,"direction_deg":127}},{"type":"Feature","geometry":{"type":"Point","coordinates":[-54.714015,-16.393699]},"properties":{"kind":"FIXED","limit_kmh":40,"source":"ANTT","active":true,"direction_deg":8}},{"type":"Feature","geometry":{"type":"Point","coordinates":[-57.46203,-16.25361]},"properties":{"kind":"FIXED","limit_kmh":null,"source":"DNIT","active":true,"direction_deg":104}},{"type":"Feature","geometry":{"type":"Point","coordinates":[-57.470156,-16.248889]},"properties":{"kind":"FIXED","limit_kmh":null,"source":"DNIT","active":true,"direction_deg":null}},{"type":"Feature","geometry":{"type":"Point","coordinates":[-57.488883,-16.245091]},"properties":{"kind":"FIXED","limit_kmh":null,"source":"DNIT","active":true,"direction_deg":107}},{"type":"Feature","geometry":{"type":"Point","coordinates":[-54.787993,-16.182094]},"properties":{"kind":"FIXED","limit_kmh":80,"source":"OSM","active":true,"direction_deg":null}},{"type":"Feature","geometry":{"type":"Point","coordinates":[-54.795465,-16.162809]},"properties":{"kind":"FIXED","limit_kmh":40,"source":"OSM","active":true,"direction_deg":null}},{"type":"Feature","geometry":{"type":"Point","coordinates":[-54.852125,-16.121093]},"properties":{"kind":"FIXED","limit_kmh":40,"source":"OSM","active":true,"direction_deg":null}},{"type":"Feature","geometry":{"type":"Point","coordinates":[-54.863629,-16.103645]},"properties":{"kind":"FIXED","limit_kmh":null,"source":"OSM","active":true,"direction_deg":null}},{"type":"Feature","geometry":{"type":"Point","coordinates":[-57.677784,-16.100056]},"properties":{"kind":"FIXED","limit_kmh":null,"source":"DNIT","active":true,"direction_deg":349}},{"type":"Feature","geometry":{"type":"Point","coordinates":[-57.67815,-16.09903]},"properties":{"kind":"FIXED","limit_kmh":null,"source":"DNIT","active":true,"direction_deg":170}},{"type":"Feature","geometry":{"type":"Point","coordinates":[-57.678481,-16.09717]},"properties":{"kind":"FIXED","limit_kmh":null,"source":"DNIT","active":true,"direction_deg":null}},{"type":"Feature","geometry":{"type":"Point","coordinates":[-57.286847,-16.08935]},"properties":{"kind":"FIXED","limit_kmh":null,"source":"DNIT","active":true,"direction_deg":33}},{"type":"Feature","geometry":{"type":"Point","coordinates":[-57.285482,-16.087098]},"properties":{"kind":"FIXED","limit_kmh":null,"source":"DNIT","active":true,"direction_deg":213}},{"type":"Feature","geometry":{"type":"Point","coordinates":[-54.911846,-16.012059]},"properties":{"kind":"FIXED","limit_kmh":80,"source":"OSM","active":true,"direction_deg":null}},{"type":"Feature","geometry":{"type":"Point","coordinates":[-54.917426,-16.006824]},"properties":{"kind":"FIXED","limit_kmh":40,"source":"OSM","active":true,"direction_deg":null}},{"type":"Feature","geometry":{"type":"Point","coordinates":[-54.93955,-15.972171]},"properties":{"kind":"FIXED","limit_kmh":60,"source":"ANTT","active":true,"direction_deg":null}},{"type":"Feature","geometry":{"type":"Point","coordinates":[-54.965541,-15.961787]},"properties":{"kind":"FIXED","limit_kmh":40,"source":"OSM","active":true,"direction_deg":null}},{"type":"Feature","geometry":{"type":"Point","coordinates":[-54.977809,-15.953354]},"properties":{"kind":"FIXED","limit_kmh":40,"source":"OSM","active":true,"direction_deg":null}},{"type":"Feature","geometry":{"type":"Point","coordinates":[-54.994747,-15.952476]},"properties":{"kind":"FIXED","limit_kmh":60,"source":"ANTT","active":true,"direction_deg":null}},{"type":"Feature","geometry":{"type":"Point","coordinates":[-55.004495,-15.948487]},"properties":{"kind":"FIXED","limit_kmh":60,"source":"ANTT","active":true,"direction_deg":145}},{"type":"Feature","geometry":{"type":"Point","coordinates":[-55.043769,-15.90971]},"properties":{"kind":"FIXED","limit_kmh":80,"source":"ANTT","active":true,"direction_deg":127}},{"type":"Feature","geometry":{"type":"Point","coordinates":[-52.259488,-15.89318]},"properties":{"kind":"FIXED","limit_kmh":40,"source":"OSM","active":true,"direction_deg":null}},{"type":"Feature","geometry":{"type":"Point","coordinates":[-52.259557,-15.893134]},"properties":{"kind":"FIXED","limit_kmh":40,"source":"OSM","active":true,"direction_deg":null}},{"type":"Feature","geometry":{"type":"Point","coordinates":[-52.260661,-15.892401]},"properties":{"kind":"FIXED","limit_kmh":40,"source":"OSM","active":true,"direction_deg":null}},{"type":"Feature","geometry":{"type":"Point","coordinates":[-52.262972,-15.890857]},"properties":{"kind":"FIXED","limit_kmh":40,"source":"OSM","active":true,"direction_deg":null}},{"type":"Feature","geometry":{"type":"Point","coordinates":[-52.264112,-15.8901]},"properties":{"kind":"FIXED","limit_kmh":40,"source":"OSM","active":true,"direction_deg":null}},{"type":"Feature","geometry":{"type":"Point","coordinates":[-52.266386,-15.888594]},"properties":{"kind":"FIXED","limit_kmh":40,"source":"OSM","active":true,"direction_deg":null}},{"type":"Feature","geometry":{"type":"Point","coordinates":[-52.26646,-15.888545]},"properties":{"kind":"FIXED","limit_kmh":40,"source":"OSM","active":true,"direction_deg":null}},{"type":"Feature","geometry":{"type":"Point","coordinates":[-52.318147,-15.878183]},"properties":{"kind":"FIXED","limit_kmh":null,"source":"DNIT","active":true,"direction_deg":null}},{"type":"Feature","geometry":{"type":"Point","coordinates":[-52.295159,-15.878084]},"properties":{"kind":"FIXED","limit_kmh":40,"source":"OSM","active":true,"direction_deg":null}},{"type":"Feature","geometry":{"type":"Point","coordinates":[-52.311987,-15.878064]},"properties":{"kind":"FIXED","limit_kmh":40,"source":"OSM","active":true,"direction_deg":null}},{"type":"Feature","geometry":{"type":"Point","coordinates":[-52.31121,-15.87803]},"properties":{"kind":"FIXED","limit_kmh":null,"source":"DNIT","active":true,"direction_deg":null}},{"type":"Feature","geometry":{"type":"Point","coordinates":[-52.312343,-15.877984]},"properties":{"kind":"FIXED","limit_kmh":null,"source":"DNIT","active":true,"direction_deg":null}},{"type":"Feature","geometry":{"type":"Point","coordinates":[-52.311609,-15.877933]},"properties":{"kind":"FIXED","limit_kmh":40,"source":"OSM","active":true,"direction_deg":null}},{"type":"Feature","geometry":{"type":"Point","coordinates":[-52.294806,-15.877905]},"properties":{"kind":"FIXED","limit_kmh":40,"source":"DNIT+OSM","active":true,"direction_deg":null}},{"type":"Feature","geometry":{"type":"Point","coordinates":[-57.863574,-15.842572]},"properties":{"kind":"FIXED","limit_kmh":null,"source":"DNIT","active":true,"direction_deg":null}},{"type":"Feature","geometry":{"type":"Point","coordinates":[-55.436408,-15.829871]},"properties":{"kind":"FIXED","limit_kmh":80,"source":"ANTT","active":true,"direction_deg":225}},{"type":"Feature","geometry":{"type":"Point","coordinates":[-55.418763,-15.822748]},"properties":{"kind":"FIXED","limit_kmh":40,"source":"OSM","active":true,"direction_deg":null}},{"type":"Feature","geometry":{"type":"Point","coordinates":[-55.417754,-15.82264]},"properties":{"kind":"FIXED","limit_kmh":40,"source":"OSM","active":true,"direction_deg":null}},{"type":"Feature","geometry":{"type":"Point","coordinates":[-55.523237,-15.819649]},"properties":{"kind":"FIXED","limit_kmh":null,"source":"OSM","active":true,"direction_deg":null}},{"type":"Feature","geometry":{"type":"Point","coordinates":[-55.309428,-15.811844]},"properties":{"kind":"FIXED","limit_kmh":40,"source":"ANTT","active":true,"direction_deg":235}},{"type":"Feature","geometry":{"type":"Point","coordinates":[-55.542851,-15.808416]},"properties":{"kind":"FIXED","limit_kmh":60,"source":"OSM","active":true,"direction_deg":null}},{"type":"Feature","geometry":{"type":"Point","coordinates":[-55.615024,-15.802642]},"properties":{"kind":"FIXED","limit_kmh":60,"source":"OSM","active":true,"direction_deg":null}},{"type":"Feature","geometry":{"type":"Point","coordinates":[-55.575015,-15.800981]},"properties":{"kind":"FIXED","limit_kmh":80,"source":"OSM","active":true,"direction_deg":null}},{"type":"Feature","geometry":{"type":"Point","coordinates":[-55.561033,-15.796117]},"properties":{"kind":"FIXED","limit_kmh":50,"source":"ANTT","active":true,"direction_deg":null}},{"type":"Feature","geometry":{"type":"Point","coordinates":[-55.554869,-15.796013]},"properties":{"kind":"FIXED","limit_kmh":50,"source":"ANTT","active":true,"direction_deg":null}},{"type":"Feature","geometry":{"type":"Point","coordinates":[-55.571656,-15.793378]},"properties":{"kind":"FIXED","limit_kmh":50,"source":"ANTT","active":true,"direction_deg":null}},{"type":"Feature","geometry":{"type":"Point","coordinates":[-55.579288,-15.792933]},"properties":{"kind":"FIXED","limit_kmh":50,"source":"ANTT","active":true,"direction_deg":null}},{"type":"Feature","geometry":{"type":"Point","coordinates":[-53.827886,-15.702759]},"properties":{"kind":"FIXED","limit_kmh":null,"source":"DNIT","active":true,"direction_deg":134}},{"type":"Feature","geometry":{"type":"Point","coordinates":[-55.796881,-15.702594]},"properties":{"kind":"FIXED","limit_kmh":50,"source":"OSM","active":true,"direction_deg":null}},{"type":"Feature","geometry":{"type":"Point","coordinates":[-55.829515,-15.701865]},"properties":{"kind":"FIXED","limit_kmh":40,"source":"ANTT","active":true,"direction_deg":271}},{"type":"Feature","geometry":{"type":"Point","coordinates":[-52.793697,-15.699042]},"properties":{"kind":"FIXED","limit_kmh":50,"source":"OSM","active":true,"direction_deg":null}},{"type":"Feature","geometry":{"type":"Point","coordinates":[-52.794001,-15.698914]},"properties":{"kind":"FIXED","limit_kmh":null,"source":"DNIT","active":true,"direction_deg":289}},{"type":"Feature","geometry":{"type":"Point","coordinates":[-52.689149,-15.694553]},"properties":{"kind":"FIXED","limit_kmh":60,"source":"OSM","active":true,"direction_deg":null}},{"type":"Feature","geometry":{"type":"Point","coordinates":[-52.689926,-15.69397]},"properties":{"kind":"FIXED","limit_kmh":null,"source":"DNIT","active":true,"direction_deg":304}},{"type":"Feature","geometry":{"type":"Point","coordinates":[-53.847781,-15.683779]},"properties":{"kind":"FIXED","limit_kmh":null,"source":"DNIT","active":true,"direction_deg":315}},{"type":"Feature","geometry":{"type":"Point","coordinates":[-56.297317,-15.679222]},"properties":{"kind":"FIXED","limit_kmh":null,"source":"DNIT","active":true,"direction_deg":91}},{"type":"Feature","geometry":{"type":"Point","coordinates":[-56.293342,-15.679181]},"properties":{"kind":"FIXED","limit_kmh":null,"source":"DNIT","active":true,"direction_deg":271}},{"type":"Feature","geometry":{"type":"Point","coordinates":[-52.803397,-15.670646]},"properties":{"kind":"FIXED","limit_kmh":null,"source":"DNIT","active":true,"direction_deg":null}},{"type":"Feature","geometry":{"type":"Point","coordinates":[-56.184515,-15.664013]},"properties":{"kind":"FIXED","limit_kmh":40,"source":"ANTT","active":true,"direction_deg":326}},{"type":"Feature","geometry":{"type":"Point","coordinates":[-56.184613,-15.663936]},"properties":{"kind":"FIXED","limit_kmh":40,"source":"ANTT","active":true,"direction_deg":146}},{"type":"Feature","geometry":{"type":"Point","coordinates":[-56.210374,-15.656133]},"properties":{"kind":"FIXED","limit_kmh":null,"source":"DNIT","active":true,"direction_deg":null}},{"type":"Feature","geometry":{"type":"Point","coordinates":[-56.191106,-15.654771]},"properties":{"kind":"FIXED","limit_kmh":60,"source":"ANTT","active":true,"direction_deg":null}},{"type":"Feature","geometry":{"type":"Point","coordinates":[-56.1153,-15.638461]},"properties":{"kind":"FIXED","limit_kmh":null,"source":"OSM","active":true,"direction_deg":null}},{"type":"Feature","geometry":{"type":"Point","coordinates":[-56.076252,-15.625564]},"properties":{"kind":"FIXED","limit_kmh":40,"source":"OSM","active":true,"direction_deg":null}},{"type":"Feature","geometry":{"type":"Point","coordinates":[-56.076293,-15.62549]},"properties":{"kind":"RED_LIGHT","limit_kmh":null,"source":"OSM","active":true,"direction_deg":null}},{"type":"Feature","geometry":{"type":"Point","coordinates":[-56.076394,-15.625489]},"properties":{"kind":"RED_LIGHT","limit_kmh":50,"source":"OSM","active":true,"direction_deg":null}},{"type":"Feature","geometry":{"type":"Point","coordinates":[-56.076412,-15.625298]},"properties":{"kind":"RED_LIGHT","limit_kmh":null,"source":"OSM","active":true,"direction_deg":null}},{"type":"Feature","geometry":{"type":"Point","coordinates":[-56.076386,-15.625139]},"properties":{"kind":"RED_LIGHT","limit_kmh":50,"source":"OSM","active":true,"direction_deg":null}},{"type":"Feature","geometry":{"type":"Point","coordinates":[-56.038404,-15.623415]},"properties":{"kind":"FIXED","limit_kmh":60,"source":"OSM","active":true,"direction_deg":null}},{"type":"Feature","geometry":{"type":"Point","coordinates":[-56.03864,-15.623288]},"properties":{"kind":"FIXED","limit_kmh":60,"source":"OSM","active":true,"direction_deg":null}},{"type":"Feature","geometry":{"type":"Point","coordinates":[-54.03917,-15.616604]},"properties":{"kind":"FIXED","limit_kmh":null,"source":"DNIT","active":true,"direction_deg":326}},{"type":"Feature","geometry":{"type":"Point","coordinates":[-54.042458,-15.615302]},"properties":{"kind":"FIXED","limit_kmh":null,"source":"DNIT","active":true,"direction_deg":80}},{"type":"Feature","geometry":{"type":"Point","coordinates":[-56.052632,-15.611387]},"properties":{"kind":"FIXED","limit_kmh":40,"source":"OSM","active":true,"direction_deg":null}},{"type":"Feature","geometry":{"type":"Point","coordinates":[-56.053166,-15.611199]},"properties":{"kind":"FIXED","limit_kmh":40,"source":"OSM","active":true,"direction_deg":null}},{"type":"Feature","geometry":{"type":"Point","coordinates":[-56.038452,-15.608856]},"properties":{"kind":"FIXED","limit_kmh":null,"source":"OSM","active":true,"direction_deg":null}},{"type":"Feature","geometry":{"type":"Point","coordinates":[-56.038143,-15.608757]},"properties":{"kind":"FIXED","limit_kmh":null,"source":"OSM","active":true,"direction_deg":null}},{"type":"Feature","geometry":{"type":"Point","coordinates":[-56.098863,-15.606757]},"properties":{"kind":"FIXED","limit_kmh":40,"source":"OSM","active":true,"direction_deg":null}},{"type":"Feature","geometry":{"type":"Point","coordinates":[-56.098731,-15.606692]},"properties":{"kind":"FIXED","limit_kmh":40,"source":"OSM","active":true,"direction_deg":null}},{"type":"Feature","geometry":{"type":"Point","coordinates":[-56.12642,-15.60062]},"properties":{"kind":"FIXED","limit_kmh":60,"source":"OSM","active":true,"direction_deg":null}},{"type":"Feature","geometry":{"type":"Point","coordinates":[-56.126494,-15.600553]},"properties":{"kind":"FIXED","limit_kmh":60,"source":"OSM","active":true,"direction_deg":null}},{"type":"Feature","geometry":{"type":"Point","coordinates":[-56.092203,-15.595418]},"properties":{"kind":"FIXED","limit_kmh":null,"source":"OSM","active":true,"direction_deg":null}},{"type":"Feature","geometry":{"type":"Point","coordinates":[-53.219809,-15.590149]},"properties":{"kind":"FIXED","limit_kmh":null,"source":"DNIT","active":true,"direction_deg":52}},{"type":"Feature","geometry":{"type":"Point","coordinates":[-53.215036,-15.590039]},"properties":{"kind":"FIXED","limit_kmh":null,"source":"DNIT","active":true,"direction_deg":319}},{"type":"Feature","geometry":{"type":"Point","coordinates":[-56.096077,-15.589797]},"properties":{"kind":"FIXED","limit_kmh":40,"source":"OSM","active":true,"direction_deg":null}},{"type":"Feature","geometry":{"type":"Point","coordinates":[-56.118203,-15.589607]},"properties":{"kind":"FIXED","limit_kmh":60,"source":"OSM","active":true,"direction_deg":null}},{"type":"Feature","geometry":{"type":"Point","coordinates":[-56.118294,-15.589549]},"properties":{"kind":"FIXED","limit_kmh":60,"source":"OSM","active":true,"direction_deg":null}},{"type":"Feature","geometry":{"type":"Point","coordinates":[-56.096569,-15.589425]},"properties":{"kind":"FIXED","limit_kmh":40,"source":"OSM","active":true,"direction_deg":null}},{"type":"Feature","geometry":{"type":"Point","coordinates":[-56.052142,-15.586143]},"properties":{"kind":"FIXED","limit_kmh":60,"source":"OSM","active":true,"direction_deg":null}},{"type":"Feature","geometry":{"type":"Point","coordinates":[-56.109844,-15.579298]},"properties":{"kind":"FIXED","limit_kmh":60,"source":"OSM","active":true,"direction_deg":null}},{"type":"Feature","geometry":{"type":"Point","coordinates":[-56.10994,-15.579234]},"properties":{"kind":"FIXED","limit_kmh":60,"source":"OSM","active":true,"direction_deg":null}},{"type":"Feature","geometry":{"type":"Point","coordinates":[-56.093347,-15.579158]},"properties":{"kind":"FIXED","limit_kmh":60,"source":"OSM","active":true,"direction_deg":null}},{"type":"Feature","geometry":{"type":"Point","coordinates":[-56.094081,-15.578768]},"properties":{"kind":"FIXED","limit_kmh":60,"source":"OSM","active":true,"direction_deg":null}},{"type":"Feature","geometry":{"type":"Point","coordinates":[-56.103421,-15.574914]},"properties":{"kind":"FIXED","limit_kmh":60,"source":"OSM","active":true,"direction_deg":null}},{"type":"Feature","geometry":{"type":"Point","coordinates":[-54.333132,-15.574473]},"properties":{"kind":"FIXED","limit_kmh":null,"source":"DNIT","active":true,"direction_deg":86}},{"type":"Feature","geometry":{"type":"Point","coordinates":[-54.316744,-15.57301]},"properties":{"kind":"FIXED","limit_kmh":null,"source":"DNIT","active":true,"direction_deg":69}},{"type":"Feature","geometry":{"type":"Point","coordinates":[-54.314963,-15.572046]},"properties":{"kind":"FIXED","limit_kmh":null,"source":"DNIT","active":true,"direction_deg":242}},{"type":"Feature","geometry":{"type":"Point","coordinates":[-56.086267,-15.572006]},"properties":{"kind":"FIXED","limit_kmh":60,"source":"OSM","active":true,"direction_deg":null}},{"type":"Feature","geometry":{"type":"Point","coordinates":[-56.086091,-15.571558]},"properties":{"kind":"FIXED","limit_kmh":60,"source":"OSM","active":true,"direction_deg":null}},{"type":"Feature","geometry":{"type":"Point","coordinates":[-54.305956,-15.567525]},"properties":{"kind":"FIXED","limit_kmh":null,"source":"DNIT","active":true,"direction_deg":62}},{"type":"Feature","geometry":{"type":"Point","coordinates":[-54.304346,-15.566531]},"properties":{"kind":"FIXED","limit_kmh":null,"source":"DNIT","active":true,"direction_deg":242}},{"type":"Feature","geometry":{"type":"Point","coordinates":[-54.280672,-15.557612]},"properties":{"kind":"FIXED","limit_kmh":null,"source":"DNIT","active":true,"direction_deg":79}},{"type":"Feature","geometry":{"type":"Point","coordinates":[-54.278547,-15.557085]},"properties":{"kind":"FIXED","limit_kmh":null,"source":"DNIT","active":true,"direction_deg":259}},{"type":"Feature","geometry":{"type":"Point","coordinates":[-54.258525,-15.551877]},"properties":{"kind":"FIXED","limit_kmh":null,"source":"DNIT","active":true,"direction_deg":null}},{"type":"Feature","geometry":{"type":"Point","coordinates":[-56.097932,-15.549277]},"properties":{"kind":"FIXED","limit_kmh":60,"source":"OSM","active":true,"direction_deg":null}},{"type":"Feature","geometry":{"type":"Point","coordinates":[-56.097776,-15.549235]},"properties":{"kind":"FIXED","limit_kmh":60,"source":"OSM","active":true,"direction_deg":null}},{"type":"Feature","geometry":{"type":"Point","coordinates":[-56.079217,-15.541981]},"properties":{"kind":"FIXED","limit_kmh":null,"source":"OSM","active":true,"direction_deg":null}},{"type":"Feature","geometry":{"type":"Point","coordinates":[-56.079286,-15.54175]},"properties":{"kind":"FIXED","limit_kmh":null,"source":"OSM","active":true,"direction_deg":null}},{"type":"Feature","geometry":{"type":"Point","coordinates":[-59.324092,-15.24936]},"properties":{"kind":"FIXED","limit_kmh":40,"source":"OSM","active":true,"direction_deg":null}},{"type":"Feature","geometry":{"type":"Point","coordinates":[-59.312091,-15.247512]},"properties":{"kind":"FIXED","limit_kmh":null,"source":"DNIT","active":true,"direction_deg":null}},{"type":"Feature","geometry":{"type":"Point","coordinates":[-59.316759,-15.244815]},"properties":{"kind":"FIXED","limit_kmh":null,"source":"DNIT","active":true,"direction_deg":null}},{"type":"Feature","geometry":{"type":"Point","coordinates":[-59.334039,-15.241944]},"properties":{"kind":"FIXED","limit_kmh":40,"source":"OSM","active":true,"direction_deg":null}},{"type":"Feature","geometry":{"type":"Point","coordinates":[-59.334442,-15.24164]},"properties":{"kind":"FIXED","limit_kmh":null,"source":"DNIT","active":true,"direction_deg":null}},{"type":"Feature","geometry":{"type":"Point","coordinates":[-59.317733,-15.232543]},"properties":{"kind":"FIXED","limit_kmh":null,"source":"DNIT","active":true,"direction_deg":null}},{"type":"Feature","geometry":{"type":"Point","coordinates":[-59.318383,-15.228082]},"properties":{"kind":"FIXED","limit_kmh":40,"source":"OSM","active":true,"direction_deg":null}},{"type":"Feature","geometry":{"type":"Point","coordinates":[-59.349106,-15.227206]},"properties":{"kind":"FIXED","limit_kmh":null,"source":"DNIT","active":true,"direction_deg":null}},{"type":"Feature","geometry":{"type":"Point","coordinates":[-59.349856,-15.225833]},"properties":{"kind":"FIXED","limit_kmh":null,"source":"DNIT","active":true,"direction_deg":null}},{"type":"Feature","geometry":{"type":"Point","coordinates":[-59.318886,-15.2243]},"properties":{"kind":"FIXED","limit_kmh":40,"source":"OSM","active":true,"direction_deg":null}},{"type":"Feature","geometry":{"type":"Point","coordinates":[-59.319451,-15.220639]},"properties":{"kind":"FIXED","limit_kmh":null,"source":"DNIT","active":true,"direction_deg":null}},{"type":"Feature","geometry":{"type":"Point","coordinates":[-57.182995,-15.074395]},"properties":{"kind":"FIXED","limit_kmh":40,"source":"OSM","active":true,"direction_deg":null}},{"type":"Feature","geometry":{"type":"Point","coordinates":[-57.182809,-15.069454]},"properties":{"kind":"FIXED","limit_kmh":40,"source":"OSM","active":true,"direction_deg":null}},{"type":"Feature","geometry":{"type":"Point","coordinates":[-57.182626,-15.064115]},"properties":{"kind":"FIXED","limit_kmh":40,"source":"OSM","active":true,"direction_deg":null}},{"type":"Feature","geometry":{"type":"Point","coordinates":[-57.175,-14.878376]},"properties":{"kind":"FIXED","limit_kmh":40,"source":"OSM","active":true,"direction_deg":null}},{"type":"Feature","geometry":{"type":"Point","coordinates":[-57.176976,-14.873145]},"properties":{"kind":"FIXED","limit_kmh":40,"source":"OSM","active":true,"direction_deg":null}},{"type":"Feature","geometry":{"type":"Point","coordinates":[-57.287261,-14.780097]},"properties":{"kind":"FIXED","limit_kmh":40,"source":"OSM","active":true,"direction_deg":null}},{"type":"Feature","geometry":{"type":"Point","coordinates":[-57.286965,-14.780033]},"properties":{"kind":"FIXED","limit_kmh":40,"source":"OSM","active":true,"direction_deg":null}},{"type":"Feature","geometry":{"type":"Point","coordinates":[-57.285341,-14.777414]},"properties":{"kind":"FIXED","limit_kmh":40,"source":"OSM","active":true,"direction_deg":null}},{"type":"Feature","geometry":{"type":"Point","coordinates":[-57.282377,-14.773541]},"properties":{"kind":"FIXED","limit_kmh":40,"source":"OSM","active":true,"direction_deg":null}},{"type":"Feature","geometry":{"type":"Point","coordinates":[-56.340257,-14.757429]},"properties":{"kind":"FIXED","limit_kmh":80,"source":"OSM","active":true,"direction_deg":null}},{"type":"Feature","geometry":{"type":"Point","coordinates":[-56.334298,-14.752251]},"properties":{"kind":"FIXED","limit_kmh":80,"source":"OSM","active":true,"direction_deg":null}},{"type":"Feature","geometry":{"type":"Point","coordinates":[-52.355393,-14.680727]},"properties":{"kind":"FIXED","limit_kmh":null,"source":"DNIT","active":true,"direction_deg":312}},{"type":"Feature","geometry":{"type":"Point","coordinates":[-57.283333,-14.680172]},"properties":{"kind":"FIXED","limit_kmh":40,"source":"OSM","active":true,"direction_deg":null}},{"type":"Feature","geometry":{"type":"Point","coordinates":[-52.356621,-14.680081]},"properties":{"kind":"FIXED","limit_kmh":null,"source":"DNIT","active":true,"direction_deg":131}},{"type":"Feature","geometry":{"type":"Point","coordinates":[-57.283901,-14.678398]},"properties":{"kind":"FIXED","limit_kmh":40,"source":"OSM","active":true,"direction_deg":null}},{"type":"Feature","geometry":{"type":"Point","coordinates":[-57.361167,-14.661338]},"properties":{"kind":"FIXED","limit_kmh":40,"source":"OSM","active":true,"direction_deg":null}},{"type":"Feature","geometry":{"type":"Point","coordinates":[-57.434711,-14.653031]},"properties":{"kind":"FIXED","limit_kmh":null,"source":"OSM","active":true,"direction_deg":null}},{"type":"Feature","geometry":{"type":"Point","coordinates":[-57.434552,-14.652772]},"properties":{"kind":"FIXED","limit_kmh":40,"source":"OSM","active":true,"direction_deg":null}},{"type":"Feature","geometry":{"type":"Point","coordinates":[-57.447194,-14.64546]},"properties":{"kind":"FIXED","limit_kmh":40,"source":"OSM","active":true,"direction_deg":null}},{"type":"Feature","geometry":{"type":"Point","coordinates":[-57.447124,-14.645365]},"properties":{"kind":"FIXED","limit_kmh":40,"source":"OSM","active":true,"direction_deg":null}},{"type":"Feature","geometry":{"type":"Point","coordinates":[-57.463027,-14.635893]},"properties":{"kind":"FIXED","limit_kmh":40,"source":"OSM","active":true,"direction_deg":null}},{"type":"Feature","geometry":{"type":"Point","coordinates":[-57.465466,-14.634557]},"properties":{"kind":"FIXED","limit_kmh":40,"source":"OSM","active":true,"direction_deg":null}},{"type":"Feature","geometry":{"type":"Point","coordinates":[-56.240942,-14.599294]},"properties":{"kind":"FIXED","limit_kmh":40,"source":"ANTT","active":true,"direction_deg":228}},{"type":"Feature","geometry":{"type":"Point","coordinates":[-59.542408,-14.546063]},"properties":{"kind":"FIXED","limit_kmh":null,"source":"DNIT","active":true,"direction_deg":340}},{"type":"Feature","geometry":{"type":"Point","coordinates":[-56.078188,-13.823342]},"properties":{"kind":"FIXED","limit_kmh":60,"source":"OSM","active":true,"direction_deg":null}},{"type":"Feature","geometry":{"type":"Point","coordinates":[-56.041776,-13.309036]},"properties":{"kind":"FIXED","limit_kmh":40,"source":"OSM","active":true,"direction_deg":null}},{"type":"Feature","geometry":{"type":"Point","coordinates":[-56.040796,-13.306801]},"properties":{"kind":"FIXED","limit_kmh":40,"source":"OSM","active":true,"direction_deg":null}},{"type":"Feature","geometry":{"type":"Point","coordinates":[-55.942035,-13.085958]},"properties":{"kind":"FIXED","limit_kmh":60,"source":"ANTT","active":true,"direction_deg":null}},{"type":"Feature","geometry":{"type":"Point","coordinates":[-55.925153,-13.06756]},"properties":{"kind":"FIXED","limit_kmh":50,"source":"ANTT","active":true,"direction_deg":null}},{"type":"Feature","geometry":{"type":"Point","coordinates":[-55.912815,-13.055465]},"properties":{"kind":"FIXED","limit_kmh":60,"source":"ANTT+OSM","active":true,"direction_deg":null}},{"type":"Feature","geometry":{"type":"Point","coordinates":[-55.897971,-13.029173]},"properties":{"kind":"FIXED","limit_kmh":60,"source":"ANTT","active":true,"direction_deg":null}},{"type":"Feature","geometry":{"type":"Point","coordinates":[-55.833343,-12.862742]},"properties":{"kind":"FIXED","limit_kmh":40,"source":"ANTT+OSM","active":true,"direction_deg":21}},{"type":"Feature","geometry":{"type":"Point","coordinates":[-55.832187,-12.859497]},"properties":{"kind":"FIXED","limit_kmh":40,"source":"ANTT+OSM","active":true,"direction_deg":201}},{"type":"Feature","geometry":{"type":"Point","coordinates":[-55.830334,-12.73054]},"properties":{"kind":"FIXED","limit_kmh":60,"source":"OSM","active":true,"direction_deg":null}},{"type":"Feature","geometry":{"type":"Point","coordinates":[-55.794604,-12.675663]},"properties":{"kind":"FIXED","limit_kmh":60,"source":"OSM","active":true,"direction_deg":null}},{"type":"Feature","geometry":{"type":"Point","coordinates":[-55.749739,-12.601219]},"properties":{"kind":"FIXED","limit_kmh":60,"source":"ANTT+OSM","active":true,"direction_deg":39}},{"type":"Feature","geometry":{"type":"Point","coordinates":[-55.72722,-12.572691]},"properties":{"kind":"FIXED","limit_kmh":60,"source":"ANTT","active":true,"direction_deg":32}},{"type":"Feature","geometry":{"type":"Point","coordinates":[-55.727181,-12.572183]},"properties":{"kind":"FIXED","limit_kmh":60,"source":"ANTT","active":true,"direction_deg":212}},{"type":"Feature","geometry":{"type":"Point","coordinates":[-55.719497,-12.560517]},"properties":{"kind":"FIXED","limit_kmh":50,"source":"ANTT","active":true,"direction_deg":null}},{"type":"Feature","geometry":{"type":"Point","coordinates":[-55.729546,-12.560376]},"properties":{"kind":"FIXED","limit_kmh":40,"source":"OSM","active":true,"direction_deg":null}},{"type":"Feature","geometry":{"type":"Point","coordinates":[-55.714197,-12.552292]},"properties":{"kind":"FIXED","limit_kmh":50,"source":"ANTT","active":true,"direction_deg":34}},{"type":"Feature","geometry":{"type":"Point","coordinates":[-55.712584,-12.54926]},"properties":{"kind":"FIXED","limit_kmh":50,"source":"ANTT","active":true,"direction_deg":211}},{"type":"Feature","geometry":{"type":"Point","coordinates":[-55.709854,-12.545764]},"properties":{"kind":"FIXED","limit_kmh":50,"source":"ANTT","active":true,"direction_deg":32}},{"type":"Feature","geometry":{"type":"Point","coordinates":[-55.710001,-12.545302]},"properties":{"kind":"FIXED","limit_kmh":50,"source":"ANTT","active":true,"direction_deg":212}},{"type":"Feature","geometry":{"type":"Point","coordinates":[-55.711551,-12.541223]},"properties":{"kind":"FIXED","limit_kmh":40,"source":"OSM","active":true,"direction_deg":null}},{"type":"Feature","geometry":{"type":"Point","coordinates":[-55.725999,-12.538656]},"properties":{"kind":"FIXED","limit_kmh":40,"source":"OSM","active":true,"direction_deg":null}},{"type":"Feature","geometry":{"type":"Point","coordinates":[-55.703627,-12.528071]},"properties":{"kind":"FIXED","limit_kmh":80,"source":"ANTT","active":true,"direction_deg":28}},{"type":"Feature","geometry":{"type":"Point","coordinates":[-55.653758,-12.441795]},"properties":{"kind":"FIXED","limit_kmh":40,"source":"ANTT","active":true,"direction_deg":37}},{"type":"Feature","geometry":{"type":"Point","coordinates":[-55.562297,-12.287022]},"properties":{"kind":"FIXED","limit_kmh":40,"source":"ANTT+OSM","active":true,"direction_deg":null}},{"type":"Feature","geometry":{"type":"Point","coordinates":[-51.697727,-12.192682]},"properties":{"kind":"FIXED","limit_kmh":null,"source":"DNIT","active":true,"direction_deg":56}},{"type":"Feature","geometry":{"type":"Point","coordinates":[-51.696065,-12.189604]},"properties":{"kind":"FIXED","limit_kmh":null,"source":"DNIT","active":true,"direction_deg":189}},{"type":"Feature","geometry":{"type":"Point","coordinates":[-55.516853,-11.962062]},"properties":{"kind":"FIXED","limit_kmh":60,"source":"ANTT","active":true,"direction_deg":0}},{"type":"Feature","geometry":{"type":"Point","coordinates":[-55.517092,-11.958226]},"properties":{"kind":"FIXED","limit_kmh":60,"source":"ANTT","active":true,"direction_deg":180}},{"type":"Feature","geometry":{"type":"Point","coordinates":[-55.504829,-11.897853]},"properties":{"kind":"FIXED","limit_kmh":60,"source":"ANTT","active":true,"direction_deg":null}},{"type":"Feature","geometry":{"type":"Point","coordinates":[-55.501339,-11.884887]},"properties":{"kind":"FIXED","limit_kmh":60,"source":"ANTT","active":true,"direction_deg":14}},{"type":"Feature","geometry":{"type":"Point","coordinates":[-55.497154,-11.868907]},"properties":{"kind":"FIXED","limit_kmh":60,"source":"ANTT","active":true,"direction_deg":14}},{"type":"Feature","geometry":{"type":"Point","coordinates":[-55.495108,-11.860489]},"properties":{"kind":"FIXED","limit_kmh":60,"source":"ANTT","active":true,"direction_deg":null}},{"type":"Feature","geometry":{"type":"Point","coordinates":[-55.492633,-11.85115]},"properties":{"kind":"FIXED","limit_kmh":60,"source":"ANTT","active":true,"direction_deg":15}},{"type":"Feature","geometry":{"type":"Point","coordinates":[-55.492209,-11.849721]},"properties":{"kind":"FIXED","limit_kmh":60,"source":"ANTT","active":true,"direction_deg":null}},{"type":"Feature","geometry":{"type":"Point","coordinates":[-55.490409,-11.84243]},"properties":{"kind":"FIXED","limit_kmh":40,"source":"ANTT","active":true,"direction_deg":194}},{"type":"Feature","geometry":{"type":"Point","coordinates":[-55.452044,-11.695381]},"properties":{"kind":"FIXED","limit_kmh":60,"source":"ANTT","active":true,"direction_deg":null}},{"type":"Feature","geometry":{"type":"Point","coordinates":[-55.310202,-11.176991]},"properties":{"kind":"FIXED","limit_kmh":40,"source":"ANTT","active":true,"direction_deg":350}},{"type":"Feature","geometry":{"type":"Point","coordinates":[-55.251918,-11.011351]},"properties":{"kind":"FIXED","limit_kmh":40,"source":"ANTT","active":true,"direction_deg":31}},{"type":"Feature","geometry":{"type":"Point","coordinates":[-55.188227,-10.850435]},"properties":{"kind":"FIXED","limit_kmh":60,"source":"ANTT","active":true,"direction_deg":23}},{"type":"Feature","geometry":{"type":"Point","coordinates":[-55.129791,-10.724973]},"properties":{"kind":"FIXED","limit_kmh":80,"source":"ANTT","active":true,"direction_deg":191}},{"type":"Feature","geometry":{"type":"Point","coordinates":[-54.997766,-10.255392]},"properties":{"kind":"FIXED","limit_kmh":60,"source":"ANTT","active":true,"direction_deg":40}},{"type":"Feature","geometry":{"type":"Point","coordinates":[-54.968787,-10.21798]},"properties":{"kind":"FIXED","limit_kmh":60,"source":"ANTT","active":true,"direction_deg":214}},{"type":"Feature","geometry":{"type":"Point","coordinates":[-54.951762,-10.193424]},"properties":{"kind":"FIXED","limit_kmh":60,"source":"ANTT","active":true,"direction_deg":214}},{"type":"Feature","geometry":{"type":"Point","coordinates":[-54.904962,-9.965051]},"properties":{"kind":"FIXED","limit_kmh":40,"source":"ANTT","active":true,"direction_deg":4}},{"type":"Feature","geometry":{"type":"Point","coordinates":[-54.905037,-9.96461]},"properties":{"kind":"FIXED","limit_kmh":40,"source":"ANTT","active":true,"direction_deg":184}},{"type":"Feature","geometry":{"type":"Point","coordinates":[-54.903335,-9.938937]},"properties":{"kind":"FIXED","limit_kmh":40,"source":"ANTT","active":true,"direction_deg":178}},{"type":"Feature","geometry":{"type":"Point","coordinates":[-54.896517,-9.761681]},"properties":{"kind":"FIXED","limit_kmh":60,"source":"ANTT","active":true,"direction_deg":23}},{"type":"Feature","geometry":{"type":"Point","coordinates":[-54.889358,-9.601294]},"properties":{"kind":"FIXED","limit_kmh":40,"source":"ANTT","active":true,"direction_deg":258}},{"type":"Feature","geometry":{"type":"Point","coordinates":[-54.884539,-9.580576]},"properties":{"kind":"FIXED","limit_kmh":40,"source":"ANTT","active":true,"direction_deg":56}}]}